{"type":"FeatureCollection", "features": [
{"type":"Feature","geometry":{"type":"Point","coordinates":[906286,-526617]},"properties":{"code":"AL","name":"Alabama","capital":"Montgomery"}},
{"type":"Feature","geometry":{"type":"Point","coordinates":[-1517480,-1136197]},"properties":{"code":"AK","name":"Alaska","capital":"Juneau"}},
{"type":"Feature","geometry":{"type":"Point","coordinates":[-1479338,-327875]},"properties":{"code":"AZ","name":"Arizona","capital":"Phoenix"}},
{"type":"Feature","geometry":{"type":"Point","coordinates":[336932,-301753]},"properties":{"code":"AR","name":"Arkansas","capital":"Little Rock"}},
{"type":"Feature","geometry":{"type":"Point","coordinates":[-2173837,414013]},"properties":{"code":"CA","name":"California","capital":"Sacramento"}},
{"type":"Feature","geometry":{"type":"Point","coordinates":[-761948,287017]},"properties":{"code":"CO","name":"Colorado","capital":"Denver"}},
{"type":"Feature","geometry":{"type":"Point","coordinates":[1905490,712678]},"properties":{"code":"CT","name":"Connecticut","capital":"Hartford"}},
{"type":"Feature","geometry":{"type":"Point","coordinates":[1739906,373964]},"properties":{"code":"DE","name":"Delaware","capital":"Dover"}},
{"type":"Feature","geometry":{"type":"Point","coordinates":[1120638,-719588]},"properties":{"code":"FL","name":"Florida","capital":"Tallahassee"}},
{"type":"Feature","geometry":{"type":"Point","coordinates":[1065499,-354678]},"properties":{"code":"GA","name":"Georgia","capital":"Atlanta"}},
{"type":"Feature","geometry":{"type":"Point","coordinates":[-1139090,-1020764]},"properties":{"code":"HI","name":"Hawaii","capital":"Honolulu"}},
{"type":"Feature","geometry":{"type":"Point","coordinates":[-1611136,856768]},"properties":{"code":"ID","name":"Idaho","capital":"Boise"}},
{"type":"Feature","geometry":{"type":"Point","coordinates":[538042,275566]},"properties":{"code":"IL","name":"Illinois","capital":"Springfield"}},
{"type":"Feature","geometry":{"type":"Point","coordinates":[833656,297451]},"properties":{"code":"IN","name":"Indiana","capital":"Indianapolis"}},
{"type":"Feature","geometry":{"type":"Point","coordinates":[198265,460873]},"properties":{"code":"IA","name":"Iowa","capital":"Des Moines"}},
{"type":"Feature","geometry":{"type":"Point","coordinates":[27614,173572]},"properties":{"code":"KS","name":"Kansas","capital":"Topeka"}},
{"type":"Feature","geometry":{"type":"Point","coordinates":[962982,133395]},"properties":{"code":"KY","name":"Kentucky","capital":"Frankfort"}},
{"type":"Feature","geometry":{"type":"Point","coordinates":[461085,-774987]},"properties":{"code":"LA","name":"Louisiana","capital":"Baton Rouge"}},
{"type":"Feature","geometry":{"type":"Point","coordinates":[2059441,1047678]},"properties":{"code":"ME","name":"Maine","capital":"Augusta"}},
{"type":"Feature","geometry":{"type":"Point","coordinates":[1662667,337007]},"properties":{"code":"MD","name":"Maryland","capital":"Annapolis"}},
{"type":"Feature","geometry":{"type":"Point","coordinates":[2017566,810412]},"properties":{"code":"MA","name":"Massachusetts","capital":"Boston"}},
{"type":"Feature","geometry":{"type":"Point","coordinates":[929381,642184]},"properties":{"code":"MI","name":"Michigan","capital":"Lansing"}},
{"type":"Feature","geometry":{"type":"Point","coordinates":[228298,837418]},"properties":{"code":"MN","name":"Minnesota","capital":"Saint Paul"}},
{"type":"Feature","geometry":{"type":"Point","coordinates":[544716,-564463]},"properties":{"code":"MS","name":"Mississippi","capital":"Jackson"}},
{"type":"Feature","geometry":{"type":"Point","coordinates":[330179,127608]},"properties":{"code":"MO","name":"Missouri","capital":"Jefferson City"}},
{"type":"Feature","geometry":{"type":"Point","coordinates":[-1225835,1118585]},"properties":{"code":"MT","name":"Montana","capital":"Helena"}},
{"type":"Feature","geometry":{"type":"Point","coordinates":[-58540,370928]},"properties":{"code":"NE","name":"Nebraska","capital":"Lincoln"}},
{"type":"Feature","geometry":{"type":"Point","coordinates":[-2013442,439579]},"properties":{"code":"NV","name":"Nevada","capital":"Carson City"}},
{"type":"Feature","geometry":{"type":"Point","coordinates":[1955907,892154]},"properties":{"code":"NH","name":"New Hampshire","capital":"Concord"}},
{"type":"Feature","geometry":{"type":"Point","coordinates":[1776164,504131]},"properties":{"code":"NJ","name":"New Jersey","capital":"Trenton"}},
{"type":"Feature","geometry":{"type":"Point","coordinates":[-890105,-157037]},"properties":{"code":"NM","name":"New Mexico","capital":"Santa Fe"}},
{"type":"Feature","geometry":{"type":"Point","coordinates":[1796187,788285]},"properties":{"code":"NY","name":"New York","capital":"Albany"}},
{"type":"Feature","geometry":{"type":"Point","coordinates":[1546865,-50948]},"properties":{"code":"NC","name":"North Carolina","capital":"Raleigh"}},
{"type":"Feature","geometry":{"type":"Point","coordinates":[-366325,1050295]},"properties":{"code":"ND","name":"North Dakota","capital":"Bismarck"}},
{"type":"Feature","geometry":{"type":"Point","coordinates":[1097335,351037]},"properties":{"code":"OH","name":"Ohio","capital":"Columbus"}},
{"type":"Feature","geometry":{"type":"Point","coordinates":[-135201,-223832]},"properties":{"code":"OK","name":"Oklahoma","capital":"Oklahoma City"}},
{"type":"Feature","geometry":{"type":"Point","coordinates":[-2101798,1133026]},"properties":{"code":"OR","name":"Oregon","capital":"Salem"}},
{"type":"Feature","geometry":{"type":"Point","coordinates":[1600875,471369]},"properties":{"code":"PA","name":"Pennsylvania","capital":"Harrisburg"}},
{"type":"Feature","geometry":{"type":"Point","coordinates":[2004874,745996]},"properties":{"code":"RI","name":"Rhode Island","capital":"Providence"}},
{"type":"Feature","geometry":{"type":"Point","coordinates":[1366690,-283928]},"properties":{"code":"SC","name":"South Carolina","capital":"Columbia"}},
{"type":"Feature","geometry":{"type":"Point","coordinates":[-345353,776347]},"properties":{"code":"SD","name":"South Dakota","capital":"Pierre"}},
{"type":"Feature","geometry":{"type":"Point","coordinates":[820242,-109677]},"properties":{"code":"TN","name":"Tennessee","capital":"Nashville"}},
{"type":"Feature","geometry":{"type":"Point","coordinates":[-167172,-805391]},"properties":{"code":"TX","name":"Texas","capital":"Austin"}},
{"type":"Feature","geometry":{"type":"Point","coordinates":[-1323757,478201]},"properties":{"code":"UT","name":"Utah","capital":"Salt Lake City"}},
{"type":"Feature","geometry":{"type":"Point","coordinates":[1845553,985354]},"properties":{"code":"VT","name":"Vermont","capital":"Montpelier"}},
{"type":"Feature","geometry":{"type":"Point","coordinates":[1614706,162589]},"properties":{"code":"VA","name":"Virginia","capital":"Richmond"}},
{"type":"Feature","geometry":{"type":"Point","coordinates":[-2027271,1353769]},"properties":{"code":"WA","name":"Washington","capital":"Olympia"}},
{"type":"Feature","geometry":{"type":"Point","coordinates":[1240999,187848]},"properties":{"code":"WV","name":"West Virginia","capital":"Charleston"}},
{"type":"Feature","geometry":{"type":"Point","coordinates":[535442,642907]},"properties":{"code":"WI","name":"Wisconsin","capital":"Madison"}},
{"type":"Feature","geometry":{"type":"Point","coordinates":[-733484,441972]},"properties":{"code":"WY","name":"Wyoming","capital":"Cheyenne"}}
]}