{"type":"FeatureCollection", "features": [
{"type":"Feature","geometry":{"type":"Polygon","coordinates":[[[1182735,-2474082],[1303107,-2359787],[1318430,-2291961],[1379710,-2201121],[1354539,-2104837],[1387822,-2034826],[1392529,-1853487],[1285958,-1820544],[1212316,-1774844],[1126552,-1770580],[1123533,-1731764],[1051685,-1731066],[962399,-1767800],[944010,-1827395],[853679,-1866424],[752435,-1981880],[726391,-1990735],[564155,-1962246],[615733,-2056271],[656513,-2153820],[766277,-2221311],[771307,-2257726],[815399,-2263920],[810047,-2322105],[847490,-2378093],[950537,-2405559],[982898,-2447804],[1014379,-2443119],[1182735,-2474082]]]},"properties":{"code":"ZWE","name":"Zimbabwe"}},
{"type":"Feature","geometry":{"type":"Polygon","coordinates":[[[1123533,-1731764],[1108423,-1659692],[1433568,-1556126],[1378087,-1510796],[1411780,-1468626],[1420168,-1402941],[1461624,-1387902],[1446834,-1281920],[1453056,-1210882],[1497553,-1177792],[1450239,-1070294],[1420743,-1045739],[1314668,-1005604],[1250855,-955551],[1220721,-955868],[1185945,-909276],[981454,-940302],[983199,-964112],[925299,-1021739],[949258,-1088920],[948347,-1181502],[915583,-1271115],[928461,-1307530],[990528,-1367257],[1029881,-1376697],[1070776,-1346624],[1066880,-1483135],[1041147,-1467015],[982074,-1479678],[913106,-1381309],[823863,-1349027],[788336,-1283710],[760731,-1315922],[659746,-1314370],[586157,-1284567],[583457,-1242007],[475399,-1256364],[474096,-1223362],[435546,-1201193],[432631,-1434208],[216058,-1434947],[214012,-1759285],[231915,-1829629],[362985,-1944332],[459261,-1927363],[529719,-1934628],[564155,-1962246],[726391,-1990735],[752435,-1981880],[853679,-1866424],[944010,-1827395],[962399,-1767800],[1051685,-1731066],[1123533,-1731764]]]},"properties":{"code":"ZMB","name":"Zambia"}},
{"type":"Feature","geometry":{"type":"Polygon","coordinates":[[[1543729,-111620],[1548313,19359],[1607613,116159],[1641300,137224],[1660680,183268],[1653468,276505],[1602242,352555],[1595519,411358],[1548810,470037],[1495759,418037],[1441277,431743],[1348780,392255],[1308879,422638],[1237497,420507],[1203079,387660],[1191743,272675],[1241449,252194],[1250043,227161],[1215881,186921],[1105363,90928],[1080469,10913],[1064628,-153999],[1103758,-163144],[1168173,-118511],[1205291,-111298],[1543729,-111620]]]},"properties":{"code":"UGA","name":"Uganda"}},
{"type":"Feature","geometry":{"type":"Polygon","coordinates":[[[-825774,3630843],[-863586,3672326],[-898925,3668004],[-950525,3705101],[-956444,3743791],[-908542,3777995],[-846965,3850360],[-854750,3892312],[-891726,3920145],[-894033,3966418],[-832863,4023064],[-837978,4044166],[-901008,4009853],[-916797,4060431],[-962837,4076019],[-1070591,4036804],[-1109840,3991253],[-1106321,3853884],[-1125400,3804457],[-1202340,3737243],[-1190132,3649993],[-1147251,3612053],[-1139145,3570774],[-1074315,3518407],[-1043365,3319705],[-969893,3377442],[-974552,3450573],[-899994,3514875],[-831234,3548946],[-825774,3630843]]]},"properties":{"code":"TUN","name":"Tunisia"}},
{"type":"Feature","geometry":{"type":"Polygon","coordinates":[[[-2087062,1230755],[-2191180,1246211],[-2192689,1191977],[-2146996,1153332],[-2167073,1060966],[-2135475,1048731],[-2155164,981968],[-2122756,930612],[-2134772,913027],[-2132214,824307],[-2145881,768148],[-2124112,723307],[-2076001,682187],[-2028005,696013],[-2020379,1012691],[-2038505,1039184],[-2045504,1118822],[-2103403,1160214],[-2087062,1230755]]]},"properties":{"code":"TGO","name":"Togo"}},
{"type":"Feature","geometry":{"type":"MultiPolygon","coordinates":[[[[2150466,-692418],[2131301,-641524],[2122519,-703400],[2150466,-692418]]],[[[1420743,-1045739],[1531912,-1076226],[1538159,-1056660],[1594023,-1116666],[1606423,-1192332],[1598117,-1228590],[1635182,-1289095],[1725470,-1276430],[1803778,-1306847],[1842870,-1291316],[1896363,-1307643],[1957789,-1262299],[2019052,-1276515],[2184185,-1213110],[2237488,-1174124],[2166745,-1111435],[2154734,-1030451],[2121323,-946217],[2137986,-898034],[2123247,-842592],[2153107,-787616],[2081978,-709316],[2077310,-658490],[2124378,-526095],[1970186,-411176],[1954282,-340736],[1756520,-227354],[1543729,-111620],[1205291,-111298],[1168173,-118511],[1201534,-173604],[1202906,-259717],[1172395,-266500],[1167757,-323939],[1197929,-363652],[1157211,-398423],[1125964,-453421],[1078046,-494363],[1043239,-493524],[1035953,-552676],[1062901,-626788],[1049771,-668207],[1074216,-733909],[1139752,-799285],[1185945,-909276],[1220721,-955868],[1250855,-955551],[1314668,-1005604],[1420743,-1045739]]]]},"properties":{"code":"TZA","name":"Tanzania"}},
{"type":"Feature","geometry":{"type":"Polygon","coordinates":[[[1225468,-2862345],[1172594,-2838173],[1105173,-2909023],[1101686,-2946965],[1126397,-2985237],[1215538,-3008390],[1235081,-2958317],[1225468,-2862345]]]},"properties":{"code":"SWZ","name":"eSwatini"}},
{"type":"Feature","geometry":{"type":"Polygon","coordinates":[[[1548810,470037],[1688818,612508],[1667933,632525],[1624837,742163],[1507537,853669],[1435048,884252],[1458169,933848],[1536866,939778],[1551919,955334],[1547296,1052990],[1526822,1052856],[1524414,1134636],[1443487,1205985],[1429921,1287998],[1441180,1357455],[1389253,1357463],[1391701,1333864],[1319395,1332709],[1349111,1300864],[1358952,1228079],[1308833,1183790],[1233937,1087507],[1180875,1080804],[1098774,1139317],[1055736,1115510],[1041930,1082623],[990309,1064749],[973880,1033232],[886425,1032987],[867982,1062831],[721396,1053906],[637215,1152242],[557097,1137924],[526769,1080555],[499846,982522],[457653,957979],[473884,916720],[536054,899911],[579980,854434],[573865,831746],[704297,734444],[721747,671895],[785036,639742],[821123,565950],[909207,482149],[968317,499462],[1015430,486660],[1073373,508881],[1131357,441964],[1203079,387660],[1237497,420507],[1308879,422638],[1348780,392255],[1441277,431743],[1495759,418037],[1548810,470037]]]},"properties":{"code":"SDS","name":"S. Sudan"}},
{"type":"Feature","geometry":{"type":"Polygon","coordinates":[[[1547296,1052990],[1568275,1126882],[1565043,1171636],[1595946,1211095],[1635164,1209875],[1650721,1315780],[1699764,1396518],[1754152,1418374],[1790565,1588931],[1774708,1685730],[1819069,1815688],[1823733,1900287],[1866469,1901586],[1902851,1946370],[1951778,1961639],[1985942,2009130],[1858858,2096056],[1828924,2179460],[1810732,2355917],[1777322,2399091],[1767691,2443958],[1460183,2435730],[1200661,2430052],[844645,2424100],[523730,2420618],[528942,2203444],[422866,2201992],[423862,2147506],[428209,1903687],[430812,1740837],[335955,1731919],[289987,1624238],[258727,1605272],[273061,1558858],[229590,1515130],[243021,1471125],[199414,1411778],[257085,1397590],[280155,1288615],[320567,1252969],[314045,1206126],[401396,1085482],[390241,974380],[457653,957979],[499846,982522],[526769,1080555],[557097,1137924],[637215,1152242],[721396,1053906],[867982,1062831],[886425,1032987],[973880,1033232],[990309,1064749],[1041930,1082623],[1055736,1115510],[1098774,1139317],[1180875,1080804],[1233937,1087507],[1308833,1183790],[1358952,1228079],[1349111,1300864],[1319395,1332709],[1391701,1333864],[1389253,1357463],[1441180,1357455],[1429921,1287998],[1443487,1205985],[1524414,1134636],[1526822,1052856],[1547296,1052990]]]},"properties":{"code":"SDN","name":"Sudan"}},
{"type":"Feature","geometry":{"type":"Polygon","coordinates":[[[982898,-2447804],[859612,-2500382],[810107,-2554435],[727572,-2608530],[709533,-2666515],[668421,-2703085],[611960,-2720278],[574931,-2812843],[488294,-2834786],[401025,-2810635],[337103,-2774044],[296792,-2794486],[271138,-2860599],[168206,-2944616],[75597,-2943808],[64214,-2900129],[81543,-2843151],[35689,-2747392],[-2022,-2720001],[-2000,-2909503],[-1974,-3116175],[-33184,-3121841],[-84407,-3168598],[-191123,-3161724],[-257397,-3143418],[-298317,-3071964],[-358472,-3135447],[-306009,-3219422],[-280540,-3293884],[-230137,-3391911],[-176249,-3468878],[-170991,-3565784],[-209753,-3584631],[-148436,-3697009],[-158928,-3728949],[-114966,-3720270],[-35023,-3788460],[1976,-3791875],[50975,-3757740],[172235,-3748535],[216783,-3716592],[346371,-3708684],[465455,-3729527],[483247,-3709022],[544364,-3713870],[579813,-3682552],[622077,-3688375],[686131,-3664150],[765057,-3615900],[867344,-3536975],[1018281,-3398686],[1135408,-3230360],[1237103,-3151381],[1265903,-3106545],[1313459,-2961448],[1235081,-2958317],[1215538,-3008390],[1126397,-2985237],[1101686,-2946965],[1105173,-2909023],[1172594,-2838173],[1225468,-2862345],[1240847,-2699857],[1202351,-2592380],[1182735,-2474082],[1014379,-2443119],[982898,-2447804]],[[871035,-3302098],[836438,-3306300],[796157,-3358607],[735626,-3322494],[705683,-3252023],[778189,-3175409],[869827,-3138504],[941985,-3214080],[908227,-3283219],[871035,-3302098]]]},"properties":{"code":"ZAF","name":"South Africa"}},
{"type":"Feature","geometry":{"type":"Polygon","coordinates":[[[2382145,-190810],[2431550,-109603],[2594072,70203],[2687798,157335],[2873058,280892],[2961080,373481],[3076147,512305],[3185114,704801],[3213172,798479],[3355188,1080005],[3359250,1183932],[3406924,1191058],[3378852,1221238],[3366959,1298561],[3380379,1355603],[3330174,1371538],[3262291,1317625],[3140504,1283360],[3154273,1077986],[3060871,910481],[2850618,680157],[2746851,556084],[2643499,559436],[2550568,524049],[2515126,484010],[2431864,466028],[2416941,447887],[2318650,316477],[2320860,154974],[2322115,-97869],[2382145,-190810]]]},"properties":{"code":"SOM","name":"Somalia"}},
{"type":"Feature","geometry":{"type":"Polygon","coordinates":[[[3140504,1283360],[3111928,1289896],[3043782,1267276],[2978114,1269543],[2891732,1218947],[2811077,1227262],[2720213,1180180],[2660525,1178207],[2600887,1216877],[2530963,1295923],[2499540,1239001],[2473583,1196010],[2495714,1149404],[2569562,1058054],[2630018,1014767],[2953569,908550],[3060871,910481],[3154273,1077986],[3140504,1283360]]]},"properties":{"code":"SOL","name":"Somaliland"}},
{"type":"Feature","geometry":{"type":"Polygon","coordinates":[[[-3304173,970973],[-3350822,954823],[-3325962,994592],[-3341749,1066647],[-3391322,1143825],[-3465841,1147550],[-3529288,1134238],[-3560082,1078895],[-3619301,1043092],[-3610244,946740],[-3546255,882155],[-3545372,849997],[-3444169,792936],[-3347570,888837],[-3304173,970973]]]},"properties":{"code":"SLE","name":"Sierra Leone"}},
{"type":"Feature","geometry":{"type":"Polygon","coordinates":[[[-3455499,1699133],[-3510085,1751058],[-3570112,1857124],[-3596413,1857659],[-3640529,1910587],[-3709945,1925158],[-3792461,1907235],[-3839886,1915029],[-3880686,1836939],[-3956749,1734461],[-3998954,1717128],[-3962874,1702083],[-3914628,1577643],[-3805802,1572885],[-3761426,1597128],[-3636190,1537125],[-3678909,1527327],[-3769016,1567924],[-3840581,1544130],[-3844697,1524772],[-3941970,1518105],[-3945161,1435880],[-3825611,1446925],[-3784077,1467247],[-3631314,1460822],[-3564207,1453760],[-3558436,1435644],[-3484458,1415931],[-3388966,1421508],[-3383594,1482821],[-3404698,1532500],[-3445673,1564110],[-3435464,1629372],[-3455499,1699133]]]},"properties":{"code":"SEN","name":"Senegal"}},
{"type":"Feature","geometry":{"type":"Polygon","coordinates":[[[-1481652,13432],[-1478647,45019],[-1502850,25315],[-1481652,13432]]]},"properties":{"code":"STP","name":"São Tomé and Principe"}},
{"type":"Feature","geometry":{"type":"Polygon","coordinates":[[[1064628,-153999],[1014806,-206342],[986480,-266191],[1001597,-301692],[1096243,-301455],[1103353,-259652],[1172395,-266500],[1202906,-259717],[1201534,-173604],[1168173,-118511],[1103758,-163144],[1064628,-153999]]]},"properties":{"code":"RWA","name":"Rwanda"}},
{"type":"Feature","geometry":{"type":"Polygon","coordinates":[[[-696204,1514374],[-800631,1473503],[-822071,1448023],[-935781,1477582],[-1069462,1469631],[-1132834,1419564],[-1226577,1431336],[-1329319,1480045],[-1410111,1443731],[-1480032,1511461],[-1575376,1542698],[-1648149,1531328],[-1722711,1499052],[-1747911,1423671],[-1781762,1396984],[-1791508,1304447],[-1804631,1271172],[-1770555,1183018],[-1800078,1145671],[-1862842,1014486],[-1892433,1010907],[-1906470,879980],[-1900488,750184],[-1908932,712008],[-1753200,715425],[-1673412,671912],[-1617044,601970],[-1596199,517816],[-1542900,477849],[-1439399,489254],[-1409272,505839],[-1297874,506470],[-1303930,545355],[-1268572,528295],[-1210981,667200],[-1089772,776042],[-1038622,783161],[-979203,713645],[-900020,788406],[-837935,951706],[-793077,983652],[-778658,1043193],[-751415,1055577],[-740203,1110338],[-670041,1231755],[-596308,1270208],[-587940,1338071],[-634426,1368610],[-647681,1445172],[-696204,1514374]]]},"properties":{"code":"NGA","name":"Nigeria"}},
{"type":"Feature","geometry":{"type":"Polygon","coordinates":[[[-696204,1514374],[-711827,1588846],[-609052,1738574],[-487317,1864811],[-453293,2192157],[-429759,2235544],[-507953,2369063],[-525137,2529392],[-604589,2489088],[-680912,2550981],[-837115,2589738],[-1115583,2427965],[-1321644,2309576],[-1504543,2160338],[-1676951,2127181],[-1691748,1890486],[-1738188,1754079],[-1780671,1710713],[-2017110,1706382],[-2055535,1675496],[-2135446,1668926],[-2144243,1622947],[-2101145,1533489],[-2040779,1493700],[-2065786,1459008],[-2006039,1412562],[-1950687,1420312],[-1951266,1371763],[-1921147,1328828],[-1921899,1365019],[-1865744,1380309],[-1791508,1304447],[-1781762,1396984],[-1747911,1423671],[-1722711,1499052],[-1648149,1531328],[-1575376,1542698],[-1480032,1511461],[-1410111,1443731],[-1329319,1480045],[-1226577,1431336],[-1132834,1419564],[-1069462,1469631],[-935781,1477582],[-822071,1448023],[-800631,1473503],[-696204,1514374]]]},"properties":{"code":"NER","name":"Niger"}},
{"type":"Feature","geometry":{"type":"Polygon","coordinates":[[[362985,-1944332],[151922,-1983024],[79930,-1984999],[42156,-1970503],[-99102,-1962930],[-172374,-1917305],[-372845,-1917040],[-651337,-1918579],[-709773,-1877311],[-742405,-1873196],[-801041,-1900619],[-887300,-1905521],[-881014,-1987984],[-804771,-2088448],[-724829,-2225105],[-692420,-2304656],[-596435,-2442395],[-573414,-2497924],[-585388,-2526901],[-571049,-2660704],[-533537,-2750394],[-515813,-2889154],[-474120,-3004005],[-433965,-3066007],[-358472,-3135447],[-298317,-3071964],[-257397,-3143418],[-191123,-3161724],[-84407,-3168598],[-33184,-3121841],[-1974,-3116175],[-2000,-2909503],[-2022,-2720001],[-2383,-2418890],[102143,-2418973],[103854,-2173345],[104306,-2017721],[353603,-1986593],[383111,-2033267],[467316,-1981819],[564155,-1962246],[529719,-1934628],[459261,-1927363],[362985,-1944332]]]},"properties":{"code":"NAM","name":"Namibia"}},
{"type":"Feature","geometry":{"type":"Polygon","coordinates":[[[1182735,-2474082],[1202351,-2592380],[1240847,-2699857],[1225468,-2862345],[1235081,-2958317],[1313459,-2961448],[1314743,-2898340],[1290645,-2869021],[1314263,-2830500],[1374344,-2790323],[1507397,-2746024],[1566313,-2717145],[1612809,-2640051],[1595370,-2636680],[1624254,-2545988],[1623262,-2453966],[1608855,-2489784],[1603766,-2401429],[1580824,-2308032],[1554323,-2270766],[1564571,-2199390],[1584883,-2198837],[1664002,-2129202],[1738274,-2090065],[1843591,-1976160],[1943019,-1923495],[2044888,-1896095],[2130025,-1838552],[2213868,-1733490],[2248731,-1658254],[2230505,-1629583],[2227586,-1509355],[2237063,-1417076],[2226020,-1271048],[2252417,-1196460],[2237488,-1174124],[2184185,-1213110],[2019052,-1276515],[1957789,-1262299],[1896363,-1307643],[1842870,-1291316],[1803778,-1306847],[1725470,-1276430],[1635182,-1289095],[1602542,-1289831],[1567372,-1358353],[1583963,-1486032],[1655058,-1546640],[1715283,-1633483],[1696879,-1786814],[1653778,-1797284],[1630789,-1841034],[1640450,-1900543],[1550456,-1799621],[1536490,-1764930],[1571258,-1700285],[1571283,-1622934],[1553672,-1601669],[1477798,-1618128],[1433568,-1556126],[1108423,-1659692],[1123533,-1731764],[1126552,-1770580],[1212316,-1774844],[1285958,-1820544],[1392529,-1853487],[1387822,-2034826],[1354539,-2104837],[1379710,-2201121],[1318430,-2291961],[1303107,-2359787],[1182735,-2474082]]]},"properties":{"code":"MOZ","name":"Mozambique"}},
{"type":"Feature","geometry":{"type":"Polygon","coordinates":[[[-2107491,3891191],[-2196554,3911698],[-2302603,3910602],[-2346914,3926857],[-2382385,3980103],[-2435378,3988602],[-2498983,3883009],[-2569000,3799777],[-2713928,3745570],[-2822022,3665441],[-2843479,3613179],[-2903089,3544302],[-2926359,3467348],[-2920698,3398993],[-3023358,3289956],[-3130032,3221372],[-3189559,3197482],[-3287542,3180867],[-3315587,3153847],[-3375884,3054217],[-3468501,3006730],[-3525235,2914287],[-3568378,2819852],[-3668511,2746683],[-3661419,2735260],[-3715455,2664422],[-3740902,2608376],[-3812197,2533466],[-3829279,2479353],[-3703143,2478784],[-3612965,2468233],[-3534304,2561478],[-3492262,2684364],[-3459647,2725438],[-3410164,2743707],[-3376744,2789157],[-3305586,2833012],[-3240829,2964366],[-3208604,2970354],[-3159999,3026639],[-3159936,3054820],[-3111301,3065639],[-2998172,3041012],[-2961878,3064084],[-2900561,3063621],[-2878772,3122081],[-2854376,3239012],[-2683687,3328224],[-2640328,3319097],[-2622419,3344539],[-2517561,3354123],[-2461084,3406637],[-2319785,3463934],[-2327813,3529797],[-2246853,3543722],[-2186746,3572454],[-2074899,3561577],[-2048086,3601370],[-2083252,3647891],[-2091231,3696320],[-2074846,3850934],[-2107491,3891191]]]},"properties":{"code":"MAR","name":"Morocco"}},
{"type":"Feature","geometry":{"type":"Polygon","coordinates":[[[-2878772,3122081],[-2900561,3063621],[-2961878,3064084],[-2998172,3041012],[-3111301,3065639],[-3159936,3054820],[-3159999,3026639],[-3208604,2970354],[-3240829,2964366],[-3305586,2833012],[-3376744,2789157],[-3410164,2743707],[-3459647,2725438],[-3492262,2684364],[-3534304,2561478],[-3612965,2468233],[-3703143,2478784],[-3829279,2479353],[-3846162,2409538],[-3827314,2468657],[-3654339,2457220],[-3431939,2443540],[-3418116,2575138],[-3402074,2631527],[-3292439,2677543],[-3240173,2960311],[-2911549,2938362],[-2886289,3081164],[-2878772,3122081]]]},"properties":{"code":"SAH","name":"W. Sahara"}},
{"type":"Feature","geometry":{"type":"Polygon","coordinates":[[[-3455499,1699133],[-3410786,1718620],[-3393727,1767115],[-3359519,1788525],[-3312572,1732512],[-3283061,1762300],[-3204852,1753681],[-3123509,1764488],[-2954013,1758333],[-2738622,1751101],[-2714442,1838814],[-2739628,1871818],[-2740362,2122522],[-2738232,2317754],[-2730965,2595881],[-2721655,2815318],[-2543752,2806018],[-2671410,2907684],[-2886289,3081164],[-2911549,2938362],[-3240173,2960311],[-3292439,2677543],[-3402074,2631527],[-3418116,2575138],[-3431939,2443540],[-3654339,2457220],[-3827314,2468657],[-3846162,2409538],[-3823419,2440321],[-3773571,2338008],[-3820205,2241030],[-3796263,2198163],[-3791733,2142252],[-3807467,2030538],[-3873959,1888518],[-3880686,1836939],[-3839886,1915029],[-3792461,1907235],[-3709945,1925158],[-3640529,1910587],[-3596413,1857659],[-3570112,1857124],[-3510085,1751058],[-3455499,1699133]]]},"properties":{"code":"MRT","name":"Mauritania"}},
{"type":"Feature","geometry":{"type":"Polygon","coordinates":[[[-3388966,1421508],[-3383913,1376846],[-3342910,1397246],[-3318842,1361562],[-3273437,1395929],[-3227069,1375115],[-3141554,1413537],[-3124632,1330118],[-3083052,1296357],[-3113160,1257307],[-3078810,1251276],[-3071809,1188284],[-3048167,1156410],[-3011083,1185630],[-2938882,1155464],[-2901903,1209041],[-2859409,1215718],[-2860413,1165389],[-2838851,1155371],[-2782535,1180300],[-2774698,1249770],[-2753125,1267749],[-2747258,1337823],[-2651555,1392959],[-2654492,1430716],[-2626477,1443691],[-2634709,1480514],[-2602980,1509322],[-2553798,1486909],[-2523865,1495888],[-2509715,1539553],[-2425820,1604832],[-2389996,1592089],[-2372735,1623903],[-2271376,1661943],[-2238742,1686616],[-2135446,1668926],[-2055535,1675496],[-2017110,1706382],[-1780671,1710713],[-1738188,1754079],[-1691748,1890486],[-1676951,2127181],[-1765444,2112290],[-1795231,2130892],[-1779612,2201101],[-1933524,2270388],[-1983515,2320430],[-1982754,2351883],[-2217116,2536440],[-2400832,2686528],[-2543752,2806018],[-2721655,2815318],[-2730965,2595881],[-2738232,2317754],[-2740362,2122522],[-2739628,1871818],[-2714442,1838814],[-2738622,1751101],[-2954013,1758333],[-3123509,1764488],[-3204852,1753681],[-3283061,1762300],[-3312572,1732512],[-3359519,1788525],[-3393727,1767115],[-3410786,1718620],[-3455499,1699133],[-3435464,1629372],[-3445673,1564110],[-3404698,1532500],[-3383594,1482821],[-3388966,1421508]]]},"properties":{"code":"MLI","name":"Mali"}},
{"type":"Feature","geometry":{"type":"Polygon","coordinates":[[[1433568,-1556126],[1477798,-1618128],[1553672,-1601669],[1571283,-1622934],[1571258,-1700285],[1536490,-1764930],[1550456,-1799621],[1640450,-1900543],[1630789,-1841034],[1653778,-1797284],[1696879,-1786814],[1715283,-1633483],[1655058,-1546640],[1583963,-1486032],[1567372,-1358353],[1602542,-1289831],[1635182,-1289095],[1598117,-1228590],[1606423,-1192332],[1594023,-1116666],[1538159,-1056660],[1531912,-1076226],[1420743,-1045739],[1450239,-1070294],[1497553,-1177792],[1453056,-1210882],[1446834,-1281920],[1461624,-1387902],[1420168,-1402941],[1411780,-1468626],[1378087,-1510796],[1433568,-1556126]]]},"properties":{"code":"MWI","name":"Malawi"}},
{"type":"Feature","geometry":{"type":"Polygon","coordinates":[[[3193615,-1418498],[3161839,-1377413],[3113768,-1420506],[3122525,-1473622],[3107302,-1510834],[3045754,-1560172],[3024225,-1545534],[2990630,-1651930],[2955774,-1701393],[2949769,-1668512],[2908646,-1717653],[2822634,-1778365],[2755154,-1787385],[2622079,-1828409],[2611329,-1882531],[2557631,-1957979],[2554183,-2058287],[2565863,-2146749],[2583483,-2186969],[2550021,-2291961],[2494428,-2378930],[2461387,-2397335],[2428185,-2473099],[2430417,-2566262],[2454509,-2638827],[2438943,-2730077],[2464468,-2802071],[2564275,-2867919],[2603275,-2872229],[2674027,-2839002],[2732452,-2833244],[2783663,-2795587],[2837495,-2696430],[2896132,-2541509],[2958776,-2419100],[2998565,-2320588],[3124714,-2037063],[3127831,-1974629],[3168977,-1916047],[3182674,-1853083],[3172127,-1774389],[3198762,-1762992],[3225682,-1821235],[3261209,-1757221],[3243018,-1682086],[3244264,-1603332],[3229512,-1492548],[3193615,-1418498]]]},"properties":{"code":"MDG","name":"Madagascar"}},
{"type":"Feature","geometry":{"type":"Polygon","coordinates":[[[-1043365,3319705],[-1064990,3307964],[-1033333,3248163],[-1020951,3183216],[-1022237,3055731],[-1042544,3006996],[-1036643,2922550],[-1081972,2870958],[-1030315,2790134],[-1008691,2709229],[-877958,2674360],[-837115,2589738],[-680912,2550981],[-604589,2489088],[-525137,2529392],[-419007,2577289],[-185712,2455612],[-34935,2378196],[167859,2275400],[423862,2147506],[422866,2201992],[528942,2203444],[523730,2420618],[517840,2640123],[509925,2907348],[500383,3197419],[471060,3311715],[493660,3368290],[479485,3427823],[507550,3462374],[460222,3500332],[405823,3499016],[322424,3520058],[302189,3563035],[213340,3594314],[159534,3596075],[60757,3557791],[11920,3519258],[-7249,3476493],[14954,3397634],[-28532,3334553],[-106002,3313498],[-179658,3365823],[-318382,3413412],[-383341,3419282],[-443841,3461808],[-472429,3540493],[-654668,3598976],[-752683,3594814],[-825774,3630843],[-831234,3548946],[-899994,3514875],[-974552,3450573],[-969893,3377442],[-1043365,3319705]]]},"properties":{"code":"LBY","name":"Libya"}},
{"type":"Feature","geometry":{"type":"Polygon","coordinates":[[[-3444169,792936],[-3317000,695818],[-3198669,577264],[-3106408,523214],[-3030208,495256],[-3030373,578242],[-3015126,664574],[-3060180,709962],[-3135731,742167],[-3100007,806106],[-3117791,861587],[-3141000,873440],[-3162593,828662],[-3223207,847211],[-3211798,872534],[-3223506,953401],[-3248973,975447],[-3304173,970973],[-3347570,888837],[-3444169,792936]]]},"properties":{"code":"LBR","name":"Liberia"}},
{"type":"Feature","geometry":{"type":"Polygon","coordinates":[[[871035,-3302098],[908227,-3283219],[941985,-3214080],[869827,-3138504],[778189,-3175409],[705683,-3252023],[735626,-3322494],[796157,-3358607],[836438,-3306300],[871035,-3302098]]]},"properties":{"code":"LSO","name":"Lesotho"}},
{"type":"Feature","geometry":{"type":"Polygon","coordinates":[[[1543729,-111620],[1756520,-227354],[1954282,-340736],[1970186,-411176],[2124378,-526095],[2154320,-502320],[2225064,-364991],[2237636,-301927],[2283997,-285394],[2311493,-227509],[2382145,-190810],[2322115,-97869],[2320860,154974],[2318650,316477],[2416941,447887],[2344636,443551],[2294139,480241],[2194072,432256],[2156709,387694],[2001943,408476],[1870938,493033],[1780335,496786],[1744602,536558],[1741532,596319],[1688818,612508],[1548810,470037],[1595519,411358],[1602242,352555],[1653468,276505],[1660680,183268],[1641300,137224],[1607613,116159],[1548313,19359],[1543729,-111620]]]},"properties":{"code":"KEN","name":"Kenya"}},
{"type":"Feature","geometry":{"type":"Polygon","coordinates":[[[-3945161,1435880],[-3871490,1387202],[-3859135,1364020],[-3817138,1383333],[-3820447,1299401],[-3786648,1266207],[-3743301,1330427],[-3641585,1353203],[-3659603,1404752],[-3632988,1419302],[-3631314,1460822],[-3784077,1467247],[-3825611,1446925],[-3945161,1435880]]]},"properties":{"code":"GNB","name":"Guinea-Bissau"}},
{"type":"Feature","geometry":{"type":"Polygon","coordinates":[[[-3304173,970973],[-3248973,975447],[-3223506,953401],[-3211798,872534],[-3223207,847211],[-3162593,828662],[-3141000,873440],[-3117791,861587],[-3090518,860905],[-3064148,927360],[-3085880,963131],[-3026633,956831],[-3053228,1000149],[-3032850,1033158],[-3068478,1081076],[-3048167,1156410],[-3071809,1188284],[-3078810,1251276],[-3113160,1257307],[-3083052,1296357],[-3124632,1330118],[-3141554,1413537],[-3227069,1375115],[-3273437,1395929],[-3318842,1361562],[-3342910,1397246],[-3383913,1376846],[-3388966,1421508],[-3484458,1415931],[-3558436,1435644],[-3564207,1453760],[-3631314,1460822],[-3632988,1419302],[-3659603,1404752],[-3641585,1353203],[-3743301,1330427],[-3786648,1266207],[-3758793,1264310],[-3728643,1184432],[-3654005,1145258],[-3619301,1043092],[-3560082,1078895],[-3529288,1134238],[-3465841,1147550],[-3391322,1143825],[-3341749,1066647],[-3325962,994592],[-3350822,954823],[-3304173,970973]]]},"properties":{"code":"GIN","name":"Guinea"}},
{"type":"Feature","geometry":{"type":"Polygon","coordinates":[[[-2191180,1246211],[-2260246,1233267],[-2489563,1238696],[-2484100,1068028],[-2491586,1026340],[-2470016,924646],[-2502050,893960],[-2526494,812417],[-2555237,767975],[-2553198,716206],[-2515392,581072],[-2537588,578776],[-2544943,578565],[-2548030,574123],[-2427884,536303],[-2387686,560541],[-2295298,587383],[-2178341,645902],[-2102769,651166],[-2076001,682187],[-2124112,723307],[-2145881,768148],[-2132214,824307],[-2134772,913027],[-2122756,930612],[-2155164,981968],[-2135475,1048731],[-2167073,1060966],[-2146996,1153332],[-2192689,1191977],[-2191180,1246211]]]},"properties":{"code":"GHA","name":"Ghana"}},
{"type":"Feature","geometry":{"type":"Polygon","coordinates":[[[-3914628,1577643],[-3905011,1550078],[-3944858,1550374],[-3941970,1518105],[-3844697,1524772],[-3840581,1544130],[-3769016,1567924],[-3678909,1527327],[-3636190,1537125],[-3761426,1597128],[-3805802,1572885],[-3914628,1577643]]]},"properties":{"code":"GMB","name":"Gambia"}},
{"type":"Feature","geometry":{"type":"Polygon","coordinates":[[[-745737,239411],[-753836,249927],[-961596,254999],[-963849,240337],[-963516,110857],[-1157012,114582],[-1162055,32861],[-1111615,21641],[-1134317,4911],[-1189172,32043],[-1189740,-39011],[-1242354,-78704],[-1189018,-211338],[-1137634,-279582],[-1072118,-334319],[-984682,-434264],[-943543,-390271],[-905182,-409727],[-896021,-367810],[-940294,-314495],[-933058,-259709],[-839738,-258180],[-841484,-213744],[-801350,-214025],[-779169,-256263],[-726612,-265284],[-696842,-236802],[-657442,-273119],[-624669,-209232],[-614156,-68454],[-683165,-22514],[-680441,21130],[-619262,89833],[-647368,151703],[-748161,137459],[-760440,182556],[-745737,239411]]]},"properties":{"code":"GAB","name":"Gabon"}},
{"type":"Feature","geometry":{"type":"Polygon","coordinates":[[[1688818,612508],[1741532,596319],[1744602,536558],[1780335,496786],[1870938,493033],[2001943,408476],[2156709,387694],[2194072,432256],[2294139,480241],[2344636,443551],[2416941,447887],[2431864,466028],[2515126,484010],[2550568,524049],[2643499,559436],[2746851,556084],[2850618,680157],[3060871,910481],[2953569,908550],[2630018,1014767],[2569562,1058054],[2495714,1149404],[2473583,1196010],[2499540,1239001],[2459755,1247354],[2378602,1234511],[2371382,1302636],[2431190,1402299],[2360295,1481125],[2246673,1585940],[2185940,1616535],[2061774,1635698],[2002144,1611726],[1932776,1657858],[1903782,1579108],[1868128,1612270],[1790565,1588931],[1754152,1418374],[1699764,1396518],[1650721,1315780],[1635164,1209875],[1595946,1211095],[1565043,1171636],[1568275,1126882],[1547296,1052990],[1551919,955334],[1536866,939778],[1458169,933848],[1435048,884252],[1507537,853669],[1624837,742163],[1667933,632525],[1688818,612508]]]},"properties":{"code":"ETH","name":"Ethiopia"}},
{"type":"Feature","geometry":{"type":"Polygon","coordinates":[[[1790565,1588931],[1868128,1612270],[1903782,1579108],[1932776,1657858],[2002144,1611726],[2061774,1635698],[2185940,1616535],[2246673,1585940],[2360295,1481125],[2431190,1402299],[2463086,1392931],[2508480,1431257],[2427962,1485912],[2408624,1527488],[2342876,1570176],[2286485,1640060],[2179673,1681418],[2139837,1731304],[2134158,1692676],[2076136,1779942],[2053062,1869224],[1985942,2009130],[1951778,1961639],[1902851,1946370],[1866469,1901586],[1823733,1900287],[1819069,1815688],[1774708,1685730],[1790565,1588931]]]},"properties":{"code":"ERI","name":"Eritrea"}},
{"type":"Feature","geometry":{"type":"MultiPolygon","coordinates":[[[[-1249904,417516],[-1279255,362773],[-1253947,358145],[-1226771,402922],[-1249904,417516]]],[[[-963849,240337],[-1113419,240606],[-1133190,255809],[-1132702,213967],[-1179689,126513],[-1157012,114582],[-963516,110857],[-963849,240337]]]]},"properties":{"code":"GNQ","name":"Eq. Guinea"}},
{"type":"Feature","geometry":{"type":"Polygon","coordinates":[[[1767691,2443958],[1695135,2511325],[1637090,2544497],[1611777,2650559],[1636641,2653170],[1570863,2710034],[1494901,2840576],[1424124,2942803],[1413610,2986026],[1373595,3045428],[1370523,3076879],[1299005,3147047],[1235221,3260345],[1252411,3297888],[1311894,3202360],[1333996,3148344],[1439563,3064457],[1455044,3092268],[1475287,3228971],[1489659,3251858],[1405026,3435937],[1399101,3448050],[1371730,3431832],[1195781,3416719],[1135598,3454242],[1024723,3451169],[899208,3380887],[788275,3407239],[715583,3435919],[580834,3459730],[507550,3462374],[479485,3427823],[493660,3368290],[471060,3311715],[500383,3197419],[509925,2907348],[517840,2640123],[523730,2420618],[844645,2424100],[1200661,2430052],[1460183,2435730],[1767691,2443958]]]},"properties":{"code":"EGY","name":"Egypt"}},
{"type":"Feature","geometry":{"type":"Polygon","coordinates":[[[2530963,1295923],[2455081,1294827],[2530499,1348721],[2543670,1373796],[2508480,1431257],[2463086,1392931],[2431190,1402299],[2371382,1302636],[2378602,1234511],[2459755,1247354],[2499540,1239001],[2530963,1295923]]]},"properties":{"code":"DJI","name":"Djibouti"}},
{"type":"Feature","geometry":{"type":"Polygon","coordinates":[[[-3048167,1156410],[-3068478,1081076],[-3032850,1033158],[-3053228,1000149],[-3026633,956831],[-3085880,963131],[-3064148,927360],[-3090518,860905],[-3117791,861587],[-3100007,806106],[-3135731,742167],[-3060180,709962],[-3015126,664574],[-3030373,578242],[-3030208,495256],[-2851908,568362],[-2754924,589167],[-2647878,591062],[-2537588,578776],[-2515392,581072],[-2553198,716206],[-2555237,767975],[-2526494,812417],[-2502050,893960],[-2470016,924646],[-2491586,1026340],[-2484100,1068028],[-2538687,1115593],[-2609146,1116850],[-2659568,1089707],[-2726384,1123104],[-2738331,1158528],[-2782535,1180300],[-2838851,1155371],[-2860413,1165389],[-2859409,1215718],[-2901903,1209041],[-2938882,1155464],[-3011083,1185630],[-3048167,1156410]]]},"properties":{"code":"CIV","name":"Côte d'Ivoire"}},
{"type":"Feature","geometry":{"type":"Polygon","coordinates":[[[1185945,-909276],[1139752,-799285],[1074216,-733909],[1049771,-668207],[1062901,-626788],[1035953,-552676],[1043239,-493524],[1023838,-433764],[1024663,-338700],[1001597,-301692],[986480,-266191],[1014806,-206342],[1064628,-153999],[1080469,10913],[1105363,90928],[1215881,186921],[1250043,227161],[1241449,252194],[1191743,272675],[1203079,387660],[1131357,441964],[1073373,508881],[1015430,486660],[968317,499462],[909207,482149],[821123,565950],[756776,560595],[612847,587871],[582476,556006],[479408,552454],[379406,515721],[305990,513822],[269092,457231],[170810,469312],[61988,493350],[25133,533889],[-55385,566800],[-103406,540730],[-159136,470715],[-154479,384597],[-167823,323361],[-214497,222638],[-233453,123648],[-235126,25893],[-250129,-60719],[-347228,-135599],[-421004,-240930],[-428275,-383210],[-458571,-435233],[-488773,-445964],[-587313,-540219],[-620302,-534701],[-626462,-475878],[-730699,-535629],[-768791,-513293],[-837242,-561823],[-830820,-630917],[-862846,-637985],[-840676,-663106],[-768170,-649425],[-620840,-652091],[-408517,-648661],[-363714,-690107],[-333613,-802267],[-272240,-892510],[-148828,-876936],[-72852,-880263],[-52279,-789526],[-37597,-777677],[66287,-766430],[67255,-804244],[193743,-807387],[209377,-921689],[204516,-1059874],[250161,-1133218],[250056,-1236215],[281120,-1221051],[420839,-1216778],[435546,-1201193],[474096,-1223362],[475399,-1256364],[583457,-1242007],[586157,-1284567],[659746,-1314370],[760731,-1315922],[788336,-1283710],[823863,-1349027],[913106,-1381309],[982074,-1479678],[1041147,-1467015],[1066880,-1483135],[1070776,-1346624],[1029881,-1376697],[990528,-1367257],[928461,-1307530],[915583,-1271115],[948347,-1181502],[949258,-1088920],[925299,-1021739],[983199,-964112],[981454,-940302],[1185945,-909276]]]},"properties":{"code":"COD","name":"Dem. Rep. Congo"}},
{"type":"Feature","geometry":{"type":"Polygon","coordinates":[[[-984682,-434264],[-912372,-506040],[-885272,-554527],[-845072,-511759],[-790194,-492351],[-768791,-513293],[-730699,-535629],[-626462,-475878],[-620302,-534701],[-587313,-540219],[-488773,-445964],[-458571,-435233],[-428275,-383210],[-421004,-240930],[-347228,-135599],[-250129,-60719],[-235126,25893],[-233453,123648],[-214497,222638],[-167823,323361],[-154479,384597],[-284740,407461],[-369746,391010],[-424536,251135],[-438442,185450],[-473737,211886],[-613469,238522],[-745737,239411],[-760440,182556],[-748161,137459],[-647368,151703],[-619262,89833],[-680441,21130],[-683165,-22514],[-614156,-68454],[-624669,-209232],[-657442,-273119],[-696842,-236802],[-726612,-265284],[-779169,-256263],[-801350,-214025],[-841484,-213744],[-839738,-258180],[-933058,-259709],[-940294,-314495],[-896021,-367810],[-905182,-409727],[-943543,-390271],[-984682,-434264]]]},"properties":{"code":"COG","name":"Congo"}},
{"type":"Feature","geometry":{"type":"Polygon","coordinates":[[[2551748,-1341522],[2547357,-1286017],[2527157,-1324178],[2551748,-1341522]]]},"properties":{"code":"COM","name":"Comoros"}},
{"type":"Feature","geometry":{"type":"Polygon","coordinates":[[[423862,2147506],[167859,2275400],[-34935,2378196],[-185712,2455612],[-419007,2577289],[-525137,2529392],[-507953,2369063],[-429759,2235544],[-453293,2192157],[-487317,1864811],[-609052,1738574],[-711827,1588846],[-696204,1514374],[-647681,1445172],[-598556,1434022],[-572382,1398211],[-538674,1308855],[-545351,1228258],[-519322,1144789],[-478090,1106101],[-633333,1103601],[-663003,1071931],[-624609,1017902],[-538985,946265],[-499798,832031],[-459501,826577],[-381820,869485],[-355560,834715],[-259758,882308],[-155624,890707],[-98377,956339],[-122646,982116],[-94245,996015],[37722,1008245],[85214,1038974],[189766,1144964],[187557,1167903],[273788,1214469],[314045,1206126],[320567,1252969],[280155,1288615],[257085,1397590],[199414,1411778],[243021,1471125],[229590,1515130],[273061,1558858],[258727,1605272],[289987,1624238],[335955,1731919],[430812,1740837],[428209,1903687],[423862,2147506]]]},"properties":{"code":"TCD","name":"Chad"}},
{"type":"Feature","geometry":{"type":"Polygon","coordinates":[[[457653,957979],[390241,974380],[401396,1085482],[314045,1206126],[273788,1214469],[187557,1167903],[189766,1144964],[85214,1038974],[37722,1008245],[-94245,996015],[-122646,982116],[-98377,956339],[-155624,890707],[-259758,882308],[-355560,834715],[-381820,869485],[-459501,826577],[-499798,832031],[-525909,803358],[-582801,694793],[-617116,668230],[-596689,648987],[-603107,584291],[-587332,516311],[-552698,482290],[-541207,423467],[-437706,321774],[-424536,251135],[-369746,391010],[-284740,407461],[-154479,384597],[-159136,470715],[-103406,540730],[-55385,566800],[25133,533889],[61988,493350],[170810,469312],[269092,457231],[305990,513822],[379406,515721],[479408,552454],[582476,556006],[612847,587871],[756776,560595],[821123,565950],[785036,639742],[721747,671895],[704297,734444],[573865,831746],[579980,854434],[536054,899911],[473884,916720],[457653,957979]]]},"properties":{"code":"CAF","name":"Central African Rep."}},
{"type":"Feature","geometry":{"type":"Polygon","coordinates":[[[-4594288,1779216],[-4619230,1818791],[-4627273,1789408],[-4594288,1779216]]]},"properties":{"code":"CPV","name":"Cabo Verde"}},
{"type":"Feature","geometry":{"type":"Polygon","coordinates":[[[-1268572,528295],[-1228790,505766],[-1220299,454427],[-1159093,421644],[-1116298,341739],[-1133190,255809],[-1113419,240606],[-963849,240337],[-961596,254999],[-753836,249927],[-745737,239411],[-613469,238522],[-473737,211886],[-438442,185450],[-424536,251135],[-437706,321774],[-541207,423467],[-552698,482290],[-587332,516311],[-603107,584291],[-596689,648987],[-617116,668230],[-582801,694793],[-525909,803358],[-499798,832031],[-538985,946265],[-624609,1017902],[-663003,1071931],[-633333,1103601],[-478090,1106101],[-519322,1144789],[-545351,1228258],[-538674,1308855],[-572382,1398211],[-598556,1434022],[-647681,1445172],[-634426,1368610],[-587940,1338071],[-596308,1270208],[-670041,1231755],[-740203,1110338],[-751415,1055577],[-778658,1043193],[-793077,983652],[-837935,951706],[-900020,788406],[-979203,713645],[-1038622,783161],[-1089772,776042],[-1210981,667200],[-1268572,528295]]]},"properties":{"code":"CMR","name":"Cameroon"}},
{"type":"Feature","geometry":{"type":"Polygon","coordinates":[[[1172395,-266500],[1103353,-259652],[1096243,-301455],[1001597,-301692],[1024663,-338700],[1023838,-433764],[1043239,-493524],[1078046,-494363],[1125964,-453421],[1157211,-398423],[1197929,-363652],[1167757,-323939],[1172395,-266500]]]},"properties":{"code":"BDI","name":"Burundi"}},
{"type":"Feature","geometry":{"type":"Polygon","coordinates":[[[-2087062,1230755],[-2027682,1280434],[-1967916,1276250],[-1921147,1328828],[-1951266,1371763],[-1950687,1420312],[-2006039,1412562],[-2065786,1459008],[-2040779,1493700],[-2101145,1533489],[-2144243,1622947],[-2135446,1668926],[-2238742,1686616],[-2271376,1661943],[-2372735,1623903],[-2389996,1592089],[-2425820,1604832],[-2509715,1539553],[-2523865,1495888],[-2553798,1486909],[-2602980,1509322],[-2634709,1480514],[-2626477,1443691],[-2654492,1430716],[-2651555,1392959],[-2747258,1337823],[-2753125,1267749],[-2774698,1249770],[-2782535,1180300],[-2738331,1158528],[-2726384,1123104],[-2659568,1089707],[-2609146,1116850],[-2538687,1115593],[-2484100,1068028],[-2489563,1238696],[-2260246,1233267],[-2191180,1246211],[-2087062,1230755]]]},"properties":{"code":"BFA","name":"Burkina Faso"}},
{"type":"Feature","geometry":{"type":"Polygon","coordinates":[[[564155,-1962246],[467316,-1981819],[383111,-2033267],[353603,-1986593],[104306,-2017721],[103854,-2173345],[102143,-2418973],[-2383,-2418890],[-2022,-2720001],[35689,-2747392],[81543,-2843151],[64214,-2900129],[75597,-2943808],[168206,-2944616],[271138,-2860599],[296792,-2794486],[337103,-2774044],[401025,-2810635],[488294,-2834786],[574931,-2812843],[611960,-2720278],[668421,-2703085],[709533,-2666515],[727572,-2608530],[810107,-2554435],[859612,-2500382],[982898,-2447804],[950537,-2405559],[847490,-2378093],[810047,-2322105],[815399,-2263920],[771307,-2257726],[766277,-2221311],[656513,-2153820],[615733,-2056271],[564155,-1962246]]]},"properties":{"code":"BWA","name":"Botswana"}},
{"type":"Feature","geometry":{"type":"Polygon","coordinates":[[[-2028005,696013],[-1908932,712008],[-1900488,750184],[-1906470,879980],[-1892433,1010907],[-1862842,1014486],[-1800078,1145671],[-1770555,1183018],[-1804631,1271172],[-1791508,1304447],[-1865744,1380309],[-1921899,1365019],[-1921147,1328828],[-1967916,1276250],[-2027682,1280434],[-2087062,1230755],[-2103403,1160214],[-2045504,1118822],[-2038505,1039184],[-2020379,1012691],[-2028005,696013]]]},"properties":{"code":"BEN","name":"Benin"}},
{"type":"Feature","geometry":{"type":"MultiPolygon","coordinates":[[[[-768791,-513293],[-790194,-492351],[-845072,-511759],[-885272,-554527],[-862846,-637985],[-830820,-630917],[-837242,-561823],[-768791,-513293]]],[[[435546,-1201193],[420839,-1216778],[281120,-1221051],[250056,-1236215],[250161,-1133218],[204516,-1059874],[209377,-921689],[193743,-807387],[67255,-804244],[66287,-766430],[-37597,-777677],[-52279,-789526],[-72852,-880263],[-148828,-876936],[-272240,-892510],[-333613,-802267],[-363714,-690107],[-408517,-648661],[-620840,-652091],[-768170,-649425],[-852628,-674908],[-730838,-926257],[-732537,-961340],[-771682,-1001382],[-747418,-1073618],[-675079,-1222332],[-680526,-1305962],[-719385,-1384157],[-766157,-1412584],[-811702,-1485836],[-837788,-1618090],[-868589,-1727944],[-891362,-1749924],[-881079,-1845623],[-887300,-1905521],[-801041,-1900619],[-742405,-1873196],[-709773,-1877311],[-651337,-1918579],[-372845,-1917040],[-172374,-1917305],[-99102,-1962930],[42156,-1970503],[79930,-1984999],[151922,-1983024],[362985,-1944332],[231915,-1829629],[214012,-1759285],[216058,-1434947],[432631,-1434208],[435546,-1201193]]]]},"properties":{"code":"AGO","name":"Angola"}},
{"type":"Feature","geometry":{"type":"Polygon","coordinates":[[[-1070591,4036804],[-1133649,4030408],[-1196623,4057755],[-1224517,4040464],[-1263427,4059654],[-1367716,4020346],[-1426577,4046462],[-1593922,4042538],[-1632119,4024835],[-1757396,4022856],[-1830842,3999330],[-1880861,3963355],[-1975053,3943948],[-2079101,3888304],[-2107491,3891191],[-2074846,3850934],[-2091231,3696320],[-2083252,3647891],[-2048086,3601370],[-2074899,3561577],[-2186746,3572454],[-2246853,3543722],[-2327813,3529797],[-2319785,3463934],[-2461084,3406637],[-2517561,3354123],[-2622419,3344539],[-2640328,3319097],[-2683687,3328224],[-2854376,3239012],[-2878772,3122081],[-2886289,3081164],[-2671410,2907684],[-2543752,2806018],[-2400832,2686528],[-2217116,2536440],[-1982754,2351883],[-1983515,2320430],[-1933524,2270388],[-1779612,2201101],[-1795231,2130892],[-1765444,2112290],[-1676951,2127181],[-1504543,2160338],[-1321644,2309576],[-1115583,2427965],[-837115,2589738],[-877958,2674360],[-1008691,2709229],[-1030315,2790134],[-1081972,2870958],[-1036643,2922550],[-1042544,3006996],[-1022237,3055731],[-1020951,3183216],[-1033333,3248163],[-1064990,3307964],[-1043365,3319705],[-1074315,3518407],[-1139145,3570774],[-1147251,3612053],[-1190132,3649993],[-1202340,3737243],[-1125400,3804457],[-1106321,3853884],[-1109840,3991253],[-1070591,4036804]]]},"properties":{"code":"DZA","name":"Algeria"}}
]}