{"type": "FeatureCollection", "features": [{"type": "Feature", "geometry": {"type": "Point", "coordinates": [2528944, -1318854]}, "properties": {"code": "COM", "name": "Comoros", "capital": "Moroni"}}, {"type": "Feature", "geometry": {"type": "Point", "coordinates": [1117796, -216626]}, "properties": {"code": "RWA", "name": "Rwanda", "capital": "Kigali"}}, {"type": "Feature", "geometry": {"type": "Point", "coordinates": [1139537, -2899297]}, "properties": {"code": "SWZ", "name": "eSwatini", "capital": "Mbabane"}}, {"type": "Feature", "geometry": {"type": "Point", "coordinates": [2519797, 1306387]}, "properties": {"code": "DJI", "name": "Djibouti", "capital": "Djibouti"}}, {"type": "Feature", "geometry": {"type": "Point", "coordinates": [-3919361, 1562370]}, "properties": {"code": "GMB", "name": "The Gambia", "capital": "Banjul"}}, {"type": "Feature", "geometry": {"type": "Point", "coordinates": [1039447, -374506]}, "properties": {"code": "BDI", "name": "Burundi", "capital": "Bujumbura"}}, {"type": "Feature", "geometry": {"type": "Point", "coordinates": [-2072197, 687132]}, "properties": {"code": "TGO", "name": "Togo", "capital": "Lom\u00e9"}}, {"type": "Feature", "geometry": {"type": "Point", "coordinates": [-922137, 4017957]}, "properties": {"code": "TUN", "name": "Tunisia", "capital": "Tunis"}}, {"type": "Feature", "geometry": {"type": "Point", "coordinates": [896209, -1704105]}, "properties": {"code": "ZMB", "name": "Zambia", "capital": "Lusaka"}}, {"type": "Feature", "geometry": {"type": "Point", "coordinates": [1183019, -1971592]}, "properties": {"code": "ZWE", "name": "Zimbabwe", "capital": "Harare"}}, {"type": "Feature", "geometry": {"type": "Point", "coordinates": [1397724, 35443]}, "properties": {"code": "UGA", "name": "Uganda", "capital": "Kampala"}}, {"type": "Feature", "geometry": {"type": "Point", "coordinates": [-1941485, 1509719]}, "properties": {"code": "NER", "name": "Niger", "capital": "Niamey"}}, {"type": "Feature", "geometry": {"type": "Point", "coordinates": [-3617639, 976557]}, "properties": {"code": "SLE", "name": "Sierra Leone", "capital": "Freetown"}}, {"type": "Feature", "geometry": {"type": "Point", "coordinates": [626092, -3192365]}, "properties": {"code": "ZAF", "name": "South Africa", "capital": "Bloemfontein"}}, {"type": "Feature", "geometry": {"type": "Point", "coordinates": [-2561653, 3805400]}, "properties": {"code": "MAR", "name": "Morocco", "capital": "Rabat"}}, {"type": "Feature", "geometry": {"type": "Point", "coordinates": [1290742, -2863504]}, "properties": {"code": "MOZ", "name": "Mozambique", "capital": "Maputo"}}, {"type": "Feature", "geometry": {"type": "Point", "coordinates": [2799209, 234444]}, "properties": {"code": "SOM", "name": "Somalia", "capital": "Mogadishu"}}, {"type": "Feature", "geometry": {"type": "Point", "coordinates": [-305819, -2481569]}, "properties": {"code": "NAM", "name": "Namibia", "capital": "Windhoek"}}, {"type": "Feature", "geometry": {"type": "Point", "coordinates": [-1376936, 1006203]}, "properties": {"code": "NGA", "name": "Nigeria", "capital": "Abuja"}}, {"type": "Feature", "geometry": {"type": "Point", "coordinates": [-3835025, 1374899]}, "properties": {"code": "GNB", "name": "Guinea Bissau", "capital": "Bissau"}}, {"type": "Feature", "geometry": {"type": "Point", "coordinates": [750755, -3215447]}, "properties": {"code": "LSO", "name": "Lesotho", "capital": "Maseru"}}, {"type": "Feature", "geometry": {"type": "Point", "coordinates": [2907946, -2142483]}, "properties": {"code": "MDG", "name": "Madagascar", "capital": "Antananarivo"}}, {"type": "Feature", "geometry": {"type": "Point", "coordinates": [-541996, 1338552]}, "properties": {"code": "TCD", "name": "Chad", "capital": "N'Djamena"}}, {"type": "Feature", "geometry": {"type": "Point", "coordinates": [-1244656, 416579]}, "properties": {"code": "GNQ", "name": "Equatorial Guinea", "capital": "Malabo"}}, {"type": "Feature", "geometry": {"type": "Point", "coordinates": [2041609, 1713733]}, "properties": {"code": "ERI", "name": "Eritrea", "capital": "Asmara"}}, {"type": "Feature", "geometry": {"type": "Point", "coordinates": [1496552, -1553719]}, "properties": {"code": "MWI", "name": "Malawi", "capital": "Lilongwe"}}, {"type": "Feature", "geometry": {"type": "Point", "coordinates": [-1171860, 42795]}, "properties": {"code": "GAB", "name": "Gabon", "capital": "Libreville"}}, {"type": "Feature", "geometry": {"type": "Point", "coordinates": [-3788005, 2091861]}, "properties": {"code": "MRT", "name": "Mauritania", "capital": "Nouakchott"}}, {"type": "Feature", "geometry": {"type": "Point", "coordinates": [-3029087, 1438575]}, "properties": {"code": "MLI", "name": "Mali", "capital": "Bamako"}}, {"type": "Feature", "geometry": {"type": "Point", "coordinates": [-523896, -471040]}, "properties": {"code": "COG", "name": "Congo (Brazzaville)", "capital": "Brazzaville"}}, {"type": "Feature", "geometry": {"type": "Point", "coordinates": [-3656516, 1099877]}, "properties": {"code": "GIN", "name": "Guinea", "capital": "Conakry"}}, {"type": "Feature", "geometry": {"type": "Point", "coordinates": [-2775957, 772169]}, "properties": {"code": "CIV", "name": "Ivory Coast", "capital": "Yamoussoukro"}}, {"type": "Feature", "geometry": {"type": "Point", "coordinates": [-160140, 482769]}, "properties": {"code": "CAF", "name": "Central African Republic", "capital": "Bangui"}}, {"type": "Feature", "geometry": {"type": "Point", "coordinates": [-942114, 428872]}, "properties": {"code": "CMR", "name": "Cameroon", "capital": "Yaound\u00e9"}}, {"type": "Feature", "geometry": {"type": "Point", "coordinates": [-1942033, 711596]}, "properties": {"code": "BEN", "name": "Benin", "capital": "Cotonou"}}, {"type": "Feature", "geometry": {"type": "Point", "coordinates": [612319, -2709321]}, "properties": {"code": "BWA", "name": "Botswana", "capital": "Gaborone"}}, {"type": "Feature", "geometry": {"type": "Point", "coordinates": [-2340440, 1389771]}, "properties": {"code": "BFA", "name": "Burkina Faso", "capital": "Ouagadougou"}}, {"type": "Feature", "geometry": {"type": "Point", "coordinates": [2631339, 1079516]}, "properties": {"code": "SOL", "name": "Somaliland", "capital": "Hargeisa"}}, {"type": "Feature", "geometry": {"type": "Point", "coordinates": [-1473930, 37567]}, "properties": {"code": "STP", "name": "Sao Tome and Principe", "capital": "S\u00e3o Tom\u00e9"}}, {"type": "Feature", "geometry": {"type": "Point", "coordinates": [-4603098, 1768920]}, "properties": {"code": "CPV", "name": "Cape Verde", "capital": "Praia"}}, {"type": "Feature", "geometry": {"type": "Point", "coordinates": [1353764, 1729099]}, "properties": {"code": "SDN", "name": "Sudan", "capital": "Khartoum"}}, {"type": "Feature", "geometry": {"type": "Point", "coordinates": [2123356, -761993]}, "properties": {"code": "TZA", "name": "Tanzania", "capital": "Dar es Salaam"}}, {"type": "Feature", "geometry": {"type": "Point", "coordinates": [-3371788, 723813]}, "properties": {"code": "LBR", "name": "Liberia", "capital": "Monrovia"}}, {"type": "Feature", "geometry": {"type": "Point", "coordinates": [-2231173, 623340]}, "properties": {"code": "GHA", "name": "Ghana", "capital": "Accra"}}, {"type": "Feature", "geometry": {"type": "Point", "coordinates": [-664867, 3596793]}, "properties": {"code": "LBY", "name": "Libya", "capital": "Tripoli"}}, {"type": "Feature", "geometry": {"type": "Point", "coordinates": [-746251, -977876]}, "properties": {"code": "AGO", "name": "Angola", "capital": "Luanda"}}, {"type": "Feature", "geometry": {"type": "Point", "coordinates": [-1587213, 4040120]}, "properties": {"code": "DZA", "name": "Algeria", "capital": "Algiers"}}, {"type": "Feature", "geometry": {"type": "Point", "coordinates": [-3993278, 1712511]}, "properties": {"code": "SEN", "name": "Senegal", "capital": "Dakar"}}, {"type": "Feature", "geometry": {"type": "Point", "coordinates": [-520499, -478836]}, "properties": {"code": "COD", "name": "Congo (Kinshasa)", "capital": "Kinshasa"}}, {"type": "Feature", "geometry": {"type": "Point", "coordinates": [2052897, 1011466]}, "properties": {"code": "ETH", "name": "Ethiopia", "capital": "Addis Ababa"}}, {"type": "Feature", "geometry": {"type": "Point", "coordinates": [1864746, -143226]}, "properties": {"code": "KEN", "name": "Kenya", "capital": "Nairobi"}}, {"type": "Feature", "geometry": {"type": "Point", "coordinates": [1120946, 3302594]}, "properties": {"code": "EGY", "name": "Egypt", "capital": "Cairo"}}]}