{"type":"FeatureCollection", "features": [
{"type":"Feature","geometry":{"type":"MultiPolygon","coordinates":[[[[-3929244,-2307479],[-3944414,-2223082],[-3963165,-2011029],[-4258774,-1918461],[-4356555,-1920683],[-4438254,-1965544],[-4463397,-1993896],[-4513446,-1986947],[-4529905,-1938996],[-4648112,-1867512],[-4668224,-1842636],[-4786647,-1787353],[-4825189,-1740141],[-4852290,-1743975],[-4881018,-1812321],[-4927266,-1825089],[-4962673,-1895248],[-4984460,-2137286],[-5002675,-2173477],[-4994535,-2231827],[-4958517,-2280223],[-4844256,-2319472],[-4766415,-2297528],[-4651757,-2343174],[-4584632,-2354175],[-4514831,-2342863],[-4447945,-2376251],[-4361886,-2347648],[-4116633,-2379733],[-4045789,-2373842],[-4015314,-2311493],[-3929244,-2307479]]],[[[-3975484,-2760203],[-4024300,-2751715],[-4000350,-2784141],[-3945028,-2805064],[-3900518,-2801006],[-3975484,-2760203]]]]},"properties":{"code":"YEM","name":"Yemen"}},
{"type":"Feature","geometry":{"type":"Polygon","coordinates":[[[1886017,-2399850],[1820191,-2401754],[1743401,-2375439],[1723875,-2332917],[1742920,-2286769],[1644685,-2288932],[1580355,-2253447],[1537372,-2308785],[1451659,-2363804],[1385318,-2349018],[1358627,-2387247],[1304660,-2363279],[1268446,-2408047],[1335791,-2477459],[1362099,-2471582],[1356705,-2517972],[1387663,-2554567],[1445729,-2567288],[1486433,-2534194],[1545905,-2557093],[1590404,-2618901],[1555381,-2669389],[1500135,-2671047],[1489833,-2709361],[1583683,-2753313],[1631429,-2762153],[1627552,-2784816],[1701553,-2850306],[1799074,-2918908],[1826662,-2968099],[1908036,-2998460],[1886402,-3028872],[1946802,-3077257],[1939765,-3138716],[1926914,-3204230],[1966069,-3271839],[1957013,-3317851],[1972142,-3368256],[1957688,-3401279],[1852473,-3454062],[1853877,-3482056],[1809141,-3482111],[1797537,-3534072],[1837624,-3581042],[1789539,-3568176],[1708217,-3592505],[1692461,-3632816],[1645766,-3653231],[1726197,-3695406],[1701076,-3730915],[1702229,-3838448],[1741181,-3829013],[1780647,-3773127],[1875312,-3707705],[1915125,-3640545],[1876902,-3627700],[1925251,-3610074],[1933802,-3578614],[1965487,-3601119],[2146697,-3464714],[2165019,-3418767],[2154567,-3320662],[2180124,-3320369],[2151429,-3252178],[2146548,-3190108],[2071764,-3038930],[1972253,-2954409],[1951301,-2959480],[1872784,-2911435],[1786123,-2837336],[1785139,-2812615],[1712395,-2764570],[1677803,-2719665],[1702685,-2608298],[1753693,-2560477],[1771666,-2507837],[1760374,-2480619],[1811235,-2476668],[1831419,-2435503],[1886017,-2399850]]]},"properties":{"code":"VNM","name":"Vietnam"}},
{"type":"Feature","geometry":{"type":"Polygon","coordinates":[[[-1555198,-123960],[-1728883,-182064],[-1785673,-248810],[-1826255,-220459],[-1824260,-176031],[-1922834,-149844],[-1914743,-56878],[-1952851,-44190],[-1914727,59817],[-1941309,54628],[-1950908,108616],[-1982556,166371],[-2023143,160308],[-2113861,200197],[-2210192,218358],[-2248637,341248],[-2377715,534590],[-2584181,556628],[-2657143,389724],[-2748755,174461],[-2673113,133407],[-2651870,197290],[-2574258,204675],[-2530794,239995],[-2492048,242153],[-2447008,165294],[-2416466,152577],[-2409135,93883],[-2433802,50885],[-2412504,21143],[-2304946,-34450],[-2289667,-187285],[-2197890,-325524],[-2100860,-440196],[-2025109,-498582],[-2050905,-558994],[-1950940,-607789],[-1937683,-574986],[-1882389,-526851],[-1873116,-421829],[-1927674,-374162],[-1886528,-341659],[-1827634,-367592],[-1773328,-312673],[-1743183,-313401],[-1715991,-251256],[-1695360,-272696],[-1626694,-247567],[-1608592,-284566],[-1645861,-308431],[-1603907,-343159],[-1545358,-366619],[-1413901,-322874],[-1505659,-256271],[-1514803,-214559],[-1545327,-253973],[-1593044,-228223],[-1633758,-182757],[-1555198,-123960]]]},"properties":{"code":"UZB","name":"Uzbekistan"}},
{"type":"Feature","geometry":{"type":"Polygon","coordinates":[[[-3330463,-1487773],[-3336569,-1435771],[-3358619,-1458817],[-3503111,-1515505],[-3554085,-1557504],[-3607958,-1557975],[-3720440,-1497240],[-3794932,-1482863],[-3814667,-1436424],[-3820211,-1459259],[-3773009,-1621823],[-3543551,-1761329],[-3533083,-1755881],[-3468805,-1660825],[-3465355,-1636325],[-3412677,-1643758],[-3427818,-1615973],[-3403577,-1551141],[-3382868,-1575305],[-3344550,-1562379],[-3330463,-1487773]]]},"properties":{"code":"ARE","name":"United Arab Emirates"}},
{"type":"Feature","geometry":{"type":"Polygon","coordinates":[[[-2748755,174461],[-2783679,183072],[-2801742,273576],[-2839709,344185],[-2908845,362063],[-2983943,346074],[-2984548,273694],[-2940072,348630],[-2871067,328732],[-2879544,260702],[-2862648,173612],[-2943476,184259],[-2986726,252932],[-3032463,194813],[-3043051,138416],[-2999004,116091],[-3006873,74237],[-3031814,94311],[-3053614,61701],[-3014510,35466],[-3016271,-7127],[-3062809,-102173],[-3081505,-166424],[-3009239,-180814],[-2966057,-151011],[-2918158,-148461],[-2868040,-174217],[-2844027,-163133],[-2785844,-192484],[-2783676,-221158],[-2709381,-295018],[-2644182,-336707],[-2635331,-380232],[-2590972,-462371],[-2526259,-485872],[-2549654,-599362],[-2494480,-639987],[-2475898,-678824],[-2403075,-671222],[-2386706,-632730],[-2316487,-633200],[-2251200,-615673],[-2201124,-538696],[-2135352,-545142],[-2108219,-516227],[-2050905,-558994],[-2025109,-498582],[-2100860,-440196],[-2197890,-325524],[-2289667,-187285],[-2304946,-34450],[-2412504,21143],[-2433802,50885],[-2409135,93883],[-2416466,152577],[-2447008,165294],[-2492048,242153],[-2530794,239995],[-2574258,204675],[-2651870,197290],[-2673113,133407],[-2748755,174461]]]},"properties":{"code":"TKM","name":"Turkmenistan"}},
{"type":"Feature","geometry":{"type":"MultiPolygon","coordinates":[[[[-3755333,786407],[-3870874,792842],[-3915755,848355],[-3994060,883624],[-4088482,1012352],[-4087916,1075783],[-4130131,1119927],[-4124209,1166494],[-4146780,1170297],[-4222473,1249937],[-4304990,1283058],[-4410268,1286109],[-4519275,1418605],[-4541049,1405721],[-4517046,1334567],[-4574337,1377418],[-4584503,1353252],[-4678847,1439368],[-4712132,1491670],[-4773571,1490446],[-4817826,1449105],[-4772046,1412787],[-4800699,1398046],[-4813530,1341504],[-4840770,1341523],[-4844530,1294394],[-4899718,1333270],[-4869934,1247050],[-4900448,1230863],[-4913392,1154910],[-4934756,1153769],[-4882343,1098073],[-4942440,1103135],[-4894583,1074542],[-4859750,1017717],[-4874713,984085],[-4858863,928000],[-4799515,893149],[-4750767,934655],[-4711818,885847],[-4688504,821003],[-4673437,728225],[-4605813,689110],[-4507315,693887],[-4458362,622995],[-4404422,624362],[-4411316,592501],[-4458736,580143],[-4478392,537819],[-4466120,515201],[-4408343,526772],[-4370892,580264],[-4328753,522346],[-4261560,506572],[-4235145,455677],[-4195223,423399],[-4076712,394364],[-4020479,352567],[-3956494,333622],[-3959723,312521],[-3915160,318241],[-3847567,252184],[-3828929,206413],[-3784790,200068],[-3766515,269951],[-3782545,302717],[-3741863,337206],[-3712949,457781],[-3642091,448342],[-3642515,455859],[-3656619,511266],[-3689181,550502],[-3656110,604523],[-3652452,655770],[-3668637,730743],[-3697343,733635],[-3755333,786407]]],[[[-4522785,1551494],[-4551775,1603965],[-4595859,1634925],[-4630623,1631399],[-4639798,1585692],[-4723360,1563277],[-4691672,1508102],[-4765790,1496542],[-4627233,1495250],[-4582917,1464185],[-4558079,1418487],[-4523581,1424738],[-4543960,1487726],[-4522785,1551494]]]]},"properties":{"code":"TUR","name":"Turkey"}},
{"type":"Feature","geometry":{"type":"Polygon","coordinates":[[[4233961,-5120708],[4271302,-5082898],[4380688,-5010435],[4480389,-4917114],[4310266,-4986305],[4239605,-5027645],[4212590,-5068099],[4233961,-5120708]]]},"properties":{"code":"TLS","name":"Timor-Leste"}},
{"type":"Feature","geometry":{"type":"Polygon","coordinates":[[[1078920,-2657148],[1008121,-2659738],[955214,-2729304],[859103,-2740776],[839895,-2773870],[838774,-2864925],[810557,-2880969],[849148,-2965690],[924215,-3035310],[971260,-3116697],[947393,-3132961],[948795,-3202513],[908750,-3227560],[917321,-3268641],[1023681,-3376612],[1024539,-3442219],[1061698,-3498020],[1090532,-3577033],[1046890,-3653401],[1000411,-3705037],[996948,-3755335],[964098,-3853625],[953374,-3946227],[993143,-3951098],[1050157,-3994086],[1088662,-4044799],[1116382,-4043852],[1130645,-4092878],[1182377,-4133360],[1187706,-4108632],[1292310,-4142446],[1303206,-4204893],[1352979,-4170664],[1390508,-4174854],[1414075,-4128072],[1339779,-4071369],[1284157,-4078249],[1213169,-4051593],[1189640,-3939988],[1150376,-3901486],[1119116,-3836568],[1081898,-3850909],[1052032,-3798634],[1048947,-3736744],[1081974,-3672935],[1094106,-3610631],[1130042,-3531335],[1124632,-3405313],[1194638,-3379577],[1229559,-3385149],[1224190,-3462753],[1320784,-3453878],[1417392,-3503700],[1465252,-3540427],[1438668,-3466809],[1407789,-3444768],[1379788,-3354892],[1404622,-3346673],[1469678,-3257119],[1642821,-3220756],[1688241,-3222269],[1718211,-3197352],[1720041,-3069784],[1651900,-3030998],[1613873,-2984062],[1613034,-2912976],[1507711,-2818310],[1432322,-2823621],[1380202,-2883504],[1310571,-2858289],[1210132,-2950468],[1187876,-2941813],[1205869,-2890833],[1195618,-2851483],[1215471,-2787017],[1201954,-2726448],[1139889,-2739186],[1113246,-2714354],[1125644,-2676680],[1078920,-2657148]]]},"properties":{"code":"THA","name":"Thailand"}},
{"type":"Feature","geometry":{"type":"Polygon","coordinates":[[[-1950940,-607789],[-1930576,-639072],[-1844473,-618574],[-1823962,-648795],[-1793313,-605409],[-1725784,-609365],[-1722580,-580280],[-1653416,-535835],[-1608400,-606076],[-1636936,-691627],[-1620793,-745856],[-1477137,-694059],[-1434029,-722762],[-1386145,-711249],[-1334688,-741653],[-1323342,-599168],[-1401974,-573109],[-1399136,-478051],[-1556209,-464434],[-1576648,-422283],[-1642628,-428688],[-1649363,-409733],[-1759024,-387013],[-1746588,-339016],[-1686337,-327357],[-1650328,-353817],[-1603907,-343159],[-1645861,-308431],[-1608592,-284566],[-1626694,-247567],[-1695360,-272696],[-1715991,-251256],[-1743183,-313401],[-1773328,-312673],[-1827634,-367592],[-1886528,-341659],[-1927674,-374162],[-1873116,-421829],[-1882389,-526851],[-1937683,-574986],[-1950940,-607789]]]},"properties":{"code":"TJK","name":"Tajikistan"}},
{"type":"Feature","geometry":{"type":"Polygon","coordinates":[[[3169938,-1909778],[3187570,-1862589],[3186625,-1626128],[3145505,-1606255],[3100763,-1651883],[3055961,-1823885],[3063704,-1886495],[3105678,-1942350],[3173554,-1989832],[3169938,-1909778]]]},"properties":{"code":"TWN","name":"Taiwan"}},
{"type":"Feature","geometry":{"type":"Polygon","coordinates":[[[-4478392,537819],[-4508919,511924],[-4553868,409080],[-4523474,381636],[-4537143,334996],[-4595335,325238],[-4635463,299269],[-4643455,295552],[-4683863,236299],[-4663497,168460],[-4635738,135958],[-4432773,129980],[-4238420,122172],[-4176801,139241],[-4115611,217485],[-4098492,265876],[-4060808,300805],[-4029627,290241],[-3959723,312521],[-3956494,333622],[-4020479,352567],[-4076712,394364],[-4195223,423399],[-4235145,455677],[-4261560,506572],[-4328753,522346],[-4370892,580264],[-4408343,526772],[-4466120,515201],[-4478392,537819]]]},"properties":{"code":"SYR","name":"Syria"}},
{"type":"Feature","geometry":{"type":"Polygon","coordinates":[[[-1149515,-3780556],[-1144743,-3857119],[-1180859,-3964015],[-1192418,-3961138],[-1182561,-4092592],[-1159087,-4166088],[-1086703,-4191432],[-977874,-4154408],[-946103,-4066403],[-998203,-3941447],[-1068931,-3835994],[-1118709,-3785463],[-1149515,-3780556]]]},"properties":{"code":"LKA","name":"Sri Lanka"}},
{"type":"Feature","geometry":{"type":"MultiPolygon","coordinates":[[[[3104884,-100084],[3139950,-156927],[3112556,-210701],[3141705,-218841],[3200468,-306321],[3192682,-386963],[3248012,-465329],[3287271,-391085],[3306252,-418390],[3316228,-351612],[3378464,-330767],[3373407,-304115],[3425584,-266685],[3413266,-162076],[3399982,-168957],[3372848,-94988],[3336863,-45845],[3199544,54447],[3188898,8762],[3122575,-25388],[3104884,-100084]]],[[[3276919,-587399],[3312270,-534185],[3267966,-562199],[3276919,-587399]]]]},"properties":{"code":"KOR","name":"South Korea"}},
{"type":"Feature","geometry":{"type":"Polygon","coordinates":[[[1666812,-4608815],[1648093,-4599387],[1629007,-4614624],[1666812,-4608815]]]},"properties":{"code":"SGP","name":"Singapore"}},
{"type":"Feature","geometry":{"type":"Polygon","coordinates":[[[-3963165,-2011029],[-3639907,-2033866],[-3512374,-1848442],[-3533083,-1755881],[-3543551,-1761329],[-3773009,-1621823],[-3820211,-1459259],[-3814667,-1436424],[-3829906,-1389444],[-3864931,-1349676],[-3875589,-1307447],[-3881825,-1176540],[-3857720,-1164163],[-3856618,-1099538],[-3892805,-1036388],[-3894258,-996242],[-3922410,-951855],[-3917217,-850452],[-3982971,-815291],[-3982460,-756850],[-4052793,-702642],[-4199273,-600880],[-4281777,-375612],[-4312542,-275653],[-4396415,-98914],[-4477336,-13816],[-4498248,-16566],[-4674358,46826],[-4656134,-109663],[-4722957,-130424],[-4783567,-101665],[-4877387,-124682],[-4946472,-44530],[-5041529,-142648],[-5006045,-188468],[-5005541,-396546],[-5005247,-581408],[-5027434,-630769],[-5025728,-705842],[-4984468,-788824],[-4981460,-947260],[-5025862,-1036799],[-5044001,-1101491],[-5036298,-1213416],[-4970834,-1358474],[-4975844,-1496768],[-4962379,-1608588],[-4931435,-1686138],[-4927266,-1825089],[-4881018,-1812321],[-4852290,-1743975],[-4825189,-1740141],[-4786647,-1787353],[-4668224,-1842636],[-4648112,-1867512],[-4529905,-1938996],[-4513446,-1986947],[-4463397,-1993896],[-4438254,-1965544],[-4356555,-1920683],[-4258774,-1918461],[-3963165,-2011029]]]},"properties":{"code":"SAU","name":"Saudi Arabia"}},
{"type":"Feature","geometry":{"type":"Polygon","coordinates":[[[-3829906,-1389444],[-3779028,-1347461],[-3755354,-1265757],[-3770712,-1227145],[-3800601,-1233686],[-3843166,-1279173],[-3864931,-1349676],[-3829906,-1389444]]]},"properties":{"code":"QAT","name":"Qatar"}},
{"type":"Feature","geometry":{"type":"MultiPolygon","coordinates":[[[[3291188,-2332255],[3243385,-2361869],[3241390,-2462935],[3280066,-2612237],[3260626,-2638919],[3219846,-2620986],[3281187,-2768615],[3327809,-2797963],[3332773,-2747372],[3377334,-2776153],[3352677,-2819620],[3363781,-2859499],[3427051,-2856072],[3480001,-2803108],[3590321,-2841143],[3553127,-2782162],[3636523,-2802097],[3661810,-2838290],[3731395,-2826269],[3671484,-2765213],[3699419,-2736613],[3637131,-2730351],[3635917,-2767098],[3584276,-2728593],[3544637,-2735189],[3525389,-2787410],[3478064,-2783605],[3451824,-2721559],[3405867,-2670700],[3411479,-2598599],[3460365,-2551583],[3474518,-2437286],[3420180,-2384352],[3417455,-2310153],[3374753,-2338680],[3291188,-2332255]]],[[[3114589,-3540807],[3223219,-3417506],[3248466,-3336085],[3290068,-3306651],[3333494,-3237593],[3297380,-3160133],[3290150,-3249201],[3186521,-3418742],[3114042,-3510709],[3114589,-3540807]]],[[[3610611,-3021158],[3547762,-3011792],[3568413,-3033330],[3582818,-3162756],[3657851,-3094026],[3682393,-3003658],[3610611,-3021158]]],[[[3735731,-3265336],[3748295,-3227451],[3721331,-3179801],[3743395,-3067026],[3705510,-3056923],[3679049,-3079038],[3683647,-3168394],[3645410,-3196575],[3665643,-3243498],[3735731,-3265336]]],[[[3835979,-2966806],[3805682,-2956551],[3832639,-3016365],[3871981,-3017275],[3886121,-3082182],[3933649,-3052349],[3895678,-3007397],[3872469,-2948943],[3835979,-2966806]]],[[[3875356,-2814132],[3776179,-2848864],[3793762,-2879527],[3857630,-2908367],[3909891,-2960278],[3958581,-2938296],[3928288,-2906695],[3914777,-2837160],[3875356,-2814132]]],[[[3378393,-2891453],[3345623,-2898486],[3423525,-2985864],[3463467,-3005183],[3485956,-2949496],[3472555,-2898031],[3431866,-2878108],[3378393,-2891453]]],[[[4035778,-3119689],[3974045,-3094234],[3989394,-3173579],[3923480,-3204497],[3918123,-3253310],[3887247,-3260299],[3864965,-3314861],[3824419,-3346389],[3826614,-3303109],[3776196,-3291267],[3739399,-3359452],[3672134,-3405347],[3654319,-3436161],[3652849,-3531099],[3675275,-3519216],[3696864,-3436536],[3761166,-3410203],[3799110,-3429336],[3801741,-3383157],[3856061,-3379095],[3887471,-3397614],[3872064,-3448955],[3912458,-3519595],[4009160,-3523720],[4031012,-3496885],[4041467,-3538164],[4075337,-3485713],[4029043,-3411174],[4062643,-3336664],[4124395,-3428596],[4112736,-3371417],[4145465,-3312948],[4080327,-3156300],[4035778,-3119689]]],[[[3752853,-3215230],[3799136,-3068109],[3781403,-2996050],[3765798,-3093642],[3742906,-3160063],[3752853,-3215230]]],[[[3875347,-3130054],[3867949,-3105504],[3822589,-3110647],[3792184,-3158568],[3809211,-3174161],[3875347,-3130054]]],[[[3677398,-3582888],[3694668,-3553285],[3642707,-3574244],[3677398,-3582888]]],[[[3988137,-3070675],[3972794,-3016274],[3962598,-3057451],[3988137,-3070675]]],[[[3722887,-2902046],[3665385,-2889906],[3673058,-2962494],[3705687,-2919056],[3770462,-2945244],[3722887,-2902046]]],[[[3754995,-2734195],[3730062,-2692378],[3721680,-2743723],[3754995,-2734195]]]]},"properties":{"code":"PHL","name":"Philippines"}},
{"type":"Feature","geometry":{"type":"Polygon","coordinates":[[[-1195949,-942134],[-1248518,-914809],[-1265780,-882717],[-1261922,-820165],[-1300668,-783697],[-1369124,-758965],[-1439131,-760670],[-1540269,-746735],[-1636151,-770659],[-1683054,-805046],[-1666440,-832587],[-1663705,-907344],[-1736396,-965271],[-1739349,-1019373],[-1849096,-1010854],[-1823768,-1077322],[-1902664,-1098084],[-1940071,-1155875],[-1948214,-1210633],[-1992995,-1233990],[-2053891,-1198947],[-2114598,-1216822],[-2103984,-1238346],[-2179609,-1222118],[-2238135,-1250997],[-2286353,-1361367],[-2394096,-1361703],[-2447225,-1344994],[-2491106,-1351419],[-2537233,-1324490],[-2640313,-1301214],[-2775675,-1201388],[-2747563,-1268662],[-2719957,-1375221],[-2648891,-1439288],[-2676360,-1539357],[-2628085,-1571364],[-2653679,-1616421],[-2725798,-1605092],[-2788847,-1621152],[-2845200,-1723280],[-2777196,-1753861],[-2749173,-1749149],[-2661695,-1782230],[-2651650,-1768947],[-2549189,-1819775],[-2534665,-1809947],[-2445637,-1830407],[-2367391,-1827250],[-2349140,-1872071],[-2357116,-1911521],[-2313372,-1935212],[-2312647,-2001408],[-2284851,-2049891],[-2234329,-2057551],[-2176265,-2059879],[-2169664,-2027535],[-2072905,-2061214],[-1985067,-2053684],[-1935613,-2066643],[-1929906,-2035631],[-1951046,-1920953],[-2000345,-1882356],[-1983519,-1822908],[-2043706,-1771103],[-2026413,-1733335],[-1927959,-1660168],[-1901737,-1699587],[-1787500,-1698203],[-1727115,-1621960],[-1668050,-1602817],[-1605913,-1513256],[-1562403,-1503759],[-1547825,-1468096],[-1468121,-1415522],[-1468022,-1339353],[-1381598,-1291134],[-1440269,-1253788],[-1488482,-1163362],[-1469376,-1137124],[-1485059,-1041749],[-1432616,-1002063],[-1310044,-1053580],[-1226088,-1041288],[-1179234,-1006677],[-1195949,-942134]]]},"properties":{"code":"PAK","name":"Pakistan"}},
{"type":"Feature","geometry":{"type":"MultiPolygon","coordinates":[[[[-3929244,-2307479],[-3820778,-2312042],[-3720352,-2350175],[-3655483,-2282088],[-3573399,-2302506],[-3539215,-2290804],[-3516748,-2250253],[-3455780,-2237106],[-3389206,-2249196],[-3382170,-2182951],[-3349424,-2120840],[-3316256,-2095217],[-3284241,-2126338],[-3222645,-2066701],[-3164905,-2042737],[-3102542,-1981109],[-3179444,-1786028],[-3300457,-1706118],[-3337606,-1626015],[-3344550,-1562379],[-3382868,-1575305],[-3403577,-1551141],[-3427818,-1615973],[-3412677,-1643758],[-3465355,-1636325],[-3468805,-1660825],[-3533083,-1755881],[-3512374,-1848442],[-3639907,-2033866],[-3963165,-2011029],[-3944414,-2223082],[-3929244,-2307479]]],[[[-3330463,-1487773],[-3295333,-1421166],[-3336569,-1435771],[-3330463,-1487773]]]]},"properties":{"code":"OMN","name":"Oman"}},
{"type":"Feature","geometry":{"type":"Polygon","coordinates":[[[3199544,54447],[3097960,76707],[3084065,142615],[3126689,197088],[3188676,336331],[3148607,425309],[3167463,512905],[3183454,522153],[3160021,539319],[3092107,561467],[3106818,501425],[3081442,479417],[3072857,426112],[3012651,387511],[3051233,353283],[3046766,328657],[2972244,308335],[2940234,323890],[2914094,200041],[2851875,114581],[2831882,48558],[2929039,34216],[2942262,-41396],[2963057,-57374],[2938043,-135736],[3007732,-153749],[3028556,-111386],[3066341,-123671],[3104884,-100084],[3122575,-25388],[3188898,8762],[3199544,54447]]]},"properties":{"code":"PRK","name":"North Korea"}},
{"type":"Feature","geometry":{"type":"Polygon","coordinates":[[[-188165,-1892074],[-284624,-1893008],[-342139,-1863857],[-402374,-1878518],[-428194,-1838940],[-483006,-1831830],[-477974,-1801743],[-521813,-1798840],[-567730,-1761144],[-578295,-1726503],[-629209,-1726912],[-667928,-1676662],[-760604,-1613339],[-769948,-1589102],[-830206,-1582139],[-871096,-1597138],[-918293,-1621409],[-975918,-1733356],[-873076,-1799154],[-809725,-1856914],[-670729,-1923288],[-590059,-1915854],[-539375,-1940270],[-533270,-1968921],[-473821,-2005201],[-274212,-2055271],[-196509,-2049685],[-202182,-1972497],[-188165,-1892074]]]},"properties":{"code":"NPL","name":"Nepal"}},
{"type":"Feature","geometry":{"type":"Polygon","coordinates":[[[-159507,464796],[-149204,397017],[-71092,334139],[-32776,333965],[23532,297489],[66229,217586],[77552,115597],[51704,58584],[68930,22165],[124747,9719],[288673,-4514],[375437,-61285],[426736,-66217],[480014,-181947],[522452,-232946],[588693,-219698],[775390,-225408],[815945,-208342],[959504,-212957],[984487,-237441],[1077619,-246746],[1134211,-266164],[1196117,-241185],[1200256,-265162],[1255730,-246003],[1371442,-160453],[1479970,-118687],[1580979,-93901],[1648277,-40396],[1680131,33631],[1741142,93236],[1681358,152980],[1698427,238740],[1835086,241457],[1884057,329475],[1966458,367449],[1995269,417358],[2000582,478036],[2053089,505310],[2108637,568440],[2211353,594730],[2189262,652085],[2071616,707296],[2021189,688819],[2005238,642650],[1955886,650987],[1902404,610558],[1869201,629973],[1876304,856387],[1832495,863271],[1777133,836949],[1699786,850054],[1639514,774965],[1638122,753305],[1527913,690854],[1498242,660653],[1338698,637996],[1290862,657861],[1276249,692444],[1224859,688195],[1180592,715487],[1084750,714066],[969630,654622],[866999,688095],[840934,770686],[722013,795435],[684095,793801],[608784,825291],[553399,733346],[549171,692325],[586410,645584],[579397,593915],[519298,549319],[501752,564723],[419411,572577],[330810,567937],[301457,625595],[219898,627096],[165988,654174],[46802,580599],[-25612,544981],[-71927,497565],[-131148,496260],[-159507,464796]]]},"properties":{"code":"MNG","name":"Mongolia"}},
{"type":"Feature","geometry":{"type":"MultiPolygon","coordinates":[[[[1182377,-4133360],[1250729,-4313864],[1266501,-4383855],[1339425,-4450146],[1341016,-4488300],[1516386,-4574345],[1592861,-4596563],[1608849,-4616933],[1633462,-4601122],[1668582,-4595747],[1666276,-4578506],[1691053,-4601941],[1693640,-4564329],[1639841,-4482471],[1593535,-4451990],[1578667,-4366566],[1577186,-4253336],[1521709,-4189825],[1414075,-4128072],[1390508,-4174854],[1352979,-4170664],[1303206,-4204893],[1292310,-4142446],[1187706,-4108632],[1182377,-4133360]]],[[[3213406,-3979736],[3314488,-3928941],[3277934,-3871445],[3373658,-3830013],[3378635,-3794163],[3305539,-3796996],[3231981,-3768579],[3190635,-3793177],[3185118,-3736372],[3119330,-3701286],[3100377,-3740658],[3076994,-3712577],[2992497,-3893383],[2951652,-3917752],[2973246,-3935717],[2927404,-3979808],[2955836,-4028405],[2930731,-4033976],[2914558,-3983190],[2885276,-4010443],[2900348,-4041597],[2878876,-4086917],[2809270,-4043327],[2797891,-4083769],[2710032,-4216343],[2562126,-4287773],[2510393,-4343495],[2504320,-4454246],[2413781,-4439597],[2371239,-4448496],[2326747,-4424752],[2333590,-4466853],[2440319,-4524456],[2489385,-4497856],[2586629,-4478767],[2662984,-4402447],[2799464,-4404717],[2829657,-4376324],[2903655,-4354510],[2930336,-4293016],[2921945,-4266234],[2963626,-4226295],[2948939,-4196003],[2988551,-4164882],[2989412,-4067212],[3020926,-4014433],[3157421,-3977739],[3213406,-3979736]]]]},"properties":{"code":"MYS","name":"Malaysia"}},
{"type":"Feature","geometry":{"type":"Polygon","coordinates":[[[-4553868,409080],[-4709841,309811],[-4689298,291318],[-4638432,299351],[-4635463,299269],[-4595335,325238],[-4537143,334996],[-4523474,381636],[-4553868,409080]]]},"properties":{"code":"LBN","name":"Lebanon"}},
{"type":"Feature","geometry":{"type":"Polygon","coordinates":[[[1268446,-2408047],[1220182,-2405345],[1207159,-2429927],[1233851,-2473308],[1237768,-2546903],[1186542,-2545371],[1174065,-2509301],[1136512,-2541750],[1082961,-2626982],[1078920,-2657148],[1125644,-2676680],[1113246,-2714354],[1139889,-2739186],[1201954,-2726448],[1215471,-2787017],[1195618,-2851483],[1205869,-2890833],[1187876,-2941813],[1210132,-2950468],[1310571,-2858289],[1380202,-2883504],[1432322,-2823621],[1507711,-2818310],[1613034,-2912976],[1613873,-2984062],[1651900,-3030998],[1720041,-3069784],[1718211,-3197352],[1688241,-3222269],[1772614,-3253893],[1775737,-3207906],[1830123,-3172772],[1868382,-3194562],[1939765,-3138716],[1946802,-3077257],[1886402,-3028872],[1908036,-2998460],[1826662,-2968099],[1799074,-2918908],[1701553,-2850306],[1627552,-2784816],[1631429,-2762153],[1583683,-2753313],[1489833,-2709361],[1500135,-2671047],[1555381,-2669389],[1590404,-2618901],[1545905,-2557093],[1486433,-2534194],[1445729,-2567288],[1387663,-2554567],[1356705,-2517972],[1362099,-2471582],[1335791,-2477459],[1268446,-2408047]]]},"properties":{"code":"LAO","name":"Laos"}},
{"type":"Feature","geometry":{"type":"Polygon","coordinates":[[[-1603907,-343159],[-1650328,-353817],[-1686337,-327357],[-1746588,-339016],[-1759024,-387013],[-1649363,-409733],[-1642628,-428688],[-1576648,-422283],[-1556209,-464434],[-1399136,-478051],[-1356767,-418962],[-1213259,-382050],[-1210984,-416320],[-1141373,-411954],[-1103606,-358022],[-994323,-364272],[-970010,-334491],[-887218,-299634],[-808027,-281576],[-806558,-264094],[-861710,-227235],[-886715,-188235],[-934097,-171726],[-1212810,-121707],[-1272735,-72089],[-1329680,-87698],[-1347686,-151657],[-1471918,-77567],[-1518478,-76961],[-1555198,-123960],[-1633758,-182757],[-1593044,-228223],[-1545327,-253973],[-1514803,-214559],[-1505659,-256271],[-1413901,-322874],[-1545358,-366619],[-1603907,-343159]]]},"properties":{"code":"KGZ","name":"Kyrgyzstan"}},
{"type":"Feature","geometry":{"type":"Polygon","coordinates":[[[-3917217,-850452],[-3914139,-748138],[-3891850,-679918],[-3912074,-654001],[-3964424,-641517],[-4052793,-702642],[-3982460,-756850],[-3982971,-815291],[-3917217,-850452]]]},"properties":{"code":"KWT","name":"Kuwait"}},
{"type":"Feature","geometry":{"type":"Polygon","coordinates":[[[-1555198,-123960],[-1518478,-76961],[-1471918,-77567],[-1347686,-151657],[-1329680,-87698],[-1272735,-72089],[-1212810,-121707],[-934097,-171726],[-886715,-188235],[-861710,-227235],[-806558,-264094],[-804009,-211118],[-747462,-162164],[-770059,-54712],[-753696,16077],[-781262,48601],[-649647,72129],[-590694,41111],[-598411,86128],[-531011,249089],[-515245,264826],[-397513,216328],[-328643,259460],[-334328,333379],[-314805,384588],[-254898,397682],[-237619,450387],[-195649,457389],[-244830,517534],[-276753,506695],[-340401,521253],[-358862,573835],[-405005,596748],[-427158,658089],[-466354,685770],[-529704,661639],[-601764,670336],[-635750,734789],[-704937,686382],[-778465,905966],[-816285,995212],[-878830,1069236],[-851856,1121069],[-1022646,1062853],[-1097214,1056519],[-1065573,1103946],[-1146412,1161207],[-1222313,1172649],[-1205372,1213027],[-1212420,1296181],[-1250781,1289659],[-1317167,1334087],[-1412519,1301432],[-1556419,1317507],[-1585559,1296564],[-1627209,1313137],[-1798420,1323289],[-1829884,1348014],[-1869774,1311920],[-1840281,1288310],[-1870881,1271698],[-1837756,1217210],[-1893736,1242530],[-1922788,1183861],[-1998024,1163293],[-1987136,1119136],[-1939013,1074592],[-1961578,1012992],[-1997436,1006956],[-2056585,1043431],[-2075241,1024542],[-2129789,1061267],[-2146257,1113975],[-2212156,1121577],[-2265398,1162407],[-2329094,1140120],[-2375568,1212983],[-2397535,1180974],[-2434706,1305214],[-2480630,1329558],[-2484032,1357310],[-2553720,1368981],[-2571707,1412562],[-2628766,1387455],[-2684478,1392948],[-2763143,1377472],[-2785450,1310599],[-2820595,1307262],[-2830854,1387871],[-2859256,1391695],[-2944925,1323023],[-2948566,1288676],[-3011016,1235203],[-2997921,1209369],[-3012548,1144813],[-2961783,1113834],[-2963659,985143],[-2997667,977717],[-2970557,931117],[-2802687,937040],[-2757840,877504],[-2697320,860326],[-2695001,822531],[-2721413,775013],[-2776919,724424],[-2760006,684877],[-2879438,751214],[-2932004,708979],[-2913530,662542],[-2995453,714216],[-3006714,687049],[-2979678,654711],[-2983845,564803],[-2999978,533637],[-2969512,475673],[-2928899,442911],[-2983943,346074],[-2908845,362063],[-2839709,344185],[-2801742,273576],[-2783679,183072],[-2748755,174461],[-2657143,389724],[-2584181,556628],[-2377715,534590],[-2248637,341248],[-2210192,218358],[-2113861,200197],[-2023143,160308],[-1982556,166371],[-1950908,108616],[-1941309,54628],[-1914727,59817],[-1952851,-44190],[-1914743,-56878],[-1922834,-149844],[-1824260,-176031],[-1826255,-220459],[-1785673,-248810],[-1728883,-182064],[-1555198,-123960]]]},"properties":{"code":"KAZ","name":"Kazakhstan"}},
{"type":"Feature","geometry":{"type":"Polygon","coordinates":[[[-4683863,236299],[-4721164,217047],[-4783817,133686],[-4932950,-26116],[-4946472,-44530],[-4877387,-124682],[-4783567,-101665],[-4722957,-130424],[-4656134,-109663],[-4674358,46826],[-4498248,-16566],[-4477336,-13816],[-4432773,129980],[-4635738,135958],[-4663497,168460],[-4683863,236299]]]},"properties":{"code":"JOR","name":"Jordan"}},
{"type":"Feature","geometry":{"type":"MultiPolygon","coordinates":[[[[3912250,1295796],[3798563,1304894],[3706612,1331819],[3710258,1281751],[3751869,1250222],[3790922,1178119],[3824700,1083687],[3762520,1049466],[3784849,1029905],[3773719,962814],[3868371,857721],[3875741,920590],[3907323,944005],[3820600,953260],[3816384,982842],[3862023,986985],[3899828,1052518],[4023166,1068455],[4006378,1117657],[4006770,1188673],[4075694,1296017],[4010489,1328959],[3983400,1393594],[3980705,1329388],[3912250,1295796]]],[[[3655065,-345256],[3624711,-327306],[3543732,-452510],[3586864,-494811],[3615202,-432719],[3657908,-470246],[3645542,-544509],[3681815,-626990],[3734384,-634113],[3770461,-564514],[3747348,-424172],[3755078,-387260],[3729107,-348710],[3699548,-362877],[3685183,-321952],[3655065,-345256]]],[[[3871871,-132522],[3845029,-135449],[3824191,-193293],[3763303,-232712],[3761590,-307211],[3812077,-365150],[3834882,-341458],[3833835,-274127],[3853436,-242530],[3909558,-243424],[3923569,-158557],[3894872,-122230],[3871871,-132522]]],[[[3940334,906674],[3913251,904719],[3928189,862797],[3946860,892894],[3964956,854208],[3936138,833173],[3895872,850864],[3905853,767080],[3943381,691742],[3984776,663524],[4021764,502210],[4004089,446972],[4001379,357086],[3930551,254916],[3905025,283706],[3913480,337886],[3887393,300698],[3912958,229916],[3904031,121274],[3922736,103225],[3906315,56614],[3855602,56955],[3794621,-9251],[3698110,-71488],[3630696,-253984],[3604088,-271514],[3617092,-318138],[3678473,-273878],[3720773,-277482],[3709061,-233581],[3775793,-184606],[3874752,-62805],[3937497,-58669],[3926995,-93823],[3992242,-151083],[4027277,-127518],[4026063,-45096],[4057470,-4288],[4014327,15348],[4033569,45557],[4141473,90393],[4142213,159020],[4187637,126037],[4179805,212676],[4215393,219384],[4199498,280655],[4249859,210384],[4268761,342053],[4231140,361411],[4204894,405086],[4198131,471741],[4137242,561729],[4125283,608754],[4145071,633891],[4121704,698876],[4128874,724645],[4086855,798907],[4004399,845729],[3952514,921131],[3940334,906674]]],[[[3708455,-1195728],[3699140,-1171886],[3669576,-1241514],[3675727,-1280373],[3708455,-1195728]]],[[[3750765,-980685],[3758406,-938007],[3724097,-989124],[3750765,-980685]]]]},"properties":{"code":"JPN","name":"Japan"}},
{"type":"Feature","geometry":{"type":"Polygon","coordinates":[[[-4638432,299351],[-4689298,291318],[-4709841,309811],[-4813196,220141],[-4846419,202018],[-4885861,179450],[-4942581,-29548],[-4932950,-26116],[-4783817,133686],[-4829944,160027],[-4785017,174706],[-4777418,229363],[-4737843,251593],[-4721164,217047],[-4683863,236299],[-4643455,295552],[-4638432,299351]]]},"properties":{"code":"ISR","name":"Israel"}},
{"type":"Feature","geometry":{"type":"MultiPolygon","coordinates":[[[[-4846419,202018],[-4882175,193405],[-4885861,179450],[-4846419,202018]]],[[[-4721164,217047],[-4737843,251593],[-4777418,229363],[-4785017,174706],[-4829944,160027],[-4783817,133686],[-4721164,217047]]]]},"properties":{"code":"PSX","name":"Palestine"}},
{"type":"Feature","geometry":{"type":"Polygon","coordinates":[[[-3959723,312521],[-4029627,290241],[-4060808,300805],[-4098492,265876],[-4115611,217485],[-4176801,139241],[-4238420,122172],[-4432773,129980],[-4477336,-13816],[-4396415,-98914],[-4312542,-275653],[-4281777,-375612],[-4199273,-600880],[-4052793,-702642],[-3964424,-641517],[-3912074,-654001],[-3891850,-679918],[-3845469,-708273],[-3866811,-631763],[-3843051,-577503],[-3869595,-560868],[-3820281,-486312],[-3827332,-400488],[-3881635,-302304],[-3886520,-209432],[-3905387,-149812],[-3841239,-79228],[-3789579,-67164],[-3781433,-19401],[-3751238,1529],[-3801414,58700],[-3784790,200068],[-3828929,206413],[-3847567,252184],[-3915160,318241],[-3959723,312521]]]},"properties":{"code":"IRQ","name":"Iraq"}},
{"type":"Feature","geometry":{"type":"MultiPolygon","coordinates":[[[[-3297116,-1349024],[-3383487,-1345280],[-3326131,-1363322],[-3297116,-1349024]]],[[[-3081505,-166424],[-3100033,-223282],[-3144901,-195332],[-3249019,-174780],[-3327003,-119203],[-3359407,-67286],[-3371327,-10198],[-3437954,60473],[-3415229,147802],[-3436912,157022],[-3457815,222801],[-3405921,268876],[-3432561,317517],[-3564351,298555],[-3592937,312414],[-3631256,353888],[-3642091,448342],[-3712949,457781],[-3741863,337206],[-3782545,302717],[-3766515,269951],[-3784790,200068],[-3801414,58700],[-3751238,1529],[-3781433,-19401],[-3789579,-67164],[-3841239,-79228],[-3905387,-149812],[-3886520,-209432],[-3881635,-302304],[-3827332,-400488],[-3820281,-486312],[-3869595,-560868],[-3843051,-577503],[-3866811,-631763],[-3845469,-708273],[-3787657,-695751],[-3757987,-747106],[-3707084,-752483],[-3710848,-785607],[-3686923,-906060],[-3690323,-1020879],[-3667954,-1067611],[-3605594,-1126127],[-3597811,-1165995],[-3529563,-1271073],[-3427856,-1337065],[-3344201,-1322301],[-3272080,-1325896],[-3224871,-1380757],[-3229387,-1512082],[-3080731,-1614030],[-2931256,-1684207],[-2864873,-1728261],[-2845200,-1723280],[-2788847,-1621152],[-2725798,-1605092],[-2653679,-1616421],[-2628085,-1571364],[-2676360,-1539357],[-2648891,-1439288],[-2719957,-1375221],[-2747563,-1268662],[-2775675,-1201388],[-2660197,-1127299],[-2654119,-1064524],[-2725344,-1025876],[-2699948,-945616],[-2693913,-842212],[-2650651,-814334],[-2681274,-787183],[-2667880,-737780],[-2625602,-726573],[-2549654,-599362],[-2526259,-485872],[-2590972,-462371],[-2635331,-380232],[-2644182,-336707],[-2709381,-295018],[-2783676,-221158],[-2785844,-192484],[-2844027,-163133],[-2868040,-174217],[-2918158,-148461],[-2966057,-151011],[-3009239,-180814],[-3081505,-166424]]]]},"properties":{"code":"IRN","name":"Iran"}},
{"type":"Feature","geometry":{"type":"MultiPolygon","coordinates":[[[[894637,-4677064],[846753,-4684588],[921845,-4764522],[950166,-4723463],[894637,-4677064]]],[[[1107972,-4992468],[1119890,-4976066],[1069369,-4907693],[1038224,-4939215],[1072672,-4983888],[1107972,-4992468]]],[[[3240841,-5324364],[3250476,-5298586],[3209897,-5290156],[3170962,-5323891],[3174639,-5354493],[3211459,-5364125],[3240841,-5324364]]],[[[3096361,-5313348],[2980380,-5337377],[3074971,-5384266],[3128384,-5331334],[3096361,-5313348]]],[[[1932996,-4880082],[1877184,-4874016],[1826285,-4934773],[1905140,-4937152],[1934456,-4998756],[2015961,-5011167],[2030976,-4957477],[1976218,-4955172],[1932996,-4880082]]],[[[3968941,-4684442],[3940994,-4682189],[3911336,-4809474],[3938829,-4813924],[3979493,-4758064],[3953154,-4757500],[3968941,-4684442]]],[[[3915388,-4778880],[3914855,-4709674],[3878195,-4737553],[3874188,-4797635],[3915388,-4778880]]],[[[2157868,-4281862],[2163913,-4249365],[2118175,-4251901],[2157868,-4281862]]],[[[2199534,-4972382],[2181007,-4934352],[2132143,-4939724],[2130120,-5006283],[2199534,-4972382]]],[[[5257173,-3714862],[5315166,-3739694],[5371424,-3707775],[5312803,-3695153],[5257173,-3714862]]],[[[5285949,-3809215],[5372113,-3800319],[5440606,-3753894],[5285949,-3809215]]],[[[4753744,-3879689],[4694845,-3928875],[4781328,-3907824],[4806804,-3872483],[4753744,-3879689]]],[[[4457620,-3774869],[4462889,-3710841],[4427131,-3759846],[4457620,-3774869]]],[[[4490695,-4176961],[4429219,-4165272],[4405894,-4209103],[4490695,-4176961]]],[[[4135549,-4318386],[4068928,-4340482],[4077586,-4371994],[4176534,-4314795],[4135549,-4318386]]],[[[4931271,-4691789],[4960383,-4638607],[4956375,-4584078],[4917899,-4639712],[4903053,-4689050],[4931271,-4691789]]],[[[4416583,-4859958],[4322181,-4893920],[4304951,-4934292],[4381780,-4902917],[4416583,-4859958]]],[[[4165792,-4999529],[4153269,-5035891],[4227696,-5000586],[4165792,-4999529]]],[[[4798376,-4008152],[4799991,-3968242],[4756112,-3986682],[4798376,-4008152]]],[[[764068,-4295638],[633991,-4261759],[612765,-4298869],[648212,-4351416],[763362,-4442797],[826213,-4463623],[902594,-4533647],[917499,-4583050],[1021986,-4621824],[1051302,-4661414],[1099291,-4774975],[1152784,-4795697],[1241862,-4882451],[1312296,-4988608],[1312301,-5010041],[1404626,-5104375],[1472707,-5140605],[1524586,-5190668],[1684984,-5264561],[1781715,-5335011],[1784655,-5295717],[1839086,-5310824],[1870605,-5286398],[1927573,-5290828],[1932926,-5222263],[1921860,-5137667],[1941562,-5026519],[1882607,-4972532],[1815231,-4968758],[1781652,-4995511],[1792088,-4944951],[1758017,-4932244],[1728018,-4845559],[1650780,-4840564],[1614157,-4809042],[1611885,-4774069],[1653144,-4743861],[1613918,-4704320],[1564802,-4709543],[1492105,-4688994],[1406058,-4612110],[1369100,-4608950],[1314998,-4556457],[1297873,-4590410],[1245173,-4563941],[1154723,-4476917],[982228,-4397844],[973868,-4365024],[888006,-4289299],[764068,-4295638]]],[[[3962206,-5116623],[3981176,-5062264],[3901838,-5137212],[3865980,-5130725],[3806031,-5162081],[3705973,-5157171],[3626393,-5201862],[3628247,-5244094],[3703078,-5216411],[3760799,-5213049],[3832561,-5187376],[3962206,-5116623]]],[[[3643818,-5293091],[3546545,-5321789],[3536707,-5357740],[3597904,-5347391],[3699669,-5371736],[3744361,-5332140],[3643818,-5293091]]],[[[3428341,-5244403],[3369712,-5242870],[3429294,-5272440],[3379421,-5298171],[3349327,-5276854],[3263361,-5310228],[3260732,-5359540],[3293645,-5360573],[3535274,-5251004],[3516294,-5222141],[3428341,-5244403]]],[[[4084338,-4040315],[4114024,-3973052],[4083473,-3962456],[4015330,-4062666],[3970610,-4099060],[3863440,-4135460],[3809594,-4135552],[3713662,-4162323],[3633602,-4164430],[3595697,-4227819],[3571301,-4217575],[3545208,-4257261],[3517731,-4350112],[3524264,-4411859],[3487186,-4501066],[3494913,-4554494],[3474793,-4619416],[3442241,-4658884],[3474995,-4731308],[3523633,-4710449],[3553161,-4760934],[3538066,-4912048],[3580315,-4927910],[3662356,-4892669],[3640499,-4852334],[3651525,-4793092],[3643775,-4698892],[3615398,-4637909],[3656940,-4583956],[3695649,-4572117],[3708883,-4621076],[3697205,-4666217],[3784309,-4695946],[3788167,-4765702],[3844402,-4751126],[3846394,-4723697],[3934247,-4674428],[3929184,-4650417],[3851873,-4623633],[3863597,-4574787],[3789826,-4505566],[3727840,-4484153],[3769054,-4461870],[3851952,-4378815],[3880773,-4327641],[3945871,-4309396],[3940921,-4272371],[3818050,-4326130],[3785258,-4356150],[3732985,-4364892],[3684902,-4439838],[3642545,-4449329],[3568046,-4395084],[3552440,-4351032],[3581875,-4272108],[3751313,-4218646],[3890430,-4165983],[3968622,-4158280],[4041472,-4113954],[4084338,-4040315]]],[[[2117139,-5294458],[2051405,-5314361],[1959955,-5310007],[1892247,-5407858],[2018860,-5416195],[2012397,-5448973],[2113265,-5443327],[2190861,-5455930],[2255745,-5452163],[2290095,-5433010],[2447561,-5426768],[2517260,-5439599],[2767319,-5414727],[2835434,-5387412],[2997043,-5399886],[2971505,-5368646],[2975339,-5315654],[2929233,-5299474],[2831630,-5330262],[2776423,-5325474],[2742192,-5268917],[2687981,-5277120],[2621094,-5266041],[2523858,-5267759],[2489280,-5322971],[2278201,-5346319],[2229411,-5301530],[2153485,-5309537],[2117139,-5294458]]],[[[2326747,-4424752],[2267032,-4492362],[2253297,-4568613],[2261598,-4612908],[2301198,-4639278],[2290165,-4691143],[2309116,-4717407],[2372385,-4734248],[2402938,-4768584],[2448863,-4924169],[2523987,-4917859],[2574772,-4893057],[2629675,-4894222],[2633302,-4942763],[2686447,-4909307],[2724384,-4909193],[2771707,-4849942],[2865993,-4882639],[2898202,-4856525],[2951232,-4853988],[2977871,-4930258],[3121176,-4834341],[3151973,-4777148],[3157108,-4712124],[3177605,-4705532],[3157821,-4634127],[3140509,-4638718],[3242963,-4519849],[3278326,-4493505],[3261478,-4390663],[3295076,-4288477],[3370101,-4297311],[3419211,-4264523],[3268600,-4196078],[3296119,-4156642],[3233729,-4093943],[3202577,-4088874],[3175675,-4048308],[3243496,-4023314],[3213406,-3979736],[3157421,-3977739],[3020926,-4014433],[2989412,-4067212],[2988551,-4164882],[2948939,-4196003],[2963626,-4226295],[2921945,-4266234],[2930336,-4293016],[2903655,-4354510],[2829657,-4376324],[2799464,-4404717],[2662984,-4402447],[2586629,-4478767],[2489385,-4497856],[2440319,-4524456],[2333590,-4466853],[2326747,-4424752]]],[[[4401418,-3933514],[4423125,-3870370],[4400011,-3823486],[4409287,-3778384],[4371921,-3833785],[4359753,-3905151],[4387710,-3939064],[4416079,-4049358],[4463168,-4082026],[4486482,-4075384],[4447789,-4037249],[4435711,-3961675],[4540911,-3946773],[4461446,-3921743],[4502894,-3862575],[4492454,-3814374],[4439352,-3865380],[4401418,-3933514]]],[[[4687264,-4229654],[4649855,-4236991],[4514461,-4300709],[4511364,-4334072],[4547201,-4348175],[4582520,-4321150],[4664465,-4304332],[4704311,-4273703],[4818703,-4283884],[4820350,-4251192],[4758191,-4213261],[4687264,-4229654]]],[[[4368078,-4382563],[4275330,-4426712],[4302445,-4463932],[4358573,-4466567],[4417090,-4423326],[4413462,-4398247],[4368078,-4382563]]],[[[4212590,-5068099],[4159383,-5112343],[4113306,-5143688],[4077412,-5184180],[4074666,-5257733],[4164524,-5211076],[4233961,-5120708],[4212590,-5068099]]],[[[5279170,-4281550],[5260907,-4260057],[5218915,-4345064],[5254923,-4363448],[5286962,-4329899],[5279170,-4281550]]],[[[5266907,-4369820],[5222791,-4360780],[5219075,-4428676],[5252253,-4418303],[5266907,-4369820]]],[[[5726030,-4348757],[5766644,-4261879],[5738723,-4241745],[5660496,-4310990],[5636423,-4410266],[5726030,-4348757]]],[[[5883887,-3604291],[5844104,-3607856],[5755664,-3646825],[5625057,-3653883],[5530228,-3669308],[5465826,-3745449],[5474607,-3762331],[5396784,-3831614],[5387168,-3872350],[5320351,-3993591],[5271831,-4016172],[5213350,-3953804],[5200686,-3993718],[5156289,-3942462],[5142051,-3895107],[5151678,-3849388],[5108980,-3799071],[5054827,-3823089],[4956499,-3827578],[4904777,-3862466],[4874455,-3904766],[4817882,-3947506],[4799662,-4019888],[4903899,-3988409],[4921703,-4029022],[4957068,-4041383],[5028785,-4011722],[5129351,-3944785],[5103647,-4007735],[5056468,-4017535],[5011981,-4077963],[4929750,-4115371],[5023405,-4129742],[5060161,-4202894],[5090240,-4185357],[5122707,-4091424],[5165166,-4122692],[5246871,-4099088],[5256061,-4121948],[5308050,-4125661],[5393967,-4092373],[5519735,-4073704],[5632681,-4077122],[5687313,-4149129],[5740841,-4179834],[5713391,-4200314],[5765750,-4205774],[5734326,-4228205],[5775647,-4244698],[5758740,-4317128],[5873467,-4251111],[5998399,-4299457],[5965432,-4062739],[5917262,-3776652],[5883887,-3604291]]],[[[1394400,-4566046],[1363914,-4570663],[1383936,-4604899],[1394400,-4566046]]],[[[1558674,-4683976],[1499602,-4651725],[1489657,-4677889],[1558674,-4683976]]],[[[2898993,-5252348],[2912988,-5225281],[2781286,-5257685],[2803775,-5284666],[2898993,-5252348]]],[[[4403620,-4062945],[4377140,-4075398],[4400221,-4118438],[4446511,-4100190],[4403620,-4062945]]],[[[4733946,-4078516],[4669243,-4125974],[4728423,-4120913],[4733946,-4078516]]],[[[770368,-4593244],[690524,-4540600],[691557,-4567483],[770368,-4593244]]],[[[3929517,-4333246],[3895205,-4346205],[3898805,-4388912],[3929517,-4333246]]],[[[3164391,-4851770],[3154639,-4789558],[3129439,-4843203],[3141471,-4877191],[3164391,-4851770]]],[[[3997415,-5344724],[4050560,-5300961],[4043958,-5284760],[3984481,-5333541],[3997415,-5344724]]],[[[4091798,-5038482],[4073890,-5035820],[4013480,-5091526],[4051214,-5082942],[4091798,-5038482]]]]},"properties":{"code":"IDN","name":"Indonesia"}},
{"type":"Feature","geometry":{"type":"MultiPolygon","coordinates":[[[[-2234329,-2057551],[-2200446,-2141300],[-2147204,-2192585],[-2105525,-2212432],[-2022891,-2207591],[-2056989,-2244445],[-2182982,-2257255],[-2089149,-2402439],[-2034250,-2454072],[-2002646,-2461060],[-1893041,-2437552],[-1862233,-2402082],[-1879802,-2366089],[-1846076,-2332174],[-1809100,-2363628],[-1829712,-2390153],[-1780150,-2399435],[-1826204,-2416893],[-1812397,-2519119],[-1845922,-2593624],[-1841670,-2721092],[-1826534,-2840637],[-1813450,-3014763],[-1772409,-3093782],[-1774572,-3128508],[-1734245,-3198504],[-1707805,-3356499],[-1671428,-3472393],[-1619463,-3555248],[-1562817,-3717795],[-1569543,-3767014],[-1548280,-3828571],[-1505134,-3887211],[-1444545,-3930137],[-1379851,-3905842],[-1360849,-3854456],[-1267934,-3825375],[-1263038,-3781893],[-1213610,-3721215],[-1162524,-3724994],[-1148524,-3548828],[-1101814,-3478715],[-1084346,-3408650],[-1103826,-3315304],[-1103722,-3222604],[-1072356,-3157301],[-1032137,-3141555],[-996606,-3159799],[-958741,-3101030],[-906613,-3106608],[-850651,-3086596],[-845754,-3046435],[-809685,-3012930],[-741794,-2981988],[-689719,-2935935],[-639806,-2915187],[-563816,-2829783],[-489602,-2779529],[-398718,-2751948],[-347150,-2711285],[-322070,-2670236],[-332888,-2611694],[-306644,-2583916],[-245255,-2569108],[-189733,-2517603],[-205197,-2565641],[-100186,-2571660],[-99823,-2524008],[-130925,-2377565],[-148631,-2351409],[-130710,-2291045],[-203232,-2246445],[-157885,-2186154],[-113507,-2186165],[-125519,-2153671],[-194557,-2108984],[-149570,-2040993],[-99169,-2053457],[-72092,-2094467],[-38573,-2075204],[-17976,-2105253],[-18996,-2174734],[44950,-2190764],[209660,-2187179],[230881,-2216627],[193781,-2293818],[141282,-2305866],[120412,-2353316],[137168,-2413630],[169090,-2426676],[201358,-2368901],[232990,-2348680],[271217,-2533169],[312172,-2529125],[331910,-2489721],[322141,-2451127],[350873,-2405011],[341947,-2308437],[427272,-2320753],[481871,-2190043],[465328,-2169613],[520224,-2079301],[516964,-2018558],[606969,-1944830],[666507,-1927099],[705364,-1950144],[687670,-1891972],[728705,-1856297],[725299,-1825724],[652493,-1804880],[621137,-1812458],[648231,-1771753],[590203,-1700660],[532428,-1747720],[452944,-1723893],[384505,-1783224],[316718,-1809311],[264984,-1881494],[162645,-1904716],[199046,-1937919],[208446,-1996347],[74474,-2014151],[34786,-2001408],[-23793,-2022104],[-114800,-1992946],[-111001,-1954162],[-114604,-1893560],[-136952,-1868765],[-188165,-1892074],[-202182,-1972497],[-196509,-2049685],[-274212,-2055271],[-473821,-2005201],[-533270,-1968921],[-539375,-1940270],[-590059,-1915854],[-670729,-1923288],[-809725,-1856914],[-873076,-1799154],[-975918,-1733356],[-918293,-1621409],[-871096,-1597138],[-945736,-1544264],[-943381,-1523371],[-1001355,-1495480],[-1039582,-1440324],[-1070847,-1448415],[-1067817,-1374866],[-1092991,-1308868],[-1045542,-1333205],[-1015640,-1321128],[-1016631,-1240216],[-1041913,-1206436],[-1038760,-1141235],[-1016997,-1128415],[-1074167,-1073157],[-1105884,-974411],[-1179234,-1006677],[-1226088,-1041288],[-1310044,-1053580],[-1432616,-1002063],[-1485059,-1041749],[-1469376,-1137124],[-1488482,-1163362],[-1440269,-1253788],[-1381598,-1291134],[-1468022,-1339353],[-1468121,-1415522],[-1547825,-1468096],[-1562403,-1503759],[-1605913,-1513256],[-1668050,-1602817],[-1727115,-1621960],[-1787500,-1698203],[-1901737,-1699587],[-1927959,-1660168],[-2026413,-1733335],[-2043706,-1771103],[-1983519,-1822908],[-2000345,-1882356],[-1951046,-1920953],[-1929906,-2035631],[-1935613,-2066643],[-1985067,-2053684],[-2072905,-2061214],[-2169664,-2027535],[-2176265,-2059879],[-2234329,-2057551]]],[[[309870,-3653581],[338172,-3546265],[325569,-3503691],[344062,-3438845],[321437,-3459525],[305390,-3581668],[287782,-3618398],[309870,-3653581]]]]},"properties":{"code":"IND","name":"India"}},
{"type":"Feature","geometry":{"type":"Polygon","coordinates":[[[-3652452,655770],[-3536187,603088],[-3508093,606413],[-3448575,517089],[-3421723,529497],[-3434852,587639],[-3404802,600292],[-3440714,665730],[-3419282,688661],[-3460072,753806],[-3531529,775640],[-3532222,801183],[-3591280,909566],[-3644833,947828],[-3683248,1021818],[-3732072,1042761],[-3685777,898045],[-3710973,818350],[-3755333,786407],[-3697343,733635],[-3668637,730743],[-3652452,655770]]]},"properties":{"code":"GEO","name":"Georgia"}},
{"type":"Feature","geometry":{"type":"Polygon","coordinates":[[[-4658854,564957],[-4648212,590220],[-4594218,588569],[-4677046,622811],[-4707104,658635],[-4736525,651570],[-4658854,564957]]]},"properties":{"code":"CYN","name":"N. Cyprus"}},
{"type":"Feature","geometry":{"type":"Polygon","coordinates":[[[-4736525,651570],[-4776643,654797],[-4760912,581482],[-4658854,564957],[-4736525,651570]]]},"properties":{"code":"CYP","name":"Cyprus"}},
{"type":"Feature","geometry":{"type":"MultiPolygon","coordinates":[[[[1886017,-2399850],[1940298,-2370485],[1931614,-2346332],[2001514,-2383207],[2088131,-2359572],[2068756,-2402878],[2089275,-2455151],[2129979,-2485914],[2165583,-2449341],[2125158,-2420635],[2140060,-2363610],[2158423,-2373221],[2198880,-2330319],[2257823,-2310690],[2286765,-2270813],[2353531,-2261997],[2434902,-2193138],[2438652,-2186414],[2404320,-2120201],[2481842,-2144391],[2506306,-2134257],[2592742,-2077968],[2625210,-2079636],[2716124,-2026053],[2721490,-1977500],[2837387,-1837054],[2829952,-1795323],[2876912,-1784914],[2909317,-1676455],[2953189,-1666399],[2936813,-1597701],[2951598,-1553540],[2920097,-1531135],[2960601,-1510545],[2965361,-1458609],[3002872,-1303099],[3046315,-1277259],[3025626,-1252535],[3049037,-1184369],[3038557,-1100397],[2941340,-1087014],[2899957,-1123002],[2955546,-1016920],[2983843,-996572],[2950577,-961431],[2844567,-923250],[2955032,-913504],[2890787,-858685],[2833050,-846543],[2822134,-808189],[2718615,-691078],[2618708,-677973],[2619009,-611844],[2651704,-532466],[2692620,-479660],[2702183,-424026],[2765458,-354555],[2803561,-354215],[2807377,-282922],[2722396,-311349],[2636205,-300779],[2556305,-417023],[2508065,-410270],[2481770,-334831],[2401426,-347233],[2348969,-313215],[2349728,-252318],[2439133,-216015],[2465914,-117414],[2523011,-55464],[2550448,37053],[2605298,52552],[2649487,34441],[2618370,-119842],[2660922,-102107],[2661083,-135930],[2623153,-174289],[2668343,-162620],[2702149,-87290],[2743749,-31670],[2819331,22600],[2831882,48558],[2851875,114581],[2914094,200041],[2940234,323890],[2972244,308335],[3046766,328657],[3051233,353283],[3012651,387511],[3072857,426112],[3081442,479417],[3106818,501425],[3092107,561467],[3160021,539319],[3142833,554662],[3177963,597967],[3162560,659138],[3069922,800334],[3097289,872186],[3184622,886051],[3172517,1043851],[3128278,1159532],[3138538,1223415],[3089880,1274683],[3070590,1268935],[3000354,1165098],[3001958,1141888],[2909561,1075017],[2815303,1174733],[2791626,1164864],[2720884,1189633],[2660447,1183221],[2618702,1156101],[2571611,1170184],[2559052,1206888],[2470887,1275030],[2365149,1386814],[2292195,1431520],[2242760,1417748],[2146830,1423748],[2074923,1382617],[1991742,1307259],[1977217,1235016],[2022326,1236859],[2043436,1197000],[2022878,1127571],[2016519,979331],[2037114,946221],[1968050,852676],[1876304,856387],[1869201,629973],[1902404,610558],[1955886,650987],[2005238,642650],[2021189,688819],[2071616,707296],[2189262,652085],[2211353,594730],[2108637,568440],[2053089,505310],[2000582,478036],[1995269,417358],[1966458,367449],[1884057,329475],[1835086,241457],[1698427,238740],[1681358,152980],[1741142,93236],[1680131,33631],[1648277,-40396],[1580979,-93901],[1479970,-118687],[1371442,-160453],[1255730,-246003],[1200256,-265162],[1196117,-241185],[1134211,-266164],[1077619,-246746],[984487,-237441],[959504,-212957],[815945,-208342],[775390,-225408],[588693,-219698],[522452,-232946],[480014,-181947],[426736,-66217],[375437,-61285],[288673,-4514],[124747,9719],[68930,22165],[51704,58584],[77552,115597],[66229,217586],[23532,297489],[-32776,333965],[-71092,334139],[-149204,397017],[-159507,464796],[-195649,457389],[-237619,450387],[-254898,397682],[-314805,384588],[-334328,333379],[-328643,259460],[-397513,216328],[-515245,264826],[-531011,249089],[-598411,86128],[-590694,41111],[-649647,72129],[-781262,48601],[-753696,16077],[-770059,-54712],[-747462,-162164],[-804009,-211118],[-806558,-264094],[-808027,-281576],[-887218,-299634],[-970010,-334491],[-994323,-364272],[-1103606,-358022],[-1141373,-411954],[-1210984,-416320],[-1213259,-382050],[-1356767,-418962],[-1399136,-478051],[-1401974,-573109],[-1323342,-599168],[-1334688,-741653],[-1369124,-758965],[-1300668,-783697],[-1261922,-820165],[-1265780,-882717],[-1248518,-914809],[-1195949,-942134],[-1105884,-974411],[-1074167,-1073157],[-1016997,-1128415],[-1038760,-1141235],[-1041913,-1206436],[-1016631,-1240216],[-1015640,-1321128],[-1045542,-1333205],[-1092991,-1308868],[-1067817,-1374866],[-1070847,-1448415],[-1039582,-1440324],[-1001355,-1495480],[-943381,-1523371],[-945736,-1544264],[-871096,-1597138],[-830206,-1582139],[-769948,-1589102],[-760604,-1613339],[-667928,-1676662],[-629209,-1726912],[-578295,-1726503],[-567730,-1761144],[-521813,-1798840],[-477974,-1801743],[-483006,-1831830],[-428194,-1838940],[-402374,-1878518],[-342139,-1863857],[-284624,-1893008],[-188165,-1892074],[-136952,-1868765],[-114604,-1893560],[-111001,-1954162],[-45988,-1868011],[-1877,-1845785],[35039,-1871044],[159696,-1883747],[162645,-1904716],[264984,-1881494],[316718,-1809311],[384505,-1783224],[452944,-1723893],[532428,-1747720],[590203,-1700660],[648231,-1771753],[621137,-1812458],[652493,-1804880],[725299,-1825724],[744256,-1791913],[802598,-1827245],[820748,-1878350],[862254,-1884345],[879131,-1991614],[875044,-2075244],[798039,-2145518],[774349,-2230881],[793361,-2268771],[911217,-2262254],[897565,-2290856],[921908,-2359696],[972157,-2365023],[965183,-2471836],[1041812,-2474398],[1078160,-2532106],[1111444,-2528807],[1165962,-2489677],[1174065,-2509301],[1186542,-2545371],[1237768,-2546903],[1233851,-2473308],[1207159,-2429927],[1220182,-2405345],[1268446,-2408047],[1304660,-2363279],[1358627,-2387247],[1385318,-2349018],[1451659,-2363804],[1537372,-2308785],[1580355,-2253447],[1644685,-2288932],[1742920,-2286769],[1723875,-2332917],[1743401,-2375439],[1820191,-2401754],[1886017,-2399850]]],[[[2214345,-2496723],[2189869,-2486260],[2052176,-2543174],[1996585,-2617823],[2010370,-2703830],[2101960,-2719427],[2191102,-2640757],[2196264,-2592397],[2233529,-2529762],[2214345,-2496723]]]]},"properties":{"code":"CHN","name":"China"}},
{"type":"Feature","geometry":{"type":"Polygon","coordinates":[[[2434902,-2193138],[2441289,-2188344],[2438652,-2186414],[2434902,-2193138]]]},"properties":{"code":"MAC","name":"Macao"}},
{"type":"Feature","geometry":{"type":"Polygon","coordinates":[[[2481842,-2144391],[2512071,-2160533],[2506306,-2134257],[2481842,-2144391]]]},"properties":{"code":"HKG","name":"Hong Kong"}},
{"type":"Feature","geometry":{"type":"Polygon","coordinates":[[[1939765,-3138716],[1868382,-3194562],[1830123,-3172772],[1775737,-3207906],[1772614,-3253893],[1688241,-3222269],[1642821,-3220756],[1469678,-3257119],[1404622,-3346673],[1379788,-3354892],[1407789,-3444768],[1438668,-3466809],[1465252,-3540427],[1489061,-3563530],[1497127,-3621003],[1537816,-3590324],[1561596,-3614399],[1542830,-3647666],[1645766,-3653231],[1692461,-3632816],[1708217,-3592505],[1789539,-3568176],[1837624,-3581042],[1797537,-3534072],[1809141,-3482111],[1853877,-3482056],[1852473,-3454062],[1957688,-3401279],[1972142,-3368256],[1957013,-3317851],[1966069,-3271839],[1926914,-3204230],[1939765,-3138716]]]},"properties":{"code":"KHM","name":"Cambodia"}},
{"type":"Feature","geometry":{"type":"Polygon","coordinates":[[[1078920,-2657148],[1082961,-2626982],[1136512,-2541750],[1174065,-2509301],[1165962,-2489677],[1111444,-2528807],[1078160,-2532106],[1041812,-2474398],[965183,-2471836],[972157,-2365023],[921908,-2359696],[897565,-2290856],[911217,-2262254],[793361,-2268771],[774349,-2230881],[798039,-2145518],[875044,-2075244],[879131,-1991614],[862254,-1884345],[820748,-1878350],[802598,-1827245],[744256,-1791913],[725299,-1825724],[728705,-1856297],[687670,-1891972],[705364,-1950144],[666507,-1927099],[606969,-1944830],[516964,-2018558],[520224,-2079301],[465328,-2169613],[481871,-2190043],[427272,-2320753],[341947,-2308437],[350873,-2405011],[322141,-2451127],[331910,-2489721],[312172,-2529125],[271217,-2533169],[278810,-2605875],[230956,-2608562],[247319,-2662495],[290942,-2715032],[327454,-2704992],[321339,-2737974],[359941,-2738421],[430123,-2802396],[376037,-2812324],[442228,-2865804],[481326,-2933894],[500924,-3001109],[466437,-3169741],[519722,-3126127],[515141,-3179450],[539625,-3148299],[546504,-3187081],[588708,-3161672],[596270,-3194579],[635510,-3144293],[727966,-3095655],[761808,-3011970],[810830,-3093819],[839498,-3098534],[868947,-3268047],[924028,-3384019],[964589,-3441586],[992991,-3606657],[989181,-3671398],[967041,-3706457],[981857,-3773184],[996948,-3755335],[1000411,-3705037],[1046890,-3653401],[1090532,-3577033],[1061698,-3498020],[1024539,-3442219],[1023681,-3376612],[917321,-3268641],[908750,-3227560],[948795,-3202513],[947393,-3132961],[971260,-3116697],[924215,-3035310],[849148,-2965690],[810557,-2880969],[838774,-2864925],[839895,-2773870],[859103,-2740776],[955214,-2729304],[1008121,-2659738],[1078920,-2657148]]]},"properties":{"code":"MMR","name":"Myanmar"}},
{"type":"Feature","geometry":{"type":"MultiPolygon","coordinates":[[[[2927404,-3979808],[2914558,-3983190],[2930731,-4033976],[2955836,-4028405],[2927404,-3979808]]],[[[2914558,-3983190],[2909285,-3971306],[2835906,-4035048],[2809270,-4043327],[2878876,-4086917],[2900348,-4041597],[2885276,-4010443],[2914558,-3983190]]]]},"properties":{"code":"BRN","name":"Brunei"}},
{"type":"Feature","geometry":{"type":"Polygon","coordinates":[[[162645,-1904716],[159696,-1883747],[35039,-1871044],[-1877,-1845785],[-45988,-1868011],[-111001,-1954162],[-114800,-1992946],[-23793,-2022104],[34786,-2001408],[74474,-2014151],[208446,-1996347],[199046,-1937919],[162645,-1904716]]]},"properties":{"code":"BTN","name":"Bhutan"}},
{"type":"Feature","geometry":{"type":"MultiPolygon","coordinates":[[[[-99823,-2524008],[-68237,-2564672],[-4823,-2532164],[24321,-2553090],[61944,-2506380],[45519,-2452853],[62051,-2411213],[99072,-2469279],[154664,-2437243],[212061,-2566509],[218089,-2621691],[247319,-2662495],[230956,-2608562],[278810,-2605875],[271217,-2533169],[232990,-2348680],[201358,-2368901],[169090,-2426676],[137168,-2413630],[120412,-2353316],[141282,-2305866],[193781,-2293818],[230881,-2216627],[209660,-2187179],[44950,-2190764],[-18996,-2174734],[-17976,-2105253],[-38573,-2075204],[-72092,-2094467],[-99169,-2053457],[-149570,-2040993],[-194557,-2108984],[-125519,-2153671],[-113507,-2186165],[-157885,-2186154],[-203232,-2246445],[-130710,-2291045],[-148631,-2351409],[-130925,-2377565],[-99823,-2524008]]],[[[81842,-2524598],[91050,-2481548],[52581,-2443744],[81842,-2524598]]]]},"properties":{"code":"BGD","name":"Bangladesh"}},
{"type":"Feature","geometry":{"type":"Polygon","coordinates":[[[-3839809,-1226326],[-3827470,-1187972],[-3849117,-1211363],[-3839809,-1226326]]]},"properties":{"code":"BHR","name":"Bahrain"}},
{"type":"Feature","geometry":{"type":"MultiPolygon","coordinates":[[[[-3642091,448342],[-3631256,353888],[-3592937,312414],[-3581386,397422],[-3642515,455859],[-3642091,448342]]],[[[-3415229,147802],[-3369091,212854],[-3358514,198834],[-3275848,298567],[-3212336,274380],[-3256336,396348],[-3259349,505806],[-3342963,471598],[-3379325,507190],[-3387302,578800],[-3404802,600292],[-3434852,587639],[-3421723,529497],[-3448575,517089],[-3508093,606413],[-3536187,603088],[-3521241,532910],[-3547594,521493],[-3529255,455017],[-3570427,446519],[-3547687,380468],[-3564351,298555],[-3432561,317517],[-3405921,268876],[-3457815,222801],[-3436912,157022],[-3415229,147802]]]]},"properties":{"code":"AZE","name":"Azerbaijan"}},
{"type":"Feature","geometry":{"type":"Polygon","coordinates":[[[-3642515,455859],[-3581386,397422],[-3592937,312414],[-3564351,298555],[-3547687,380468],[-3570427,446519],[-3529255,455017],[-3547594,521493],[-3521241,532910],[-3536187,603088],[-3652452,655770],[-3656110,604523],[-3689181,550502],[-3656619,511266],[-3642515,455859]]]},"properties":{"code":"ARM","name":"Armenia"}},
{"type":"Feature","geometry":{"type":"Polygon","coordinates":[[[-2050905,-558994],[-2108219,-516227],[-2135352,-545142],[-2201124,-538696],[-2251200,-615673],[-2316487,-633200],[-2386706,-632730],[-2403075,-671222],[-2475898,-678824],[-2494480,-639987],[-2549654,-599362],[-2625602,-726573],[-2667880,-737780],[-2681274,-787183],[-2650651,-814334],[-2693913,-842212],[-2699948,-945616],[-2725344,-1025876],[-2654119,-1064524],[-2660197,-1127299],[-2775675,-1201388],[-2640313,-1301214],[-2537233,-1324490],[-2491106,-1351419],[-2447225,-1344994],[-2394096,-1361703],[-2286353,-1361367],[-2238135,-1250997],[-2179609,-1222118],[-2103984,-1238346],[-2114598,-1216822],[-2053891,-1198947],[-1992995,-1233990],[-1948214,-1210633],[-1940071,-1155875],[-1902664,-1098084],[-1823768,-1077322],[-1849096,-1010854],[-1739349,-1019373],[-1736396,-965271],[-1663705,-907344],[-1666440,-832587],[-1683054,-805046],[-1636151,-770659],[-1540269,-746735],[-1439131,-760670],[-1369124,-758965],[-1334688,-741653],[-1386145,-711249],[-1434029,-722762],[-1477137,-694059],[-1620793,-745856],[-1636936,-691627],[-1608400,-606076],[-1653416,-535835],[-1722580,-580280],[-1725784,-609365],[-1793313,-605409],[-1823962,-648795],[-1844473,-618574],[-1930576,-639072],[-1950940,-607789],[-2050905,-558994]]]},"properties":{"code":"AFG","name":"Afghanistan"}}
]}