{"type": "FeatureCollection", "features": [{"type": "Feature", "geometry": {"type": "Point", "coordinates": [-3779973, -1329892]}, "properties": {"code": "QAT", "name": "Qatar", "capital": "Doha"}}, {"type": "Feature", "geometry": {"type": "Point", "coordinates": [-3827910, -1188322]}, "properties": {"code": "BHR", "name": "Bahrain", "capital": "Manama"}}, {"type": "Feature", "geometry": {"type": "Point", "coordinates": [-3550358, -1536356]}, "properties": {"code": "ARE", "name": "United Arab Emirates", "capital": "Abu Dhabi"}}, {"type": "Feature", "geometry": {"type": "Point", "coordinates": [-2701527, -260367]}, "properties": {"code": "TKM", "name": "Turkmenistan", "capital": "Ashgabat"}}, {"type": "Feature", "geometry": {"type": "Point", "coordinates": [4285027, -5002369]}, "properties": {"code": "TLS", "name": "East Timor", "capital": "Dili"}}, {"type": "Feature", "geometry": {"type": "Point", "coordinates": [-1828024, -480404]}, "properties": {"code": "TJK", "name": "Tajikistan", "capital": "Dushanbe"}}, {"type": "Feature", "geometry": {"type": "Point", "coordinates": [-1563393, -1098141]}, "properties": {"code": "PAK", "name": "Pakistan", "capital": "Islamabad"}}, {"type": "Feature", "geometry": {"type": "Point", "coordinates": [-466919, -1898318]}, "properties": {"code": "NPL", "name": "Nepal", "capital": "Kathmandu"}}, {"type": "Feature", "geometry": {"type": "Point", "coordinates": [-3200367, -1784966]}, "properties": {"code": "OMN", "name": "Oman", "capital": "Muscat"}}, {"type": "Feature", "geometry": {"type": "Point", "coordinates": [-1182130, -4081827]}, "properties": {"code": "LKA", "name": "Sri Lanka", "capital": "Colombo"}}, {"type": "Feature", "geometry": {"type": "Point", "coordinates": [1252911, 457363]}, "properties": {"code": "MNG", "name": "Mongolia", "capital": "Ulaanbaatar"}}, {"type": "Feature", "geometry": {"type": "Point", "coordinates": [-4721056, 151571]}, "properties": {"code": "JOR", "name": "Jordan", "capital": "Amman"}}, {"type": "Feature", "geometry": {"type": "Point", "coordinates": [-1250529, -117927]}, "properties": {"code": "KGZ", "name": "Kyrgyzstan", "capital": "Bishkek"}}, {"type": "Feature", "geometry": {"type": "Point", "coordinates": [-4633136, 362989]}, "properties": {"code": "LBN", "name": "Lebanon", "capital": "Beirut"}}, {"type": "Feature", "geometry": {"type": "Point", "coordinates": [-3525468, 655744]}, "properties": {"code": "GEO", "name": "Georgia", "capital": "Tbilisi"}}, {"type": "Feature", "geometry": {"type": "Point", "coordinates": [-1285535, 839078]}, "properties": {"code": "KAZ", "name": "Kazakhstan", "capital": "Nur-Sultan"}}, {"type": "Feature", "geometry": {"type": "Point", "coordinates": [1366749, -2877258]}, "properties": {"code": "LAO", "name": "Laos", "capital": "Vientiane"}}, {"type": "Feature", "geometry": {"type": "Point", "coordinates": [2904182, -3987675]}, "properties": {"code": "BRN", "name": "Brunei", "capital": "Bandar Seri Begawan"}}, {"type": "Feature", "geometry": {"type": "Point", "coordinates": [-3633113, 515249]}, "properties": {"code": "ARM", "name": "Armenia", "capital": "Yerevan"}}, {"type": "Feature", "geometry": {"type": "Point", "coordinates": [-3243128, 306703]}, "properties": {"code": "AZE", "name": "Azerbaijan", "capital": "Baku"}}, {"type": "Feature", "geometry": {"type": "Point", "coordinates": [1689213, -3524014]}, "properties": {"code": "KHM", "name": "Cambodia", "capital": "Phnom Penh"}}, {"type": "Feature", "geometry": {"type": "Point", "coordinates": [-36087, -1937596]}, "properties": {"code": "BTN", "name": "Bhutan", "capital": "Thimphu"}}, {"type": "Feature", "geometry": {"type": "Point", "coordinates": [655947, -2754447]}, "properties": {"code": "MMR", "name": "Myanmar", "capital": "Naypyidaw"}}, {"type": "Feature", "geometry": {"type": "Point", "coordinates": [-4783085, 177300]}, "properties": {"code": "ISR", "name": "Israel", "capital": "Jerusalem"}}, {"type": "Feature", "geometry": {"type": "Point", "coordinates": [-4694208, 612209]}, "properties": {"code": "CYP", "name": "Cyprus", "capital": "Nicosia"}}, {"type": "Feature", "geometry": {"type": "Point", "coordinates": [1672854, -2492704]}, "properties": {"code": "VNM", "name": "Vietnam", "capital": "Hanoi"}}, {"type": "Feature", "geometry": {"type": "Point", "coordinates": [-4401301, 1087009]}, "properties": {"code": "TUR", "name": "Turkey", "capital": "Ankara"}}, {"type": "Feature", "geometry": {"type": "Point", "coordinates": [-4834354, -2008405]}, "properties": {"code": "YEM", "name": "Yemen", "capital": "Sanaa"}}, {"type": "Feature", "geometry": {"type": "Point", "coordinates": [-4601200, 281429]}, "properties": {"code": "SYR", "name": "Syria", "capital": "Damascus"}}, {"type": "Feature", "geometry": {"type": "Point", "coordinates": [2981480, -4114]}, "properties": {"code": "PRK", "name": "North Korea", "capital": "Pyongyang"}}, {"type": "Feature", "geometry": {"type": "Point", "coordinates": [1385940, -4456609]}, "properties": {"code": "MYS", "name": "Malaysia", "capital": "Kuala Lumpur"}}, {"type": "Feature", "geometry": {"type": "Point", "coordinates": [-3919700, -742947]}, "properties": {"code": "KWT", "name": "Kuwait", "capital": "Kuwait City"}}, {"type": "Feature", "geometry": {"type": "Point", "coordinates": [42170, -2346990]}, "properties": {"code": "BGD", "name": "Bangladesh", "capital": "Dhaka"}}, {"type": "Feature", "geometry": {"type": "Point", "coordinates": [-1714194, -193200]}, "properties": {"code": "UZB", "name": "Uzbekistan", "capital": "Tashkent"}}, {"type": "Feature", "geometry": {"type": "Point", "coordinates": [1177061, -3356786]}, "properties": {"code": "THA", "name": "Thailand", "capital": "Bangkok"}}, {"type": "Feature", "geometry": {"type": "Point", "coordinates": [3142767, -108338]}, "properties": {"code": "KOR", "name": "South Korea", "capital": "Seoul"}}, {"type": "Feature", "geometry": {"type": "Point", "coordinates": [3380687, -2762046]}, "properties": {"code": "PHL", "name": "Philippines", "capital": "Manila"}}, {"type": "Feature", "geometry": {"type": "Point", "coordinates": [-1258998, -1721783]}, "properties": {"code": "IND", "name": "India", "capital": "New Delhi"}}, {"type": "Feature", "geometry": {"type": "Point", "coordinates": [-4015227, -165015]}, "properties": {"code": "IRQ", "name": "Iraq", "capital": "Baghdad"}}, {"type": "Feature", "geometry": {"type": "Point", "coordinates": [-3352642, -242050]}, "properties": {"code": "IRN", "name": "Iran", "capital": "Tehran"}}, {"type": "Feature", "geometry": {"type": "Point", "coordinates": [-1895570, -928198]}, "properties": {"code": "AFG", "name": "Afghanistan", "capital": "Kabul"}}, {"type": "Feature", "geometry": {"type": "Point", "coordinates": [3150613, -1632641]}, "properties": {"code": "TWN", "name": "Taiwan", "capital": "Taipei"}}, {"type": "Feature", "geometry": {"type": "Point", "coordinates": [-4235063, -1173070]}, "properties": {"code": "SAU", "name": "Saudi Arabia", "capital": "Riyadh"}}, {"type": "Feature", "geometry": {"type": "Point", "coordinates": [2211765, -208891]}, "properties": {"code": "CHN", "name": "China", "capital": "Beijing"}}, {"type": "Feature", "geometry": {"type": "Point", "coordinates": [2052039, -5321788]}, "properties": {"code": "IDN", "name": "Indonesia", "capital": "Jakarta"}}, {"type": "Feature", "geometry": {"type": "Point", "coordinates": [4191753, 279048]}, "properties": {"code": "JPN", "name": "Japan", "capital": "Tokyo"}}, {"type": "Feature", "geometry": {"type": "Point", "coordinates": [1653330, -4614471]}, "properties": {"code": "SGP", "name": "Singapore", "capital": "Singapore"}}]}