{"type":"FeatureCollection", "features": [
{"type":"Feature","geometry":{"type":"MultiPolygon","coordinates":[[[[-431482,2863221],[-493539,2846451],[-439277,2836883],[-431482,2863221]]],[[[-1971,2586402],[-90050,2590941],[-146623,2571093],[-118341,2645314],[-89034,2674119],[-178403,2731535],[-205641,2713963],[-237968,2741004],[-260565,2719064],[-326874,2799448],[-267014,2801519],[-210817,2822776],[-303096,2823180],[-433306,2801392],[-544356,2750432],[-656513,2766118],[-700513,2805895],[-912591,2786856],[-940710,2858514],[-988323,2886728],[-1078010,2889844],[-1118365,2964253],[-1150409,2931922],[-1106400,2885296],[-1284023,2828487],[-1275909,2752785],[-1239387,2693309],[-1267531,2629428],[-1311061,2622293],[-1357681,2701582],[-1298815,2802257],[-1337238,2892515],[-1265647,2926206],[-1337174,2902963],[-1440991,2772240],[-1457475,2695373],[-1497350,2632762],[-1435001,2622139],[-1420967,2570197],[-1393424,2544390],[-1397214,2443144],[-1335954,2394564],[-1197311,2409141],[-1134620,2395218],[-1061375,2309714],[-952797,2314928],[-883983,2331109],[-836887,2303356],[-880279,2220021],[-883663,2136555],[-861802,2066831],[-822315,2018709],[-880919,1960055],[-810644,1906685],[-772388,1779625],[-707634,1729359],[-638191,1756137],[-614668,1724528],[-573412,1770961],[-462559,1828646],[-453734,1859984],[-381711,1895655],[-381229,1916378],[-455419,1927874],[-475015,2043728],[-542225,2113198],[-478975,2104045],[-452607,2081326],[-370838,2081506],[-334113,2046022],[-305282,2092553],[-174971,2122846],[-112901,2150068],[-68058,2200228],[-83554,2222792],[-154994,2299290],[-127057,2332816],[-128939,2385002],[-80801,2393146],[-36628,2432922],[-80921,2472436],[-57777,2506589],[18932,2560037],[-1971,2586402]]]]},"properties":{"code":"VEN","name":"Venezuela"}},
{"type":"Feature","geometry":{"type":"Polygon","coordinates":[[[622199,-2078763],[610637,-2015632],[651664,-1969553],[608579,-1931237],[595363,-1892719],[519437,-1827358],[456585,-1797013],[428864,-1757869],[384986,-1779150],[369994,-1729284],[307933,-1670774],[270404,-1689512],[232322,-1678451],[173170,-1868392],[171106,-1928397],[181658,-1974752],[154581,-2006091],[150009,-2085962],[202367,-2148336],[263793,-2146513],[360174,-2198255],[401972,-2184817],[472732,-2203996],[542187,-2177572],[579523,-2147108],[622199,-2078763]]]},"properties":{"code":"URY","name":"Uruguay"}},
{"type":"Feature","geometry":{"type":"Polygon","coordinates":[[[657666,2234233],[669071,2282954],[581402,2304039],[469544,2302673],[457028,2284733],[341084,2307428],[315791,2259278],[300467,2201869],[257685,2199018],[219009,2109972],[275771,2020188],[303448,2022615],[313940,1968524],[370614,1875421],[395493,1864823],[447491,1853255],[435322,1903452],[564766,1934225],[605401,1903902],[652854,1956797],[676112,2040751],[635699,2092238],[624362,2197131],[657666,2234233]]]},"properties":{"code":"SUR","name":"Suriname"}},
{"type":"Feature","geometry":{"type":"Polygon","coordinates":[[[-1109655,1168408],[-1152131,1213417],[-1196155,1215333],[-1124893,1332005],[-1219564,1387143],[-1273038,1372246],[-1313003,1390631],[-1383916,1357027],[-1468629,1369812],[-1474418,1419112],[-1508017,1432702],[-1527706,1480910],[-1593059,1508498],[-1656448,1590565],[-1710326,1598132],[-1748860,1590429],[-1707019,1548612],[-1738797,1438735],[-1794679,1368778],[-1858569,1317266],[-1987620,1262481],[-2039471,1212666],[-2071967,1080324],[-2112760,1029506],[-2140986,1034453],[-2176997,1084701],[-2232691,1098273],[-2258603,1077507],[-2274385,1120443],[-2239015,1144633],[-2257180,1198086],[-2307619,1155781],[-2357798,1085499],[-2361831,1046196],[-2306240,928424],[-2332764,892793],[-2216787,835680],[-2176330,792119],[-2129693,709523],[-2057865,627474],[-1985493,467982],[-1931689,388265],[-1917361,338789],[-1870175,300244],[-1860006,256524],[-1823432,226929],[-1745260,102003],[-1763181,61751],[-1709971,-20641],[-1665294,-47172],[-1615676,-101043],[-1474347,-174402],[-1326631,-227317],[-1223811,-286848],[-1200706,-328819],[-1099791,-397384],[-1048834,-379400],[-1043841,-323340],[-1008858,-299767],[-1022547,-266393],[-961281,-201738],[-951696,-159105],[-984632,-147950],[-1008715,-88351],[-984148,-46565],[-1007078,-17130],[-957421,69774],[-980482,126153],[-973485,215556],[-943206,258687],[-1046202,426720],[-1161769,415291],[-1167427,585196],[-1231125,528137],[-1333902,518943],[-1357701,572626],[-1448805,578804],[-1425057,626629],[-1490928,695110],[-1544116,780059],[-1514290,809163],[-1520131,853726],[-1464556,894657],[-1465800,946322],[-1439281,999140],[-1430776,1056393],[-1317348,1130240],[-1221212,1151384],[-1202343,1171750],[-1109655,1168408]]]},"properties":{"code":"PER","name":"Peru"}},
{"type":"Feature","geometry":{"type":"Polygon","coordinates":[[[192569,-572259],[190825,-533886],[95665,-474451],[-776,-475495],[-184407,-514742],[-237625,-616716],[-236927,-672394],[-273828,-801950],[-198073,-892312],[-85812,-979750],[10968,-1005563],[63800,-1045443],[220524,-1121915],[243777,-1151841],[180222,-1258826],[181047,-1286234],[135356,-1348235],[353967,-1390555],[381799,-1365504],[426183,-1376771],[456279,-1332764],[517658,-1294977],[543064,-1176862],[587246,-1009169],[549058,-982111],[472844,-999882],[456611,-954177],[451268,-853499],[428472,-812767],[372690,-787911],[316270,-806715],[211322,-787451],[225901,-664746],[192569,-572259]]]},"properties":{"code":"PRY","name":"Paraguay"}},
{"type":"Feature","geometry":{"type":"Polygon","coordinates":[[[-83554,2222792],[-15992,2226885],[1050,2209905],[-16734,2150018],[33406,2133421],[50531,2084591],[16389,2046862],[637,1948844],[27535,1903374],[27418,1862527],[86424,1805021],[127852,1786015],[167272,1794720],[186559,1827776],[270473,1839975],[324002,1873424],[395493,1864823],[370614,1875421],[313940,1968524],[303448,2022615],[275771,2020188],[219009,2109972],[257685,2199018],[300467,2201869],[315791,2259278],[316272,2319003],[227048,2394480],[178380,2401824],[156064,2364041],[171331,2453387],[89948,2534872],[-1971,2586402],[18932,2560037],[-57777,2506589],[-80921,2472436],[-36628,2432922],[-80801,2393146],[-128939,2385002],[-127057,2332816],[-154994,2299290],[-83554,2222792]]]},"properties":{"code":"GUY","name":"Guyana"}},
{"type":"Feature","geometry":{"type":"MultiPolygon","coordinates":[[[[-1710326,1598132],[-1825543,1653369],[-1845516,1628650],[-1948943,1643666],[-1954359,1666824],[-2048833,1706555],[-2110289,1748159],[-2114265,1720245],[-2244952,1664773],[-2248009,1576471],[-2285521,1533435],[-2291978,1479434],[-2329633,1450876],[-2311545,1340686],[-2332269,1326519],[-2255665,1274403],[-2226458,1316005],[-2195130,1293105],[-2214169,1234604],[-2257180,1198086],[-2239015,1144633],[-2274385,1120443],[-2258603,1077507],[-2232691,1098273],[-2176997,1084701],[-2140986,1034453],[-2112760,1029506],[-2071967,1080324],[-2039471,1212666],[-1987620,1262481],[-1858569,1317266],[-1794679,1368778],[-1738797,1438735],[-1707019,1548612],[-1748860,1590429],[-1710326,1598132]]],[[[-3465082,1470225],[-3474183,1433554],[-3446172,1405669],[-3481375,1374217],[-3470945,1350556],[-3410608,1387633],[-3465082,1470225]]]]},"properties":{"code":"ECU","name":"Ecuador"}},
{"type":"Feature","geometry":{"type":"Polygon","coordinates":[[[-1265647,2926206],[-1258260,2977585],[-1308449,2985316],[-1355844,2958905],[-1372003,2926029],[-1488888,2857943],[-1571778,2859923],[-1611057,2795979],[-1659650,2831594],[-1727632,2774664],[-1755447,2677491],[-1751426,2647178],[-1806949,2624609],[-1823137,2593675],[-1895368,2544925],[-1876338,2483210],[-1945676,2551798],[-1957512,2533710],[-1926836,2477540],[-1970767,2428258],[-1986744,2445884],[-2006057,2392000],[-1946437,2315378],[-1958803,2278696],[-1934457,2236312],[-1951501,2195343],[-1938638,2119495],[-1954105,2045711],[-1915035,2031579],[-1980215,1913693],[-2029772,1867584],[-2084709,1844195],[-2079473,1785411],[-2128955,1765667],[-2110289,1748159],[-2048833,1706555],[-1954359,1666824],[-1948943,1643666],[-1845516,1628650],[-1825543,1653369],[-1710326,1598132],[-1656448,1590565],[-1593059,1508498],[-1527706,1480910],[-1508017,1432702],[-1474418,1419112],[-1468629,1369812],[-1383916,1357027],[-1313003,1390631],[-1273038,1372246],[-1219564,1387143],[-1124893,1332005],[-1196155,1215333],[-1152131,1213417],[-1109655,1168408],[-1052447,1506056],[-1083323,1583517],[-1128838,1619808],[-1127870,1698808],[-1062925,1717577],[-1029459,1708224],[-1050858,1754677],[-1105807,1752429],[-1106007,1823764],[-918611,1830506],[-842914,1874993],[-796665,1822117],[-796793,1777632],[-772388,1779625],[-810644,1906685],[-880919,1960055],[-822315,2018709],[-861802,2066831],[-883663,2136555],[-880279,2220021],[-836887,2303356],[-883983,2331109],[-952797,2314928],[-1061375,2309714],[-1134620,2395218],[-1197311,2409141],[-1335954,2394564],[-1397214,2443144],[-1393424,2544390],[-1420967,2570197],[-1435001,2622139],[-1497350,2632762],[-1457475,2695373],[-1440991,2772240],[-1337174,2902963],[-1265647,2926206]]]},"properties":{"code":"COL","name":"Colombia"}},
{"type":"Feature","geometry":{"type":"MultiPolygon","coordinates":[[[[-1099791,-397384],[-1062497,-557799],[-1061704,-660046],[-1045321,-744520],[-1061088,-895913],[-1083249,-920244],[-1070191,-1000025],[-1072364,-1095910],[-1055267,-1153597],[-1077329,-1222682],[-1066143,-1282520],[-1101639,-1511704],[-1129005,-1574216],[-1102221,-1652605],[-1105584,-1707417],[-1129648,-1729731],[-1120289,-1821952],[-1084671,-1954094],[-1107323,-2033827],[-1093798,-2094409],[-1119463,-2152762],[-1128842,-2256061],[-1159425,-2312310],[-1192141,-2489033],[-1226368,-2494265],[-1224471,-2550256],[-1164157,-2712815],[-1189964,-2809150],[-1199334,-2923530],[-1169898,-2989178],[-1081027,-2972383],[-1049598,-3054274],[-1081325,-3042461],[-1078694,-3187196],[-1092244,-3246849],[-1039000,-3271281],[-1040495,-3303746],[-1087020,-3334394],[-1067989,-3373447],[-1108223,-3390871],[-1092287,-3421600],[-1124821,-3463244],[-1116329,-3388043],[-1137322,-3424869],[-1207555,-3443689],[-1190948,-3472934],[-1239823,-3527171],[-1199998,-3521760],[-1112025,-3575912],[-1140820,-3635134],[-1055068,-3658101],[-1129787,-3666123],[-1099266,-3748878],[-1072991,-3873512],[-1114826,-3954102],[-1086623,-3992071],[-1014757,-4013311],[-1029618,-4052287],[-945246,-4091811],[-1027982,-4098978],[-997665,-4151584],[-926645,-4190757],[-902990,-4130396],[-821383,-4131186],[-901248,-4153677],[-918602,-4208031],[-876920,-4205214],[-810062,-4147120],[-827141,-4198373],[-866303,-4204145],[-850486,-4242933],[-785574,-4263832],[-766374,-4251190],[-768099,-4144134],[-685403,-4101043],[-665409,-4076725],[-606396,-4088907],[-719702,-4059617],[-860576,-4068998],[-903378,-4024937],[-913121,-3933939],[-971734,-3945437],[-1008506,-3883205],[-1020251,-3797072],[-995963,-3793331],[-952514,-3688760],[-972996,-3637829],[-936053,-3561900],[-928959,-3494059],[-949462,-3450589],[-947714,-3387541],[-921143,-3347735],[-976222,-3304564],[-920137,-3297059],[-920592,-3262224],[-970989,-3259851],[-965962,-3210238],[-991415,-3159085],[-985018,-3128864],[-1017868,-3112256],[-1025871,-3037576],[-997977,-3013928],[-1016845,-2966229],[-1031598,-2862737],[-1011799,-2742182],[-1009547,-2674531],[-970802,-2644738],[-1001446,-2539948],[-1005648,-2404348],[-951607,-2350073],[-965298,-2270149],[-936992,-2155672],[-919185,-2146206],[-924953,-2043054],[-943854,-2042802],[-965502,-1955960],[-1013510,-1859310],[-1011224,-1812685],[-983286,-1732815],[-964228,-1722668],[-979945,-1609263],[-951275,-1507013],[-907566,-1450682],[-880689,-1364081],[-831837,-1347898],[-858649,-1292751],[-844393,-1251752],[-867371,-1178837],[-848108,-1134374],[-867661,-1107090],[-838843,-1056456],[-750021,-1013194],[-719772,-897764],[-739743,-878586],[-809981,-881417],[-850934,-714259],[-912429,-623446],[-911550,-541547],[-888429,-508586],[-943865,-459308],[-961935,-358191],[-1008858,-299767],[-1043841,-323340],[-1048834,-379400],[-1099791,-397384]]],[[[-616133,-4120872],[-680028,-4108071],[-737886,-4188165],[-656445,-4211119],[-707940,-4244622],[-691753,-4280188],[-622763,-4306652],[-700208,-4309379],[-755851,-4261433],[-736949,-4309059],[-817032,-4331372],[-716054,-4356052],[-664946,-4341846],[-590269,-4351547],[-616133,-4120872]]],[[[-480132,-4376517],[-493199,-4358734],[-564804,-4363274],[-546250,-4387388],[-480132,-4376517]]],[[[-1147321,-3162244],[-1125981,-3115647],[-1160988,-3080534],[-1136273,-3065253],[-1149987,-3004207],[-1194505,-2997231],[-1191172,-3115355],[-1199950,-3154748],[-1147321,-3162244]]],[[[-1099583,-3787150],[-1132103,-3742739],[-1166811,-3863927],[-1129687,-3866387],[-1128253,-3831767],[-1091691,-3878928],[-1099583,-3787150]]],[[[-1185132,-3754822],[-1161375,-3736966],[-1191169,-3674908],[-1185132,-3754822]]],[[[-1117146,-3728943],[-1151260,-3652272],[-1177284,-3668506],[-1143459,-3735447],[-1117146,-3728943]]],[[[-905153,-4232078],[-967838,-4245239],[-922751,-4283011],[-849550,-4261443],[-905153,-4232078]]],[[[-1075578,-4051818],[-1092495,-4070738],[-1064339,-4119305],[-1047347,-4087564],[-1075578,-4051818]]],[[[-660600,-4363339],[-675980,-4388560],[-633554,-4416660],[-629707,-4387094],[-539736,-4431293],[-560173,-4391834],[-660600,-4363339]]],[[[-789511,-4280002],[-833775,-4268222],[-823246,-4311387],[-766954,-4314205],[-789511,-4280002]]],[[[-1126882,-3274602],[-1144657,-3247994],[-1194087,-3308695],[-1140378,-3377150],[-1114057,-3352204],[-1145341,-3287261],[-1126882,-3274602]]],[[[-1059801,-3310422],[-1045412,-3284065],[-1084899,-3264281],[-1099233,-3298861],[-1059801,-3310422]]],[[[-1153187,-3759214],[-1190825,-3768718],[-1175211,-3804270],[-1153187,-3759214]]],[[[-1151008,-3417991],[-1160021,-3362456],[-1181549,-3417910],[-1151008,-3417991]]]]},"properties":{"code":"CHL","name":"Chile"}},
{"type":"Feature","geometry":{"type":"MultiPolygon","coordinates":[[[[-772388,1779625],[-796793,1777632],[-796665,1822117],[-842914,1874993],[-918611,1830506],[-1106007,1823764],[-1105807,1752429],[-1050858,1754677],[-1029459,1708224],[-1062925,1717577],[-1127870,1698808],[-1128838,1619808],[-1083323,1583517],[-1052447,1506056],[-1109655,1168408],[-1202343,1171750],[-1221212,1151384],[-1317348,1130240],[-1430776,1056393],[-1439281,999140],[-1465800,946322],[-1464556,894657],[-1520131,853726],[-1514290,809163],[-1544116,780059],[-1490928,695110],[-1425057,626629],[-1448805,578804],[-1357701,572626],[-1333902,518943],[-1231125,528137],[-1167427,585196],[-1161769,415291],[-1046202,426720],[-917311,424173],[-882751,460365],[-829922,483947],[-738116,545434],[-592494,578190],[-595451,496615],[-580772,387349],[-543723,328819],[-480579,278667],[-333225,255659],[-300021,219770],[-235954,205364],[-193769,162369],[-116611,166818],[-54781,133833],[-29386,-9840],[-62695,-10963],[-26004,-53081],[-18770,-140462],[156240,-147494],[170619,-247863],[230219,-279134],[256605,-364322],[231627,-452755],[196013,-525819],[224102,-552094],[192569,-572259],[225901,-664746],[211322,-787451],[316270,-806715],[372690,-787911],[428472,-812767],[451268,-853499],[456611,-954177],[472844,-999882],[549058,-982111],[587246,-1009169],[543064,-1176862],[615642,-1189314],[635077,-1251417],[614030,-1349664],[513613,-1393978],[485327,-1428073],[422373,-1463673],[345653,-1559856],[232322,-1678451],[270404,-1689512],[307933,-1670774],[369994,-1729284],[384986,-1779150],[428864,-1757869],[456585,-1797013],[519437,-1827358],[595363,-1892719],[608579,-1931237],[651664,-1969553],[610637,-2015632],[622199,-2078763],[693691,-2015354],[750213,-1911223],[745933,-1879976],[770646,-1825865],[821886,-1791807],[856663,-1717615],[907059,-1706142],[899083,-1757304],[847404,-1824716],[795656,-1870074],[758754,-1874485],[758982,-1905801],[848446,-1840267],[938964,-1728724],[1001725,-1614827],[1101174,-1533553],[1123360,-1479558],[1138033,-1382930],[1130213,-1327743],[1151246,-1230572],[1139321,-1193827],[1189070,-1188547],[1225582,-1144283],[1334369,-1066805],[1429189,-1024396],[1480483,-1028998],[1572167,-952661],[1652029,-942947],[1716216,-957443],[1836397,-963313],[1878481,-895655],[1956299,-859325],[1955490,-812584],[1989317,-748363],[2033775,-714795],[2121365,-577857],[2124996,-506226],[2158962,-436270],[2196922,-407746],[2195111,-363731],[2246580,-204876],[2240712,-67703],[2248313,51968],[2299958,155923],[2317185,116708],[2345828,126638],[2411694,204324],[2446967,269014],[2503919,339943],[2564698,371903],[2711607,532890],[2754543,637233],[2763257,713815],[2729461,912190],[2698295,964634],[2585371,978746],[2522918,1005203],[2431380,1091335],[2387184,1150978],[2227612,1259174],[2171782,1270599],[2078327,1261457],[2017515,1286706],[1976145,1284360],[1852619,1338364],[1701767,1261989],[1736384,1368213],[1713622,1416322],[1667160,1449792],[1638463,1423497],[1624972,1464191],[1475751,1535221],[1410654,1555038],[1330515,1546201],[1292461,1502722],[1290112,1451098],[1262819,1466137],[1206165,1421012],[1169970,1347266],[1195071,1441828],[1149466,1422044],[1118446,1433588],[1073067,1414904],[1041489,1443949],[1019839,1535451],[901318,1467519],[821273,1473532],[893421,1488408],[977522,1630561],[1030027,1657316],[1089168,1728369],[1133782,1762877],[1127726,1817687],[1071659,1838124],[1047296,1880664],[1005973,1999340],[987428,2088716],[950747,2113455],[938859,2086467],[900811,2048132],[820569,1903554],[790817,1884506],[700734,1905195],[659937,1880390],[605401,1903902],[564766,1934225],[435322,1903452],[447491,1853255],[395493,1864823],[324002,1873424],[270473,1839975],[186559,1827776],[167272,1794720],[127852,1786015],[86424,1805021],[27418,1862527],[27535,1903374],[637,1948844],[16389,2046862],[50531,2084591],[33406,2133421],[-16734,2150018],[1050,2209905],[-15992,2226885],[-83554,2222792],[-68058,2200228],[-112901,2150068],[-174971,2122846],[-305282,2092553],[-334113,2046022],[-370838,2081506],[-452607,2081326],[-478975,2104045],[-542225,2113198],[-475015,2043728],[-455419,1927874],[-381229,1916378],[-381711,1895655],[-453734,1859984],[-462559,1828646],[-573412,1770961],[-614668,1724528],[-638191,1756137],[-707634,1729359],[-772388,1779625]]],[[[1162338,1608689],[1093229,1623485],[1048604,1607722],[1032211,1527045],[1061803,1440378],[1140166,1437401],[1173947,1466904],[1238427,1467690],[1301639,1589810],[1219600,1613837],[1162338,1608689]]],[[[1150747,1663861],[1090930,1661876],[1083229,1641400],[1139150,1635500],[1150747,1663861]]],[[[914379,1483988],[977097,1527505],[990484,1566188],[947415,1569353],[914379,1483988]]]]},"properties":{"code":"BRA","name":"Brazil"}},
{"type":"Feature","geometry":{"type":"Polygon","coordinates":[[[-1008858,-299767],[-961935,-358191],[-943865,-459308],[-888429,-508586],[-911550,-541547],[-912429,-623446],[-850934,-714259],[-809981,-881417],[-739743,-878586],[-692917,-809889],[-643960,-762478],[-596371,-793939],[-475622,-805088],[-444934,-870627],[-411078,-786415],[-294146,-776092],[-273828,-801950],[-236927,-672394],[-237625,-616716],[-184407,-514742],[-776,-475495],[95665,-474451],[190825,-533886],[192569,-572259],[224102,-552094],[196013,-525819],[231627,-452755],[256605,-364322],[230219,-279134],[170619,-247863],[156240,-147494],[-18770,-140462],[-26004,-53081],[-62695,-10963],[-29386,-9840],[-54781,133833],[-116611,166818],[-193769,162369],[-235954,205364],[-300021,219770],[-333225,255659],[-480579,278667],[-543723,328819],[-580772,387349],[-595451,496615],[-592494,578190],[-738116,545434],[-829922,483947],[-882751,460365],[-917311,424173],[-1046202,426720],[-943206,258687],[-973485,215556],[-980482,126153],[-957421,69774],[-1007078,-17130],[-984148,-46565],[-1008715,-88351],[-984632,-147950],[-951696,-159105],[-961281,-201738],[-1022547,-266393],[-1008858,-299767]]]},"properties":{"code":"BOL","name":"Bolivia"}},
{"type":"Feature","geometry":{"type":"MultiPolygon","coordinates":[[[[232322,-1678451],[345653,-1559856],[422373,-1463673],[485327,-1428073],[513613,-1393978],[614030,-1349664],[635077,-1251417],[615642,-1189314],[543064,-1176862],[517658,-1294977],[456279,-1332764],[426183,-1376771],[381799,-1365504],[353967,-1390555],[135356,-1348235],[181047,-1286234],[180222,-1258826],[243777,-1151841],[220524,-1121915],[63800,-1045443],[10968,-1005563],[-85812,-979750],[-198073,-892312],[-273828,-801950],[-294146,-776092],[-411078,-786415],[-444934,-870627],[-475622,-805088],[-596371,-793939],[-643960,-762478],[-692917,-809889],[-739743,-878586],[-719772,-897764],[-750021,-1013194],[-838843,-1056456],[-867661,-1107090],[-848108,-1134374],[-867371,-1178837],[-844393,-1251752],[-858649,-1292751],[-831837,-1347898],[-880689,-1364081],[-907566,-1450682],[-951275,-1507013],[-979945,-1609263],[-964228,-1722668],[-983286,-1732815],[-1011224,-1812685],[-1013510,-1859310],[-965502,-1955960],[-943854,-2042802],[-924953,-2043054],[-919185,-2146206],[-936992,-2155672],[-965298,-2270149],[-951607,-2350073],[-1005648,-2404348],[-1001446,-2539948],[-970802,-2644738],[-1009547,-2674531],[-1011799,-2742182],[-1031598,-2862737],[-1016845,-2966229],[-997977,-3013928],[-1025871,-3037576],[-1017868,-3112256],[-985018,-3128864],[-991415,-3159085],[-965962,-3210238],[-970989,-3259851],[-920592,-3262224],[-920137,-3297059],[-976222,-3304564],[-921143,-3347735],[-947714,-3387541],[-949462,-3450589],[-928959,-3494059],[-936053,-3561900],[-972996,-3637829],[-952514,-3688760],[-995963,-3793331],[-1020251,-3797072],[-1008506,-3883205],[-971734,-3945437],[-913121,-3933939],[-903378,-4024937],[-860576,-4068998],[-719702,-4059617],[-606396,-4088907],[-648288,-4023481],[-678054,-3948794],[-666335,-3882915],[-585970,-3822308],[-584873,-3756968],[-541165,-3688619],[-452450,-3611277],[-451278,-3547486],[-473661,-3521514],[-535755,-3514845],[-604117,-3447365],[-607144,-3407192],[-563980,-3328395],[-505284,-3294303],[-460048,-3297128],[-440914,-3239346],[-439929,-3148022],[-417138,-3110963],[-363088,-3074281],[-423765,-3053473],[-393303,-3027941],[-347778,-3062253],[-311153,-3055252],[-322893,-2980885],[-347510,-3011903],[-431120,-2968447],[-443824,-2850928],[-419971,-2842913],[-325142,-2876698],[-255163,-2870815],[-207133,-2846303],[-211354,-2788447],[-181072,-2681520],[-210692,-2625376],[-141954,-2640364],[15238,-2622217],[162387,-2579424],[219673,-2542109],[234148,-2505234],[302285,-2409170],[301354,-2362828],[250417,-2331095],[249455,-2226742],[159684,-2170380],[136570,-2058603],[148930,-1998284],[173147,-1981848],[171106,-1928397],[173170,-1868392],[232322,-1678451]]],[[[-590269,-4351547],[-472366,-4352078],[-442822,-4361827],[-364932,-4342163],[-355072,-4320820],[-428700,-4308807],[-506433,-4261894],[-598717,-4184118],[-616133,-4120872],[-590269,-4351547]]]]},"properties":{"code":"ARG","name":"Argentina"}}
]}