{"type": "FeatureCollection", "features": [{"type": "Feature", "geometry": {"type": "Point", "coordinates": [353794, -2197831]}, "properties": {"code": "URY", "name": "Uruguay", "capital": "Montevideo"}}, {"type": "Feature", "geometry": {"type": "Point", "coordinates": [206288, 2396343]}, "properties": {"code": "GUY", "name": "Guyana", "capital": "Georgetown"}}, {"type": "Feature", "geometry": {"type": "Point", "coordinates": [543928, 2287900]}, "properties": {"code": "SUR", "name": "Suriname", "capital": "Paramaribo"}}, {"type": "Feature", "geometry": {"type": "Point", "coordinates": [240074, -1139170]}, "properties": {"code": "PRY", "name": "Paraguay", "capital": "Asunci\u00f3n"}}, {"type": "Feature", "geometry": {"type": "Point", "coordinates": [-2067088, 1565527]}, "properties": {"code": "ECU", "name": "Ecuador", "capital": "Quito"}}, {"type": "Feature", "geometry": {"type": "Point", "coordinates": [-553771, -454085]}, "properties": {"code": "BOL", "name": "Bolivia", "capital": "Sucre"}}, {"type": "Feature", "geometry": {"type": "Point", "coordinates": [1291724, -122071]}, "properties": {"code": "BRA", "name": "Brazil", "capital": "Bras\u00edlia"}}, {"type": "Feature", "geometry": {"type": "Point", "coordinates": [-775878, 2790637]}, "properties": {"code": "VEN", "name": "Venezuela", "capital": "Caracas"}}, {"type": "Feature", "geometry": {"type": "Point", "coordinates": [-1849283, 258923]}, "properties": {"code": "PER", "name": "Peru", "capital": "Lima"}}, {"type": "Feature", "geometry": {"type": "Point", "coordinates": [145921, -2162290]}, "properties": {"code": "ARG", "name": "Argentina", "capital": "Buenos Aires"}}, {"type": "Feature", "geometry": {"type": "Point", "coordinates": [-1581695, 2123121]}, "properties": {"code": "COL", "name": "Colombia", "capital": "Bogota"}}, {"type": "Feature", "geometry": {"type": "Point", "coordinates": [-1001313, -2064886]}, "properties": {"code": "CHL", "name": "Chile", "capital": "Santiago"}}]}