{"type":"FeatureCollection", "features": [
{"type":"Feature","geometry":{"type":"Polygon","coordinates":[[[-213246,-1118031],[-213936,-1117224],[-213964,-1118099],[-213246,-1118031]]]},"properties":{"code":"VAT","name":"Vatican"}},
{"type":"Feature","geometry":{"type":"Polygon","coordinates":[[[-1227101,-165042],[-1240456,-157826],[-1243826,-167348],[-1227101,-165042]]]},"properties":{"code":"JEY","name":"Jersey"}},
{"type":"Feature","geometry":{"type":"Polygon","coordinates":[[[-1255114,-128061],[-1265179,-128614],[-1259279,-134607],[-1255114,-128061]]]},"properties":{"code":"GGY","name":"Guernsey"}},
{"type":"Feature","geometry":{"type":"Polygon","coordinates":[[[-1249926,412485],[-1250177,434784],[-1276704,406938],[-1249926,412485]]]},"properties":{"code":"IMN","name":"Isle of Man"}},
{"type":"Feature","geometry":{"type":"MultiPolygon","coordinates":[[[[-1209742,105638],[-1252485,68243],[-1323730,85094],[-1362316,47879],[-1429676,5277],[-1428452,-21223],[-1386437,-1811],[-1345590,-1384],[-1324192,-25797],[-1286397,10889],[-1256481,12942],[-1193572,-15579],[-1143802,6463],[-1103751,-17593],[-1035692,-32376],[-980168,-24986],[-939881,16958],[-989041,29154],[-977162,65815],[-939436,71616],[-894931,134037],[-895096,166375],[-930464,196443],[-997989,204043],[-971912,227627],[-988284,329380],[-978283,338244],[-1038450,426622],[-1040343,518470],[-1085281,582028],[-1131138,593875],[-1080370,614339],[-1111997,630052],[-1069991,639774],[-996562,728986],[-1008045,755766],[-1084345,775922],[-1130267,773243],[-1110356,812001],[-1055451,839181],[-1037307,870666],[-1153266,889422],[-1177608,863736],[-1179029,822451],[-1204557,830015],[-1223249,759794],[-1273337,714724],[-1251443,686317],[-1216975,702526],[-1264449,634484],[-1296456,563086],[-1260312,599955],[-1219052,620750],[-1226100,558764],[-1274087,497532],[-1203923,468971],[-1166258,480073],[-1188962,428665],[-1173362,385314],[-1153186,385835],[-1193917,305935],[-1259573,302997],[-1308649,268636],[-1267847,270066],[-1270861,227574],[-1307255,197553],[-1374534,179640],[-1358470,145513],[-1335175,151925],[-1257962,91043],[-1209742,105638]]],[[[-888496,1052663],[-914449,1029595],[-898121,1006443],[-888496,1052663]]],[[[-1264959,668431],[-1274010,706451],[-1290242,669605],[-1264959,668431]]],[[[-1221474,891593],[-1218858,907147],[-1271362,891551],[-1285137,839630],[-1245829,859053],[-1221474,891593]]],[[[-1247563,799029],[-1284791,803324],[-1251763,746450],[-1229582,761010],[-1247563,799029]]],[[[-1365623,434927],[-1321692,443219],[-1307697,484725],[-1323030,554123],[-1393106,561376],[-1471591,507194],[-1435013,460552],[-1406337,485135],[-1393451,439990],[-1365623,434927]]]]},"properties":{"code":"GBR","name":"United Kingdom"}},
{"type":"Feature","geometry":{"type":"Polygon","coordinates":[[[1731014,-271047],[1720584,-219408],[1753840,-173346],[1812894,-154101],[1813120,-103620],[1779818,-77129],[1794103,-41108],[1767691,-31902],[1786854,-2165],[1769607,38856],[1633783,45844],[1624002,26997],[1565306,65811],[1517669,27144],[1425473,38239],[1403393,90575],[1381968,103004],[1325218,91903],[1305079,136884],[1320480,152826],[1260505,202001],[1180827,177402],[1171099,152632],[1136968,142964],[1086234,125003],[1066960,69307],[1075524,33320],[1044542,50972],[991375,29165],[971994,52017],[951017,35781],[845299,28326],[834013,42073],[748520,46625],[642806,26611],[595723,-18467],[639441,-88640],[636020,-137871],[618053,-143723],[552609,-244962],[570147,-301103],[549858,-297416],[527314,-374284],[587443,-419357],[609995,-401532],[684498,-412706],[713880,-406147],[740234,-426587],[829953,-382801],[859017,-348148],[923051,-312937],[997069,-343523],[1045446,-347404],[1061033,-403364],[1094195,-420534],[1127491,-461295],[1134699,-514193],[1078987,-505236],[1073571,-560337],[1028950,-636429],[1075314,-652375],[1121076,-622573],[1147570,-635431],[1130814,-590829],[1173891,-561113],[1202199,-477067],[1254485,-452559],[1333425,-439591],[1281098,-485331],[1339194,-499197],[1424120,-462366],[1507225,-468254],[1537571,-488066],[1513330,-441941],[1542634,-423373],[1572742,-374690],[1673749,-309951],[1683355,-288431],[1731014,-271047]]]},"properties":{"code":"UKR","name":"Ukraine"}},
{"type":"Feature","geometry":{"type":"Polygon","coordinates":[[[-412238,-482453],[-478025,-450190],[-483721,-465551],[-554693,-462390],[-597940,-469445],[-603836,-487467],[-685985,-578109],[-687566,-609393],[-657815,-581187],[-632845,-585678],[-618342,-642040],[-559183,-648548],[-509166,-594834],[-469834,-666768],[-443023,-618012],[-389545,-613551],[-376508,-587922],[-350540,-595132],[-346776,-560317],[-411686,-534518],[-418665,-533458],[-413991,-510571],[-412238,-482453]]]},"properties":{"code":"CHE","name":"Switzerland"}},
{"type":"Feature","geometry":{"type":"MultiPolygon","coordinates":[[[[242342,656264],[210359,653960],[187929,622407],[191743,551733],[235097,607099],[242342,656264]]],[[[94717,478445],[127719,593833],[86889,509273],[94717,478445]]],[[[-207680,788120],[-217799,726184],[-194773,640645],[-157214,548782],[-130023,515757],[-154449,480389],[-127208,412828],[-133952,381581],[-52379,378275],[-49217,426756],[-17798,460072],[61872,470309],[92777,564939],[92575,647723],[104199,733984],[188537,795302],[182969,829675],[223584,869212],[211248,904413],[162414,958859],[123290,969759],[113594,1066683],[133245,1164559],[156652,1182098],[148221,1207285],[176861,1215838],[182445,1247493],[284520,1330980],[315124,1399948],[293096,1436419],[306638,1504363],[336281,1528411],[338332,1555936],[373473,1547898],[420591,1561590],[396283,1601559],[397237,1670853],[364878,1738089],[364514,1794274],[322557,1837863],[288555,1848602],[226845,1900165],[206599,1823266],[139293,1841969],[123355,1775205],[97755,1789584],[48770,1713456],[61627,1672701],[18992,1609653],[21879,1589333],[-20796,1569788],[-24439,1478184],[-65070,1398987],[-44656,1385632],[-51127,1335848],[-115247,1329242],[-151216,1258618],[-141599,1225906],[-140520,1146458],[-150939,1084113],[-113773,1041865],[-146831,1004142],[-133071,942285],[-140159,904289],[-187847,849016],[-193666,775137],[-207680,788120]]]]},"properties":{"code":"SWE","name":"Sweden"}},
{"type":"Feature","geometry":{"type":"MultiPolygon","coordinates":[[[[-1016301,-1275265],[-1012335,-1255688],[-1084942,-1283920],[-1030146,-1327795],[-990943,-1282439],[-1016301,-1275265]]],[[[-917897,-1284223],[-920949,-1262506],[-954264,-1263912],[-917897,-1284223]]],[[[-1351012,-802438],[-1395720,-801078],[-1450437,-782860],[-1490530,-755829],[-1565040,-748251],[-1649302,-705642],[-1772152,-667676],[-1800334,-639009],[-1852840,-660252],[-1904155,-655686],[-1943712,-684436],[-1925814,-711431],[-1924438,-773449],[-1941898,-806749],[-1891481,-800646],[-1899871,-825760],[-1836902,-852905],[-1812155,-843356],[-1771400,-860168],[-1773216,-890941],[-1750924,-913775],[-1823530,-952866],[-1833355,-1027168],[-1870103,-1089053],[-1912593,-1082157],[-1885871,-1160476],[-1931881,-1215925],[-1919976,-1251527],[-1970550,-1305081],[-1973912,-1351031],[-1928995,-1362816],[-1902014,-1398347],[-1883549,-1491702],[-1851609,-1519274],[-1801830,-1487376],[-1756465,-1490058],[-1724511,-1474264],[-1533779,-1517738],[-1489185,-1472677],[-1441375,-1446111],[-1397092,-1453375],[-1370338,-1394530],[-1341786,-1368411],[-1285449,-1343268],[-1314208,-1303291],[-1315396,-1251413],[-1287019,-1216971],[-1171581,-1105607],[-1080623,-1096631],[-973609,-1040539],[-968784,-986649],[-1065987,-979210],[-1089804,-958124],[-1108878,-962442],[-1110573,-943925],[-1164737,-905586],[-1173042,-921562],[-1227163,-910854],[-1245038,-891738],[-1333896,-844630],[-1351012,-802438]]]]},"properties":{"code":"ESP","name":"Spain"}},
{"type":"Feature","geometry":{"type":"Polygon","coordinates":[[[549858,-297416],[481162,-266139],[407339,-274572],[346433,-299761],[320924,-257527],[301060,-280717],[277440,-269660],[230070,-300129],[202304,-342336],[160604,-346762],[144093,-376377],[138207,-400094],[160289,-441852],[207092,-466516],[279094,-461466],[291803,-431462],[364508,-418153],[405237,-371190],[475762,-362637],[501096,-384274],[527314,-374284],[549858,-297416]]]},"properties":{"code":"SVK","name":"Slovakia"}},
{"type":"Feature","geometry":{"type":"Polygon","coordinates":[[[116501,-610299],[83418,-570518],[73339,-591277],[52,-597487],[-38210,-620561],[-99852,-608353],[-125167,-636581],[-105709,-646363],[-100040,-711907],[-111270,-719552],[26586,-726085],[21594,-696631],[48608,-685210],[49140,-644496],[116501,-610299]]]},"properties":{"code":"SVN","name":"Slovenia"}},
{"type":"Feature","geometry":{"type":"Polygon","coordinates":[[[615606,-830787],[594166,-780718],[563856,-802010],[502721,-771888],[510887,-742167],[451585,-706716],[449464,-677326],[405359,-640645],[350155,-639094],[303126,-666614],[325409,-747173],[317065,-783973],[343982,-781164],[331814,-846120],[367950,-872790],[341256,-883075],[362415,-910880],[339709,-931101],[370629,-964940],[437905,-1003182],[468740,-953045],[524094,-1004947],[554476,-1011361],[542685,-1059372],[606427,-1046078],[619885,-1030607],[611110,-986771],[648881,-944372],[611878,-918507],[595371,-858529],[615606,-830787]]]},"properties":{"code":"SRB","name":"Serbia"}},
{"type":"Feature","geometry":{"type":"Polygon","coordinates":[[[-202463,-896399],[-200670,-886661],[-209455,-892483],[-202463,-896399]]]},"properties":{"code":"SMR","name":"San Marino"}},
{"type":"Feature","geometry":{"type":"Polygon","coordinates":[[[1028950,-636429],[1010543,-580722],[1012498,-526256],[989550,-470769],[922708,-407664],[887338,-355393],[859017,-348148],[829953,-382801],[740234,-426587],[713880,-406147],[684498,-412706],[609995,-401532],[587443,-419357],[546242,-448135],[465772,-621165],[405359,-640645],[449464,-677326],[451585,-706716],[510887,-742167],[502721,-771888],[563856,-802010],[594166,-780718],[615606,-830787],[661112,-866530],[845531,-866053],[897695,-820680],[964049,-792245],[1090192,-818269],[1084425,-756807],[1106917,-700329],[1144715,-683243],[1147570,-635431],[1121076,-622573],[1075314,-652375],[1028950,-636429]]]},"properties":{"code":"ROU","name":"Romania"}},
{"type":"Feature","geometry":{"type":"Polygon","coordinates":[[[-1941898,-806749],[-1953349,-815738],[-1961324,-907152],[-2006737,-991700],[-2048117,-1052514],[-2073091,-1068075],[-2100569,-1129960],[-2072280,-1138031],[-2087918,-1167276],[-2060398,-1176531],[-2085912,-1286608],[-2113566,-1323985],[-2076937,-1325519],[-2015397,-1358387],[-1973912,-1351031],[-1970550,-1305081],[-1919976,-1251527],[-1931881,-1215925],[-1885871,-1160476],[-1912593,-1082157],[-1870103,-1089053],[-1833355,-1027168],[-1823530,-952866],[-1750924,-913775],[-1773216,-890941],[-1771400,-860168],[-1812155,-843356],[-1836902,-852905],[-1899871,-825760],[-1891481,-800646],[-1941898,-806749]]]},"properties":{"code":"PRT","name":"Portugal"}},
{"type":"Feature","geometry":{"type":"Polygon","coordinates":[[[595723,-18467],[587554,46197],[558361,60064],[596717,110264],[594588,150785],[555812,248479],[551104,270771],[503912,289363],[238092,276555],[213525,320748],[145742,306025],[100941,285276],[77267,255505],[-51781,217313],[-51731,208455],[-48920,192720],[-39050,142980],[-57905,104146],[-25828,58876],[-16964,9135],[-27459,-18576],[1159,-83141],[-13422,-126927],[-439,-109660],[24979,-132137],[100570,-157712],[86013,-174650],[120141,-210275],[133588,-173278],[206193,-221535],[255966,-229697],[277440,-269660],[301060,-280717],[320924,-257527],[346433,-299761],[407339,-274572],[481162,-266139],[549858,-297416],[570147,-301103],[552609,-244962],[618053,-143723],[636020,-137871],[639441,-88640],[595723,-18467]]]},"properties":{"code":"POL","name":"Poland"}},
{"type":"Feature","geometry":{"type":"MultiPolygon","coordinates":[[[[226845,1900165],[264277,1929414],[302906,1872240],[341069,1868738],[360178,1888612],[407816,1871438],[433037,1919643],[430533,1993390],[444996,2025177],[493595,2050408],[550590,2017814],[559986,1946338],[593085,2022820],[613344,2044525],[566657,2033546],[560221,2054414],[602196,2097754],[519063,2145569],[503687,2130997],[498684,2076827],[490580,2152657],[459226,2159646],[463709,2130848],[436993,2079265],[423667,2133283],[384829,2037304],[397906,2122375],[358409,2133704],[319391,2043854],[318558,2015513],[291286,2054673],[242727,2034015],[248210,2010148],[164113,1974287],[97584,1866392],[67941,1846362],[53510,1764440],[42170,1802035],[2050,1771593],[20109,1715900],[-1638,1729458],[-79830,1627320],[-85309,1582083],[-126798,1510101],[-133972,1467257],[-166793,1446231],[-166544,1420545],[-214874,1387092],[-266602,1321427],[-253688,1290088],[-201520,1314292],[-212403,1280614],[-252018,1275895],[-264086,1302293],[-329563,1297910],[-322929,1272578],[-349571,1250317],[-406446,1241493],[-421580,1214519],[-356119,1215293],[-376505,1196647],[-444663,1207279],[-513911,1165866],[-532637,1118078],[-521547,1048839],[-448781,1050520],[-429811,1035398],[-539615,1043502],[-534588,990140],[-556555,891866],[-488358,958955],[-467478,963259],[-518940,908684],[-492607,901798],[-546112,887576],[-562533,843084],[-515012,844869],[-512931,796485],[-538611,815820],[-540633,761137],[-497062,710775],[-444950,693429],[-402375,703038],[-310054,784517],[-277298,789216],[-250689,851872],[-238478,806222],[-207680,788120],[-193666,775137],[-187847,849016],[-140159,904289],[-133071,942285],[-146831,1004142],[-113773,1041865],[-150939,1084113],[-140520,1146458],[-141599,1225906],[-151216,1258618],[-115247,1329242],[-51127,1335848],[-44656,1385632],[-65070,1398987],[-24439,1478184],[-20796,1569788],[21879,1589333],[18992,1609653],[61627,1672701],[48770,1713456],[97755,1789584],[123355,1775205],[139293,1841969],[206599,1823266],[226845,1900165]]],[[[313064,2106199],[261684,2082782],[277136,2068640],[313064,2106199]]],[[[8403,1880568],[-19705,1846419],[9139,1844518],[8403,1880568]]],[[[163935,2009449],[160932,2029248],[130874,1974668],[149151,1954772],[177699,1999711],[163935,2009449]]],[[[98596,1954359],[79699,1927895],[87332,1891059],[118320,1911217],[98596,1954359]]],[[[31364,1838599],[35680,1917702],[16979,1844500],[-31115,1797706],[37918,1819698],[62468,1847034],[54067,1873709],[31364,1838599]]]]},"properties":{"code":"NOR","name":"Norway"}},
{"type":"Feature","geometry":{"type":"MultiPolygon","coordinates":[[[[-633764,-99957],[-637494,-73253],[-609981,-20010],[-623068,12296],[-566878,22241],[-541118,71956],[-519314,170645],[-542540,191025],[-592717,193161],[-693331,139462],[-714435,86141],[-758934,36601],[-746180,12097],[-797535,12209],[-746860,-13023],[-726392,-6095],[-640236,-57033],[-657241,-86531],[-633764,-99957]]],[[[-746860,-13023],[-807172,-4655],[-772135,-29354],[-746860,-13023]]]]},"properties":{"code":"NLD","name":"Netherlands"}},
{"type":"Feature","geometry":{"type":"Polygon","coordinates":[[[339709,-931101],[281673,-996726],[282992,-1041986],[290281,-1055706],[361624,-1114488],[354719,-1081235],[382745,-1028986],[416927,-1035800],[437905,-1003182],[370629,-964940],[339709,-931101]]]},"properties":{"code":"MNE","name":"Montenegro"}},
{"type":"Feature","geometry":{"type":"Polygon","coordinates":[[[859017,-348148],[887338,-355393],[922708,-407664],[989550,-470769],[1012498,-526256],[1010543,-580722],[1028950,-636429],[1073571,-560337],[1078987,-505236],[1134699,-514193],[1127491,-461295],[1094195,-420534],[1061033,-403364],[1045446,-347404],[997069,-343523],[923051,-312937],[859017,-348148]]]},"properties":{"code":"MDA","name":"Moldova"}},
{"type":"Feature","geometry":{"type":"Polygon","coordinates":[[[-609312,-885779],[-611040,-883323],[-614402,-887346],[-609312,-885779]]]},"properties":{"code":"MCO","name":"Monaco"}},
{"type":"Feature","geometry":{"type":"Polygon","coordinates":[[[-39564,-1788379],[-59065,-1774430],[-51423,-1791715],[-39564,-1788379]]]},"properties":{"code":"MLT","name":"Malta"}},
{"type":"Feature","geometry":{"type":"Polygon","coordinates":[[[542685,-1059372],[501848,-1071270],[463320,-1107294],[461377,-1174134],[504633,-1217745],[556066,-1211363],[583661,-1182409],[630891,-1176659],[663989,-1149048],[667350,-1106317],[650384,-1077299],[606427,-1046078],[542685,-1059372]]]},"properties":{"code":"MKD","name":"North Macedonia"}},
{"type":"Feature","geometry":{"type":"Polygon","coordinates":[[[-633584,-170598],[-662775,-189559],[-664755,-232105],[-626048,-246435],[-611380,-209406],[-633584,-170598]]]},"properties":{"code":"LUX","name":"Luxembourg"}},
{"type":"Feature","geometry":{"type":"Polygon","coordinates":[[[503912,289363],[551104,270771],[555812,248479],[638806,262932],[684487,307235],[693533,377190],[744924,425288],[723751,429674],[726301,466803],[609749,531564],[563843,510381],[436904,511946],[376299,468746],[396035,380375],[482718,365775],[502199,343146],[503912,289363]]]},"properties":{"code":"LTU","name":"Lithuania"}},
{"type":"Feature","geometry":{"type":"Polygon","coordinates":[[[-411686,-534518],[-413991,-510571],[-418665,-533458],[-411686,-534518]]]},"properties":{"code":"LIE","name":"Liechtenstein"}},
{"type":"Feature","geometry":{"type":"Polygon","coordinates":[[[726301,466803],[784580,491565],[812588,535667],[801460,579305],[767398,607110],[767176,660480],[736626,678956],[688225,671098],[650771,699799],[595405,716913],[552207,689308],[565227,629726],[525004,584879],[449783,660729],[402459,638834],[370553,552460],[376299,468746],[436904,511946],[563843,510381],[609749,531564],[726301,466803]]]},"properties":{"code":"LVA","name":"Latvia"}},
{"type":"Feature","geometry":{"type":"Polygon","coordinates":[[[437905,-1003182],[416927,-1035800],[453995,-1069156],[463320,-1107294],[501848,-1071270],[542685,-1059372],[554476,-1011361],[524094,-1004947],[468740,-953045],[437905,-1003182]]]},"properties":{"code":"KOS","name":"Kosovo"}},
{"type":"Feature","geometry":{"type":"MultiPolygon","coordinates":[[[[-618342,-642040],[-637438,-664068],[-613996,-701134],[-658297,-727902],[-631271,-775694],[-641196,-823371],[-589114,-841600],[-604763,-884376],[-556050,-872166],[-496820,-821329],[-397650,-873507],[-351124,-996715],[-305685,-1056034],[-278187,-1072371],[-198668,-1165968],[-160872,-1192026],[-106628,-1194073],[-76064,-1239682],[-19902,-1257648],[-4201,-1305127],[59479,-1332345],[88746,-1402305],[104690,-1467663],[85119,-1473085],[64152,-1558594],[93572,-1557951],[135906,-1505723],[136460,-1471992],[189526,-1439432],[183230,-1397378],[137912,-1369959],[131615,-1345707],[164330,-1278839],[244813,-1295963],[287731,-1344933],[298636,-1313101],[251012,-1254251],[177551,-1211684],[84973,-1172303],[96104,-1136395],[80240,-1116591],[14047,-1117687],[-11123,-1104578],[-81345,-1033530],[-116277,-935273],[-208448,-860422],[-218358,-804729],[-195679,-778276],[-213506,-724573],[-106831,-691433],[-100040,-711907],[-105709,-646363],[-125167,-636581],[-99852,-608353],[-199883,-585457],[-215070,-542718],[-285871,-551408],[-303575,-570364],[-346776,-560317],[-350540,-595132],[-376508,-587922],[-389545,-613551],[-443023,-618012],[-469834,-666768],[-509166,-594834],[-559183,-648548],[-618342,-642040]],[[-213246,-1118031],[-213964,-1118099],[-213936,-1117224],[-213246,-1118031]],[[-202463,-896399],[-209455,-892483],[-200670,-886661],[-202463,-896399]]],[[[50842,-1527715],[-13599,-1533253],[-43678,-1547032],[-116634,-1551103],[-162313,-1529260],[-199865,-1529054],[-227422,-1568241],[-98094,-1650543],[-76806,-1650480],[-44838,-1684327],[10151,-1696660],[26430,-1660806],[8873,-1611825],[50842,-1527715]]],[[[-454051,-1217974],[-485202,-1174079],[-543776,-1214503],[-572524,-1204980],[-577803,-1233568],[-557133,-1275229],[-554516,-1325750],[-571127,-1394548],[-533387,-1430135],[-515622,-1395417],[-479118,-1409194],[-466264,-1386336],[-442087,-1261200],[-454051,-1217974]]]]},"properties":{"code":"ITA","name":"Italy"}},
{"type":"Feature","geometry":{"type":"Polygon","coordinates":[[[-1393106,561376],[-1385733,589745],[-1454686,588147],[-1501139,548910],[-1464400,531585],[-1503958,497671],[-1595385,532061],[-1589473,510484],[-1626426,458613],[-1592620,392646],[-1651226,350696],[-1654082,313591],[-1707265,287411],[-1656984,269857],[-1700855,253017],[-1686793,233927],[-1616720,221376],[-1515289,248286],[-1432434,239605],[-1391309,306761],[-1365623,434927],[-1393451,439990],[-1406337,485135],[-1435013,460552],[-1471591,507194],[-1393106,561376]]]},"properties":{"code":"IRL","name":"Ireland"}},
{"type":"Feature","geometry":{"type":"Polygon","coordinates":[[[-1332514,1880753],[-1335238,1917880],[-1360786,1922015],[-1385885,1894912],[-1426950,1894767],[-1445833,1929340],[-1456237,1893057],[-1464033,1940623],[-1493023,1944581],[-1513608,1916817],[-1533363,1961923],[-1609306,1905799],[-1609032,1931397],[-1574291,1984964],[-1587912,2046951],[-1618323,2056318],[-1611104,2013308],[-1659675,2044087],[-1663072,2003148],[-1693679,2024297],[-1723437,2008644],[-1708336,1986091],[-1659157,1977888],[-1626452,1939930],[-1664600,1933999],[-1652680,1903011],[-1748125,1938252],[-1691076,1892786],[-1682339,1834748],[-1755788,1805068],[-1693600,1780476],[-1671793,1718173],[-1613819,1666908],[-1560699,1677971],[-1501555,1667156],[-1463580,1679324],[-1381068,1681934],[-1305547,1733818],[-1289685,1776752],[-1326761,1822285],[-1321771,1859904],[-1297088,1882954],[-1332514,1880753]]]},"properties":{"code":"ISL","name":"Iceland"}},
{"type":"Feature","geometry":{"type":"Polygon","coordinates":[[[527314,-374284],[501096,-384274],[475762,-362637],[405237,-371190],[364508,-418153],[291803,-431462],[279094,-461466],[207092,-466516],[160289,-441852],[155163,-475171],[116367,-471697],[110614,-554109],[83418,-570518],[116501,-610299],[179195,-664637],[218505,-686136],[261557,-688508],[303126,-666614],[350155,-639094],[405359,-640645],[465772,-621165],[546242,-448135],[587443,-419357],[527314,-374284]]]},"properties":{"code":"HUN","name":"Hungary"}},
{"type":"Feature","geometry":{"type":"MultiPolygon","coordinates":[[[[941709,-1070998],[932293,-1103970],[859939,-1135704],[794864,-1109767],[723436,-1136886],[663989,-1149048],[630891,-1176659],[583661,-1182409],[556066,-1211363],[504633,-1217745],[511819,-1238392],[463025,-1336939],[430909,-1349455],[459345,-1389843],[503179,-1421908],[537126,-1488301],[569152,-1492660],[651205,-1472203],[717533,-1494521],[699718,-1520550],[599967,-1489226],[564151,-1506885],[543520,-1546470],[584438,-1577695],[589349,-1628136],[619993,-1663423],[634228,-1629881],[663681,-1663269],[699054,-1650445],[719838,-1676836],[715969,-1623275],[686709,-1568001],[727498,-1586834],[755422,-1572000],[710755,-1528256],[757196,-1508529],[802407,-1536697],[788061,-1475604],[721443,-1440260],[662030,-1421006],[692572,-1402303],[679268,-1378412],[717721,-1370965],[650152,-1294942],[648671,-1244131],[709543,-1268739],[754276,-1241156],[741613,-1205969],[768801,-1205392],[799176,-1176708],[851104,-1164701],[938725,-1179719],[949835,-1123299],[971726,-1101677],[941709,-1070998]]],[[[439360,-1379519],[416203,-1338156],[400492,-1349534],[439360,-1379519]]],[[[732312,-1406039],[719867,-1424889],[768418,-1463874],[815713,-1478394],[794914,-1430780],[732312,-1406039]]],[[[974478,-1457300],[975578,-1421136],[947849,-1421453],[974478,-1457300]]],[[[985457,-1331563],[938800,-1352897],[968549,-1368009],[1004872,-1361915],[985457,-1331563]]],[[[1164060,-1682815],[1190534,-1621924],[1148840,-1658322],[1164060,-1682815]]],[[[808920,-1776930],[782487,-1793184],[814976,-1808244],[892156,-1816287],[902340,-1832114],[1032832,-1802002],[1023500,-1784437],[985998,-1797833],[959325,-1783385],[889227,-1779466],[852786,-1790739],[808920,-1776930]]]]},"properties":{"code":"GRC","name":"Greece"}},
{"type":"Feature","geometry":{"type":"MultiPolygon","coordinates":[[[[-412238,-482453],[-394948,-477990],[-354394,-509912],[-344005,-485216],[-303449,-503481],[-209462,-472199],[-149751,-500829],[-162656,-424561],[-97893,-385830],[-87156,-358896],[-171663,-279640],[-195064,-214161],[-181278,-180433],[-44389,-122332],[-13422,-126927],[1159,-83141],[-27459,-18576],[-16964,9135],[-25828,58876],[-57905,104146],[-39050,142980],[-48920,192720],[-74664,206824],[-83366,240343],[-101439,239321],[-128014,270044],[-157219,277206],[-188645,245054],[-236341,222273],[-267611,229583],[-258959,271892],[-314546,287485],[-337857,326742],[-405583,340894],[-391731,290994],[-395128,230790],[-419136,227129],[-431052,187873],[-461048,210403],[-508710,214212],[-519314,170645],[-541118,71956],[-566878,22241],[-623068,12296],[-609981,-20010],[-637494,-73253],[-633764,-99957],[-613471,-151129],[-633584,-170598],[-611380,-209406],[-626048,-246435],[-601482,-282009],[-549750,-288536],[-501910,-313207],[-551940,-409961],[-554693,-462390],[-483721,-465551],[-478025,-450190],[-412238,-482453]]],[[[-83885,265896],[-101712,301490],[-118022,284611],[-106640,251122],[-83885,265896]]]]},"properties":{"code":"DEU","name":"Germany"}},
{"type":"Feature","geometry":{"type":"MultiPolygon","coordinates":[[[[-554693,-462390],[-551940,-409961],[-501910,-313207],[-549750,-288536],[-601482,-282009],[-626048,-246435],[-664755,-232105],[-685397,-232535],[-727081,-195772],[-722317,-157331],[-773522,-169713],[-768993,-138149],[-803378,-124071],[-834597,-67750],[-854380,-72106],[-869014,-26029],[-913259,-30245],[-941275,-53594],[-950146,-107188],[-979641,-130453],[-1060413,-148021],[-1049698,-179188],[-1094202,-187277],[-1161119,-162331],[-1162559,-128571],[-1204358,-118509],[-1195651,-238636],[-1272223,-221125],[-1292665,-228931],[-1323012,-186340],[-1436889,-190865],[-1419581,-238436],[-1448275,-245708],[-1428086,-276283],[-1398056,-282601],[-1300794,-349368],[-1277019,-464522],[-1233920,-497542],[-1238353,-561612],[-1281635,-686688],[-1323036,-790951],[-1351012,-802438],[-1333896,-844630],[-1245038,-891738],[-1227163,-910854],[-1173042,-921562],[-1164737,-905586],[-1110573,-943925],[-1089804,-958124],[-1065987,-979210],[-968784,-986649],[-973846,-931480],[-952620,-903619],[-882696,-869408],[-839555,-898678],[-804108,-897084],[-779102,-924527],[-723727,-948830],[-691938,-941710],[-614402,-887346],[-611040,-883323],[-609312,-885779],[-604763,-884376],[-589114,-841600],[-641196,-823371],[-631271,-775694],[-658297,-727902],[-613996,-701134],[-637438,-664068],[-618342,-642040],[-632845,-585678],[-657815,-581187],[-687566,-609393],[-685985,-578109],[-603836,-487467],[-597940,-469445],[-554693,-462390]]],[[[-452411,-1004633],[-517354,-1027937],[-531149,-1048118],[-517724,-1134724],[-487745,-1159699],[-451707,-1079720],[-452411,-1004633]]]]},"properties":{"code":"FRA","name":"France"}},
{"type":"Feature","geometry":{"type":"Polygon","coordinates":[[[275970,938680],[259366,924381],[280569,910297],[275970,938680]]]},"properties":{"code":"ALD","name":"Åland"}},
{"type":"Feature","geometry":{"type":"Polygon","coordinates":[[[420591,1561590],[480753,1533581],[488983,1465377],[455518,1453926],[406292,1346374],[374366,1315024],[368050,1276689],[330424,1261114],[337612,1243397],[314218,1194850],[328715,1125524],[351456,1083193],[345073,1012957],[353127,972268],[418616,954663],[416235,915108],[436258,938164],[472365,916634],[520241,928978],[587678,971276],[700081,1013030],[777355,1143025],[832286,1272095],[835878,1309359],[809600,1340087],[738138,1385401],[755058,1420337],[727251,1453526],[715310,1496345],[688373,1513645],[673395,1638081],[615583,1725663],[635073,1811268],[599204,1845862],[569048,1854107],[553170,1884663],[559986,1946338],[550590,2017814],[493595,2050408],[444996,2025177],[430533,1993390],[433037,1919643],[407816,1871438],[360178,1888612],[341069,1868738],[302906,1872240],[264277,1929414],[226845,1900165],[288555,1848602],[322557,1837863],[364514,1794274],[364878,1738089],[397237,1670853],[396283,1601559],[420591,1561590]]]},"properties":{"code":"FIN","name":"Finland"}},
{"type":"Feature","geometry":{"type":"MultiPolygon","coordinates":[[[[736626,678956],[753811,717455],[729670,761731],[716756,824115],[744282,889555],[676991,886121],[591655,893713],[590019,880199],[531125,866460],[485117,829557],[485366,798759],[512564,739283],[556888,744270],[552207,689308],[595405,716913],[650771,699799],[688225,671098],[736626,678956]]],[[[442417,760355],[400117,742159],[423021,706085],[483309,749515],[442417,760355]]],[[[457467,785032],[434972,811038],[406243,792676],[437223,767494],[457467,785032]]]]},"properties":{"code":"EST","name":"Estonia"}},
{"type":"Feature","geometry":{"type":"Polygon","coordinates":[[[-1108722,1309717],[-1133243,1324488],[-1121807,1286007],[-1108722,1309717]]]},"properties":{"code":"FRO","name":"Faeroe Is."}},
{"type":"Feature","geometry":{"type":"MultiPolygon","coordinates":[[[[-337857,326742],[-354320,351871],[-341686,401560],[-301522,440212],[-290448,478265],[-256587,485394],[-255738,510563],[-289609,523674],[-270336,591875],[-266234,646490],[-301463,631613],[-328886,594742],[-386481,585978],[-409461,559139],[-381074,542366],[-389517,517445],[-419446,532636],[-432401,421229],[-403873,398288],[-405583,340894],[-337857,326742]]],[[[-152594,423774],[-150894,454781],[-195734,445835],[-200015,415891],[-220318,444222],[-252686,421189],[-236428,362680],[-213146,359586],[-201924,312923],[-176189,389156],[-152594,423774]]],[[[-274404,409999],[-324512,402785],[-319228,363097],[-268762,356540],[-274404,409999]]]]},"properties":{"code":"DNK","name":"Denmark"}},
{"type":"Feature","geometry":{"type":"Polygon","coordinates":[[[277440,-269660],[255966,-229697],[206193,-221535],[133588,-173278],[120141,-210275],[86013,-174650],[100570,-157712],[24979,-132137],[-439,-109660],[-13422,-126927],[-44389,-122332],[-181278,-180433],[-195064,-214161],[-171663,-279640],[-87156,-358896],[-70154,-377426],[-22777,-378194],[-2038,-335473],[77762,-360391],[108602,-354822],[144093,-376377],[160604,-346762],[202304,-342336],[230070,-300129],[277440,-269660]]]},"properties":{"code":"CZE","name":"Czechia"}},
{"type":"Feature","geometry":{"type":"MultiPolygon","coordinates":[[[[-111270,-719552],[-108046,-764971],[-81920,-795633],[-53956,-740240],[-11468,-768969],[-8320,-810508],[37684,-858595],[9840,-860389],[79885,-941569],[154583,-954246],[211584,-1002871],[184516,-947503],[138261,-911806],[58424,-803657],[62045,-757785],[102132,-776102],[120418,-752690],[221794,-765121],[288752,-762291],[317065,-783973],[325409,-747173],[303126,-666614],[261557,-688508],[218505,-686136],[179195,-664637],[116501,-610299],[49140,-644496],[48608,-685210],[21594,-696631],[26586,-726085],[-111270,-719552]]],[[[282992,-1041986],[218479,-1007203],[290281,-1055706],[282992,-1041986]]]]},"properties":{"code":"HRV","name":"Croatia"}},
{"type":"Feature","geometry":{"type":"Polygon","coordinates":[[[1076641,-1020633],[1024787,-973371],[1052618,-936922],[1048084,-888548],[1087276,-858650],[1090192,-818269],[964049,-792245],[897695,-820680],[845531,-866053],[661112,-866530],[615606,-830787],[595371,-858529],[611878,-918507],[648881,-944372],[611110,-986771],[619885,-1030607],[606427,-1046078],[650384,-1077299],[667350,-1106317],[663989,-1149048],[723436,-1136886],[794864,-1109767],[859939,-1135704],[932293,-1103970],[941709,-1070998],[962066,-1040029],[1015885,-1018530],[1038212,-1032652],[1076641,-1020633]]]},"properties":{"code":"BGR","name":"Bulgaria"}},
{"type":"Feature","geometry":{"type":"Polygon","coordinates":[[[339709,-931101],[362415,-910880],[341256,-883075],[367950,-872790],[331814,-846120],[343982,-781164],[317065,-783973],[288752,-762291],[221794,-765121],[120418,-752690],[102132,-776102],[62045,-757785],[58424,-803657],[138261,-911806],[184516,-947503],[211584,-1002871],[218479,-1007203],[282992,-1041986],[281673,-996726],[339709,-931101]]]},"properties":{"code":"BIH","name":"Bosnia and Herz."}},
{"type":"Feature","geometry":{"type":"Polygon","coordinates":[[[-746860,-13023],[-772135,-29354],[-807172,-4655],[-869014,-26029],[-854380,-72106],[-834597,-67750],[-803378,-124071],[-768993,-138149],[-773522,-169713],[-722317,-157331],[-727081,-195772],[-685397,-232535],[-664755,-232105],[-662775,-189559],[-633584,-170598],[-613471,-151129],[-633764,-99957],[-657241,-86531],[-640236,-57033],[-726392,-6095],[-746860,-13023]]]},"properties":{"code":"BEL","name":"Belgium"}},
{"type":"Feature","geometry":{"type":"Polygon","coordinates":[[[1136968,142964],[1086497,256794],[1136160,256518],[1165906,292078],[1139957,326694],[1092414,328692],[1088440,355941],[1060210,365380],[1030956,410526],[1007397,420635],[1011903,452250],[994512,507819],[946557,528696],[904306,501469],[891940,527900],[856380,521250],[812588,535667],[784580,491565],[726301,466803],[723751,429674],[744924,425288],[693533,377190],[684487,307235],[638806,262932],[555812,248479],[594588,150785],[596717,110264],[558361,60064],[587554,46197],[595723,-18467],[642806,26611],[748520,46625],[834013,42073],[845299,28326],[951017,35781],[971994,52017],[991375,29165],[1044542,50972],[1075524,33320],[1066960,69307],[1086234,125003],[1136968,142964]]]},"properties":{"code":"BLR","name":"Belarus"}},
{"type":"Feature","geometry":{"type":"Polygon","coordinates":[[[-413991,-510571],[-411686,-534518],[-346776,-560317],[-303575,-570364],[-285871,-551408],[-215070,-542718],[-199883,-585457],[-99852,-608353],[-38210,-620561],[52,-597487],[73339,-591277],[83418,-570518],[110614,-554109],[116367,-471697],[155163,-475171],[160289,-441852],[138207,-400094],[144093,-376377],[108602,-354822],[77762,-360391],[-2038,-335473],[-22777,-378194],[-70154,-377426],[-87156,-358896],[-97893,-385830],[-162656,-424561],[-149751,-500829],[-209462,-472199],[-303449,-503481],[-344005,-485216],[-354394,-509912],[-394948,-477990],[-412238,-482453],[-413991,-510571]]]},"properties":{"code":"AUT","name":"Austria"}},
{"type":"Feature","geometry":{"type":"Polygon","coordinates":[[[-1089804,-958124],[-1110573,-943925],[-1108878,-962442],[-1089804,-958124]]]},"properties":{"code":"AND","name":"Andorra"}},
{"type":"Feature","geometry":{"type":"Polygon","coordinates":[[[361624,-1114488],[381688,-1122348],[369127,-1252225],[383470,-1297015],[415905,-1313441],[430909,-1349455],[463025,-1336939],[511819,-1238392],[504633,-1217745],[461377,-1174134],[463320,-1107294],[453995,-1069156],[416927,-1035800],[382745,-1028986],[354719,-1081235],[361624,-1114488]]]},"properties":{"code":"ALB","name":"Albania"}}
]}