{"type": "FeatureCollection", "features": [{"type": "Feature", "geometry": {"type": "Point", "coordinates": [-212044, -1117530]}, "properties": {"code": "VAT", "name": "Vatican", "capital": "Vatican City"}}, {"type": "Feature", "geometry": {"type": "Point", "coordinates": [-205838, -892438]}, "properties": {"code": "SMR", "name": "San Marino", "capital": "San Marino"}}, {"type": "Feature", "geometry": {"type": "Point", "coordinates": [-415901, -525699]}, "properties": {"code": "LIE", "name": "Liechtenstein", "capital": "Vaduz"}}, {"type": "Feature", "geometry": {"type": "Point", "coordinates": [-639369, -227018]}, "properties": {"code": "LUX", "name": "Luxembourg", "capital": "Luxembourg"}}, {"type": "Feature", "geometry": {"type": "Point", "coordinates": [-611975, -886712]}, "properties": {"code": "MCO", "name": "Monaco", "capital": "Monaco"}}, {"type": "Feature", "geometry": {"type": "Point", "coordinates": [-1104200, -954690]}, "properties": {"code": "AND", "name": "Andorra", "capital": "Andorra"}}, {"type": "Feature", "geometry": {"type": "Point", "coordinates": [-37581, -660731]}, "properties": {"code": "SVN", "name": "Slovenia", "capital": "Ljubljana"}}, {"type": "Feature", "geometry": {"type": "Point", "coordinates": [157575, -425912]}, "properties": {"code": "SVK", "name": "Slovakia", "capital": "Bratislava"}}, {"type": "Feature", "geometry": {"type": "Point", "coordinates": [351817, -1048859]}, "properties": {"code": "MNE", "name": "Montenegro", "capital": "Podgorica"}}, {"type": "Feature", "geometry": {"type": "Point", "coordinates": [-573202, -536058]}, "properties": {"code": "CHE", "name": "Switzerland", "capital": "Bern"}}, {"type": "Feature", "geometry": {"type": "Point", "coordinates": [506437, -1015842]}, "properties": {"code": "KOS", "name": "Kosovo", "capital": "Pristina"}}, {"type": "Feature", "geometry": {"type": "Point", "coordinates": [534217, -1087614]}, "properties": {"code": "MKD", "name": "North Macedonia", "capital": "Skopje"}}, {"type": "Feature", "geometry": {"type": "Point", "coordinates": [-1709569, 1817491]}, "properties": {"code": "ISL", "name": "Iceland", "capital": "Reykjav\u00edk"}}, {"type": "Feature", "geometry": {"type": "Point", "coordinates": [1047740, -457027]}, "properties": {"code": "MDA", "name": "Moldova", "capital": "Chi\u0219in\u0103u"}}, {"type": "Feature", "geometry": {"type": "Point", "coordinates": [662979, 346079]}, "properties": {"code": "LTU", "name": "Lithuania", "capital": "Vilnius"}}, {"type": "Feature", "geometry": {"type": "Point", "coordinates": [552596, 585960]}, "properties": {"code": "LVA", "name": "Latvia", "capital": "Riga"}}, {"type": "Feature", "geometry": {"type": "Point", "coordinates": [77844, -688668]}, "properties": {"code": "HRV", "name": "Croatia", "capital": "Zagreb"}}, {"type": "Feature", "geometry": {"type": "Point", "coordinates": [551287, 864836]}, "properties": {"code": "EST", "name": "Estonia", "capital": "Tallinn"}}, {"type": "Feature", "geometry": {"type": "Point", "coordinates": [432674, -782035]}, "properties": {"code": "SRB", "name": "Serbia", "capital": "Belgrade"}}, {"type": "Feature", "geometry": {"type": "Point", "coordinates": [404787, -1171905]}, "properties": {"code": "ALB", "name": "Albania", "capital": "Tirana"}}, {"type": "Feature", "geometry": {"type": "Point", "coordinates": [681999, -996819]}, "properties": {"code": "BGR", "name": "Bulgaria", "capital": "Sofia"}}, {"type": "Feature", "geometry": {"type": "Point", "coordinates": [821209, 283166]}, "properties": {"code": "BLR", "name": "Belarus", "capital": "Minsk"}}, {"type": "Feature", "geometry": {"type": "Point", "coordinates": [272562, -899342]}, "properties": {"code": "BIH", "name": "Bosnia and Herzegovina", "capital": "Sarajevo"}}, {"type": "Feature", "geometry": {"type": "Point", "coordinates": [-44233, -1783187]}, "properties": {"code": "MLT", "name": "Malta", "capital": "Valletta"}}, {"type": "Feature", "geometry": {"type": "Point", "coordinates": [307526, -491705]}, "properties": {"code": "HUN", "name": "Hungary", "capital": "Budapest"}}, {"type": "Feature", "geometry": {"type": "Point", "coordinates": [881700, -775021]}, "properties": {"code": "ROU", "name": "Romania", "capital": "Bucharest"}}, {"type": "Feature", "geometry": {"type": "Point", "coordinates": [-2073757, -1139657]}, "properties": {"code": "PRT", "name": "Portugal", "capital": "Lisbon"}}, {"type": "Feature", "geometry": {"type": "Point", "coordinates": [-238279, 888038]}, "properties": {"code": "NOR", "name": "Norway", "capital": "Oslo"}}, {"type": "Feature", "geometry": {"type": "Point", "coordinates": [409775, 42597]}, "properties": {"code": "POL", "name": "Poland", "capital": "Warsaw"}}, {"type": "Feature", "geometry": {"type": "Point", "coordinates": [-1392335, 356181]}, "properties": {"code": "IRL", "name": "Ireland", "capital": "Dublin"}}, {"type": "Feature", "geometry": {"type": "Point", "coordinates": [-41302, -212655]}, "properties": {"code": "CZE", "name": "Czechia", "capital": "Prague"}}, {"type": "Feature", "geometry": {"type": "Point", "coordinates": [550852, 946819]}, "properties": {"code": "FIN", "name": "Finland", "capital": "Helsinki"}}, {"type": "Feature", "geometry": {"type": "Point", "coordinates": [-153451, 412162]}, "properties": {"code": "DNK", "name": "Denmark", "capital": "K\u00f8benhavn"}}, {"type": "Feature", "geometry": {"type": "Point", "coordinates": [-748514, -74870]}, "properties": {"code": "BEL", "name": "Belgium", "capital": "Brussels"}}, {"type": "Feature", "geometry": {"type": "Point", "coordinates": [1092842, -57688]}, "properties": {"code": "UKR", "name": "Ukraine", "capital": "Kyiv"}}, {"type": "Feature", "geometry": {"type": "Point", "coordinates": [-1575825, -1091496]}, "properties": {"code": "ESP", "name": "Spain", "capital": "Madrid"}}, {"type": "Feature", "geometry": {"type": "Point", "coordinates": [174895, 818593]}, "properties": {"code": "SWE", "name": "Sweden", "capital": "Stockholm"}}, {"type": "Feature", "geometry": {"type": "Point", "coordinates": [-684660, 86700]}, "properties": {"code": "NLD", "name": "Netherlands", "capital": "Amsterdam"}}, {"type": "Feature", "geometry": {"type": "Point", "coordinates": [-108617, 59475]}, "properties": {"code": "DEU", "name": "Germany", "capital": "Berlin"}}, {"type": "Feature", "geometry": {"type": "Point", "coordinates": [770733, -1509794]}, "properties": {"code": "GRC", "name": "Greece", "capital": "Athens"}}, {"type": "Feature", "geometry": {"type": "Point", "coordinates": [101484, -421460]}, "properties": {"code": "AUT", "name": "Austria", "capital": "Vienna"}}, {"type": "Feature", "geometry": {"type": "Point", "coordinates": [-1041141, 52997]}, "properties": {"code": "GBR", "name": "United Kingdom", "capital": "London"}}, {"type": "Feature", "geometry": {"type": "Point", "coordinates": [-209739, -1118203]}, "properties": {"code": "ITA", "name": "Italy", "capital": "Rome"}}, {"type": "Feature", "geometry": {"type": "Point", "coordinates": [-923089, -269928]}, "properties": {"code": "FRA", "name": "France", "capital": "Paris"}}]}