{"type":"FeatureCollection", "features": [
{"type":"Feature","geometry":{"type":"MultiPolygon","coordinates":[[[[-350214,16607],[-373687,13680],[-347554,-72393],[-300461,-55651],[-314575,5058],[-342765,-19880],[-350214,16607]]],[[[-276806,-122900],[-272246,-173660],[-231036,-161562],[-276806,-122900]]],[[[-70154,-436080],[-90390,-401950],[-106815,-428600],[-70154,-436080]]]]},"properties":{"code":"VUT","name":"Vanuatu"}},
{"type":"Feature","geometry":{"type":"Polygon","coordinates":[[[-1312822,2376062],[-1315011,2390990],[-1332909,2389699],[-1312822,2376062]]]},"properties":{"code":"FSM","name":"Micronesia"}},
{"type":"Feature","geometry":{"type":"Polygon","coordinates":[[[124003,2433205],[123279,2430064],[142161,2425600],[124003,2433205]]]},"properties":{"code":"MHL","name":"Marshall Is."}},
{"type":"Feature","geometry":{"type":"Polygon","coordinates":[[[1537746,-739190],[1517715,-730726],[1537380,-749706],[1537746,-739190]]]},"properties":{"code":"TON","name":"Tonga"}},
{"type":"Feature","geometry":{"type":"MultiPolygon","coordinates":[[[[-1347568,714098],[-1384829,740858],[-1405473,703100],[-1347568,714098]]],[[[-1125813,609797],[-1138909,580445],[-1112573,552770],[-1006759,549088],[-1059113,595995],[-1125813,609797]]],[[[-1114335,692193],[-1119004,714996],[-1243394,789834],[-1274066,795055],[-1218772,742500],[-1114335,692193]]],[[[-1381599,813723],[-1425299,852985],[-1497214,876141],[-1423954,812338],[-1381599,813723]]],[[[-1019446,720323],[-1036234,718113],[-1003150,627503],[-952612,581378],[-972478,650243],[-1019446,720323]]],[[[-907019,494545],[-952481,513218],[-925817,474031],[-833804,448662],[-864193,488619],[-907019,494545]]]]},"properties":{"code":"SLB","name":"Solomon Is."}},
{"type":"Feature","geometry":{"type":"Polygon","coordinates":[[[1904109,95612],[1856166,93564],[1912873,56867],[1904109,95612]]]},"properties":{"code":"WSM","name":"Samoa"}},
{"type":"Feature","geometry":{"type":"MultiPolygon","coordinates":[[[[-1889533,1071058],[-1872852,1117146],[-1886588,1143768],[-1981600,1215095],[-2134002,1298136],[-2133355,1282561],[-1979820,1204566],[-1933126,1153122],[-1922003,1097700],[-1889533,1071058]]],[[[-2007028,1114510],[-2047850,1111422],[-2031266,1047339],[-2068727,1036077],[-2107404,981443],[-2178424,963580],[-2200042,973868],[-2293327,950347],[-2391725,945371],[-2384273,921255],[-2244773,873746],[-2160208,881999],[-2074590,928331],[-2045166,971578],[-1977263,998171],[-1993147,1036525],[-1951877,1069752],[-1952930,1113249],[-2007028,1114510]]],[[[-3155749,460706],[-3138012,451153],[-3022075,471064],[-2976051,458441],[-2902993,508655],[-2938062,578742],[-2883545,597427],[-2792812,679098],[-2740985,657845],[-2624731,638514],[-2545578,538922],[-2421589,432774],[-2205826,420394],[-2142555,391827],[-2108196,439386],[-2195507,459536],[-2187474,499831],[-2272548,521111],[-2270254,559114],[-2342153,554962],[-2382228,607433],[-2398551,656763],[-2505158,728862],[-2533183,776971],[-2517462,801789],[-2439065,815533],[-2446051,854014],[-2494611,890760],[-2532013,890952],[-2675290,935974],[-2676591,1001288],[-2726234,1046045],[-2753260,1047553],[-2822633,1100079],[-2873022,1099853],[-2930080,1134076],[-3072692,1158871],[-3209327,1198126],[-3198875,1015048],[-3177411,711522],[-3155749,460706]]],[[[-2549371,1334875],[-2594367,1329531],[-2605367,1302229],[-2533232,1311322],[-2549371,1334875]]],[[[-2176480,1285206],[-2200605,1314484],[-2229490,1302372],[-2176480,1285206]]],[[[-2129791,539906],[-2137765,508024],[-2087971,507247],[-2129791,539906]]],[[[-1552288,876320],[-1651697,989378],[-1692551,1006567],[-1684573,948457],[-1636936,913734],[-1619561,868648],[-1577728,855325],[-1552288,876320]]]]},"properties":{"code":"PNG","name":"Papua New Guinea"}},
{"type":"Feature","geometry":{"type":"Polygon","coordinates":[[[-3919662,2259745],[-3913031,2298054],[-3927921,2275257],[-3919662,2259745]]]},"properties":{"code":"PLW","name":"Palau"}},
{"type":"Feature","geometry":{"type":"MultiPolygon","coordinates":[[[[268036,-2889422],[229473,-2806323],[184899,-2852088],[172642,-2905734],[127017,-2943043],[106141,-3008416],[62404,-3064788],[-98920,-3179648],[-135193,-3189673],[-242352,-3303238],[-230771,-3333841],[-281157,-3377904],[-261956,-3418837],[-185799,-3416860],[-128859,-3460221],[-24983,-3453789],[56613,-3361049],[92640,-3285505],[119307,-3195296],[180895,-3170242],[254461,-3169224],[228706,-3112751],[270809,-3072811],[366182,-2941674],[349368,-2907560],[371378,-2863774],[322800,-2859207],[268036,-2889422]]],[[[-147143,-3487899],[-176224,-3470943],[-195286,-3530981],[-139063,-3510004],[-147143,-3487899]]],[[[303273,-2199976],[288280,-2229253],[361029,-2336798],[401680,-2344830],[381972,-2371846],[442611,-2516608],[408140,-2622313],[339862,-2659012],[346232,-2699322],[438296,-2750032],[457728,-2787265],[398660,-2893789],[454650,-2930364],[514915,-2889526],[596837,-2778355],[623941,-2726863],[612625,-2693112],[654787,-2663840],[697624,-2683166],[708014,-2627305],[735335,-2610036],[766927,-2517883],[720855,-2500528],[657036,-2545082],[543450,-2497816],[532844,-2427277],[497930,-2373442],[501226,-2452755],[428900,-2411190],[438742,-2353446],[399361,-2236253],[303273,-2199976]]],[[[1144862,-3205022],[1088492,-3209000],[1126975,-3236930],[1144862,-3205022]]]]},"properties":{"code":"NZL","name":"New Zealand"}},
{"type":"Feature","geometry":{"type":"Polygon","coordinates":[[[-341207,1595942],[-346242,1597807],[-345904,1592613],[-341207,1595942]]]},"properties":{"code":"NRU","name":"Nauru"}},
{"type":"Feature","geometry":{"type":"Polygon","coordinates":[[[3621040,1661732],[3612439,1654928],[3638612,1646535],[3621040,1661732]]]},"properties":{"code":"KIR","name":"Kiribati"}},
{"type":"Feature","geometry":{"type":"MultiPolygon","coordinates":[[[[1067777,-153787],[1067943,-152057],[1019721,-160664],[904981,-215631],[926313,-237390],[980236,-210371],[1018915,-215919],[1067777,-153787]]],[[[879229,-279465],[808667,-286720],[769503,-329994],[774680,-353916],[829396,-375557],[916803,-359665],[910876,-311747],[879229,-279465]]]]},"properties":{"code":"FJI","name":"Fiji"}},
{"type":"Feature","geometry":{"type":"MultiPolygon","coordinates":[[[[-2891287,168513],[-2925143,179643],[-2934813,237273],[-2981741,300160],[-3009525,269411],[-3021257,159215],[-3043285,104272],[-3013287,56298],[-3043591,36271],[-3046949,-62229],[-3013395,-202385],[-3031279,-387641],[-3058632,-480032],[-3134671,-524466],[-3221140,-494281],[-3252825,-449406],[-3333746,-440978],[-3397267,-394613],[-3639908,-290464],[-3656937,-264975],[-3618511,-187850],[-3627903,-90250],[-3574291,-72489],[-3573287,-20971],[-3537394,35109],[-3585299,73401],[-3607130,14567],[-3668997,37726],[-3651154,78539],[-3717873,21711],[-3771746,40715],[-3822096,29681],[-3934822,46144],[-3955271,72393],[-3989497,60290],[-4037327,87526],[-4082377,71645],[-3988075,43632],[-3986256,-1568],[-4103633,-51150],[-4122139,-29762],[-4183638,-84263],[-4219963,-153797],[-4204286,-191848],[-4241410,-231359],[-4271155,-335233],[-4215360,-376169],[-4230196,-416337],[-4272321,-392821],[-4380837,-401011],[-4444841,-347541],[-4530602,-311468],[-4554659,-367107],[-4596121,-356985],[-4611367,-435146],[-4644896,-426347],[-4678876,-462320],[-4652185,-505534],[-4681814,-501734],[-4732378,-570037],[-4703801,-639129],[-4710052,-667790],[-4798795,-708740],[-4761351,-745816],[-4764449,-827059],[-4849998,-714979],[-4903455,-837373],[-4864101,-916773],[-4900964,-981405],[-4913985,-1063499],[-4953859,-1144625],[-5060850,-1222742],[-5106302,-1230886],[-5129582,-1271793],[-5175866,-1300471],[-5235401,-1363491],[-5300546,-1375829],[-5348982,-1440441],[-5380925,-1511123],[-5424100,-1557888],[-5457257,-1667640],[-5484730,-1591426],[-5490654,-1700167],[-5452182,-1789124],[-5456426,-1832355],[-5437868,-1918613],[-5308698,-2057338],[-5294729,-2123887],[-5351561,-2071002],[-5383365,-2067677],[-5317283,-2124426],[-5356514,-2151112],[-5256080,-2235643],[-5210364,-2315306],[-5157978,-2356148],[-5080902,-2444091],[-5039762,-2531723],[-4995766,-2592789],[-4909700,-2676013],[-4833730,-2844206],[-4828879,-2887261],[-4869975,-2902228],[-4828824,-2984042],[-4759386,-2990969],[-4674017,-3017045],[-4586462,-2996171],[-4549533,-2967038],[-4516348,-2888217],[-4478280,-2859431],[-4465818,-2804021],[-4348770,-2743200],[-4280794,-2740673],[-4234690,-2712275],[-4195229,-2711396],[-4165991,-2682676],[-4158295,-2591645],[-4043882,-2452900],[-3926160,-2414483],[-3808231,-2313275],[-3624307,-2240512],[-3512367,-2274121],[-3466450,-2256973],[-3388830,-2265592],[-3316409,-2292168],[-3289758,-2358980],[-3241410,-2367199],[-3187536,-2423191],[-3112515,-2527797],[-3074803,-2412708],[-3016804,-2353502],[-2992616,-2254456],[-2957059,-2335269],[-2977499,-2407322],[-2962458,-2491888],[-2995092,-2499149],[-2995764,-2537149],[-2928944,-2511588],[-2924949,-2397466],[-2861415,-2483822],[-2871190,-2554172],[-2804221,-2536753],[-2737958,-2583180],[-2693811,-2639716],[-2681795,-2704668],[-2585511,-2775745],[-2507610,-2799162],[-2484903,-2784329],[-2404180,-2790016],[-2314765,-2816082],[-2235607,-2733287],[-2224461,-2696339],[-2164122,-2758391],[-2090322,-2783924],[-2035549,-2752752],[-1999951,-2697545],[-1933757,-2644508],[-1843910,-2629093],[-1794148,-2592067],[-1805958,-2517324],[-1805544,-2404241],[-1773754,-2327128],[-1765751,-2227822],[-1743188,-2183865],[-1748289,-2145830],[-1711930,-2065881],[-1658318,-2008634],[-1629653,-1893707],[-1634623,-1796959],[-1622667,-1653708],[-1603940,-1603292],[-1615113,-1535760],[-1674092,-1424271],[-1685581,-1287668],[-1717426,-1231009],[-1834396,-1103913],[-1877192,-1086871],[-1950692,-1031815],[-1970498,-934545],[-2045616,-895767],[-2050650,-939832],[-2092978,-911209],[-2116665,-837078],[-2148178,-789182],[-2208724,-734065],[-2189533,-720779],[-2223118,-686423],[-2296964,-663246],[-2354654,-614028],[-2454963,-591556],[-2477553,-534532],[-2512442,-506694],[-2511584,-434085],[-2542365,-373407],[-2600558,-304645],[-2628735,-202117],[-2633782,-141968],[-2727887,-71928],[-2778449,-104342],[-2801384,-94107],[-2859773,94005],[-2894436,128258],[-2891287,168513]]],[[[-1697018,-1264825],[-1678571,-1186179],[-1708076,-1203392],[-1697018,-1264825]]],[[[-3539046,-134348],[-3567823,-146018],[-3571285,-187038],[-3512696,-187154],[-3539046,-134348]]],[[[-4213355,-497],[-4231375,36819],[-4244106,-23529],[-4213355,-497]]],[[[-4202291,37563],[-4209062,7599],[-4159179,-19799],[-4107584,47578],[-4139213,71134],[-4202291,37563]]],[[[-2917860,-2578644],[-2945265,-2567452],[-2999861,-2597576],[-2980296,-2626517],[-2919521,-2618171],[-2878516,-2572265],[-2917860,-2578644]]],[[[-2132636,-3007262],[-2162845,-2999469],[-2136556,-3079218],[-2049236,-3169706],[-2078672,-3160787],[-2035160,-3231599],[-1972611,-3290668],[-1904101,-3286774],[-1884462,-3207102],[-1826958,-3223975],[-1846729,-3161836],[-1829304,-3099901],[-1857152,-2982100],[-1888464,-2967970],[-1925899,-2998375],[-2016375,-3030569],[-2132636,-3007262]]],[[[-1910866,-2856986],[-1927930,-2872085],[-1889670,-2910321],[-1880126,-2878062],[-1910866,-2856986]]]]},"properties":{"code":"AUS","name":"Australia"}},
{"type":"Feature","geometry":{"type":"Polygon","coordinates":[[[1014733,697196],[1013745,703651],[1012726,696102],[1014733,697196]]]},"properties":{"code":"TUV","name":"Tuvalu"}}
]}