{"type": "FeatureCollection", "features": [{"type": "Feature", "geometry": {"type": "Point", "coordinates": [-1331222, 2386680]}, "properties": {"code": "FSM", "name": "Federated States of Micronesia", "capital": "Palikir"}}, {"type": "Feature", "geometry": {"type": "Point", "coordinates": [155292, 2429270]}, "properties": {"code": "MHL", "name": "Marshall Islands", "capital": "Majuro"}}, {"type": "Feature", "geometry": {"type": "Point", "coordinates": [1015084, 698022]}, "properties": {"code": "TUV", "name": "Tuvalu", "capital": "Funafuti"}}, {"type": "Feature", "geometry": {"type": "Point", "coordinates": [-3916127, 2272127]}, "properties": {"code": "PLW", "name": "Palau", "capital": "Melekeok"}}, {"type": "Feature", "geometry": {"type": "Point", "coordinates": [339170, 1799306]}, "properties": {"code": "KIR", "name": "Kiribati", "capital": "Tarawa"}}, {"type": "Feature", "geometry": {"type": "Point", "coordinates": [-178590, -303152]}, "properties": {"code": "VUT", "name": "Vanuatu", "capital": "Port Vila"}}, {"type": "Feature", "geometry": {"type": "Point", "coordinates": [-2488594, 494777]}, "properties": {"code": "PNG", "name": "Papua New Guinea", "capital": "Port Moresby"}}, {"type": "Feature", "geometry": {"type": "Point", "coordinates": [-1103378, 592384]}, "properties": {"code": "SLB", "name": "Solomon Islands", "capital": "Honiara"}}, {"type": "Feature", "geometry": {"type": "Point", "coordinates": [892703, -364478]}, "properties": {"code": "FJI", "name": "Fiji", "capital": "Suva"}}, {"type": "Feature", "geometry": {"type": "Point", "coordinates": [-1912589, -2356149]}, "properties": {"code": "AUS", "name": "Australia", "capital": "Canberra"}}, {"type": "Feature", "geometry": {"type": "Point", "coordinates": [1532007, -735319]}, "properties": {"code": "TON", "name": "Tonga", "capital": "Nuku'alofa"}}, {"type": "Feature", "geometry": {"type": "Point", "coordinates": [1961225, 49425]}, "properties": {"code": "WSM", "name": "Samoa", "capital": "Apia"}}, {"type": "Feature", "geometry": {"type": "Point", "coordinates": [410834, -2894443]}, "properties": {"code": "NZL", "name": "New Zealand", "capital": "Wellington"}}]}