{"type":"FeatureCollection", "features": [
{"type":"Feature","geometry":{"type":"Polygon","coordinates":[[[1313957,-831748],[1320725,-752921],[1243267,-773002],[1260141,-819901],[1216638,-844410],[1313957,-831748]]]},"properties":{"code":"TTO","name":"Trinidad and Tobago"}},
{"type":"Feature","geometry":{"type":"Polygon","coordinates":[[[1280374,-497565],[1283058,-475080],[1269514,-483795],[1280374,-497565]]]},"properties":{"code":"VCT","name":"St. Vin. and Gren."}},
{"type":"Feature","geometry":{"type":"Polygon","coordinates":[[[1306554,-422088],[1303529,-392060],[1287908,-412814],[1306554,-422088]]]},"properties":{"code":"LCA","name":"Saint Lucia"}},
{"type":"Feature","geometry":{"type":"Polygon","coordinates":[[[1100871,-53748],[1082559,-36668],[1078251,-43947],[1100871,-53748]]]},"properties":{"code":"KNA","name":"St. Kitts and Nevis"}},
{"type":"Feature","geometry":{"type":"Polygon","coordinates":[[[-450005,55803],[-550823,57350],[-505133,-7121],[-445910,-26541],[-408037,1307],[-340147,-6646],[-354397,19997],[-450005,55803]]]},"properties":{"code":"JAM","name":"Jamaica"}},
{"type":"Feature","geometry":{"type":"Polygon","coordinates":[[[127988,190604],[-12334,210728],[-41569,183638],[31168,159529],[19884,118618],[68820,74827],[22253,48139],[-129529,73779],[-149984,38890],[-93698,4859],[-40732,27842],[13051,16801],[99435,25549],[130410,4765],[105502,66462],[141298,125674],[127988,190604]]]},"properties":{"code":"HTI","name":"Haiti"}},
{"type":"Feature","geometry":{"type":"Polygon","coordinates":[[[1228059,-627963],[1238728,-603950],[1227233,-608838],[1228059,-627963]]]},"properties":{"code":"GRD","name":"Grenada"}},
{"type":"Feature","geometry":{"type":"Polygon","coordinates":[[[130410,4765],[170232,-38441],[208526,31344],[297860,30122],[341085,52064],[429395,49865],[452473,29381],[491712,73882],[454497,105468],[355208,126989],[301075,183464],[214228,213053],[151044,210387],[127988,190604],[141298,125674],[105502,66462],[130410,4765]]]},"properties":{"code":"DOM","name":"Dominican Rep."}},
{"type":"Feature","geometry":{"type":"Polygon","coordinates":[[[1256432,-266280],[1250241,-229240],[1233438,-236930],[1256432,-266280]]]},"properties":{"code":"DMA","name":"Dominica"}},
{"type":"Feature","geometry":{"type":"MultiPolygon","coordinates":[[[[-904689,594367],[-1051036,580692],[-1133729,552198],[-1168360,522449],[-1187644,456559],[-1122789,496297],[-1068937,498912],[-999890,546799],[-914504,541096],[-934223,509743],[-908538,487600],[-773802,466176],[-714683,428153],[-583973,398353],[-570605,346745],[-520495,307781],[-440785,297800],[-428321,271342],[-493761,211773],[-330546,223109],[-239870,211050],[-131060,230643],[-118812,247415],[-196230,294410],[-275310,304578],[-269967,333417],[-378584,367406],[-464939,434413],[-479593,426563],[-585804,492772],[-646245,499349],[-685893,538011],[-783742,581968],[-904689,594367]]],[[[-989285,421955],[-1002917,458126],[-1041463,449295],[-1020193,409441],[-989285,421955]]]]},"properties":{"code":"CUB","name":"Cuba"}},
{"type":"Feature","geometry":{"type":"Polygon","coordinates":[[[1461932,-494405],[1468539,-486059],[1444002,-470975],[1461932,-494405]]]},"properties":{"code":"BRB","name":"Barbados"}},
{"type":"Feature","geometry":{"type":"MultiPolygon","coordinates":[[[[-473570,697983],[-508442,695681],[-466764,641298],[-473570,697983]]],[[[-424315,879825],[-406313,948613],[-420401,944404],[-424315,879825]]],[[[-2790,353343],[-54340,353250],[-68781,325250],[-17117,329752],[-2790,353343]]],[[[-480688,748878],[-502691,791284],[-551012,742134],[-512762,703296],[-480688,748878]]],[[[-547838,974665],[-566591,950670],[-493082,974630],[-547838,974665]]]]},"properties":{"code":"BHS","name":"Bahamas"}},
{"type":"Feature","geometry":{"type":"Polygon","coordinates":[[[1198906,-70672],[1187346,-56675],[1183861,-74208],[1198906,-70672]]]},"properties":{"code":"ATG","name":"Antigua and Barb."}}
]}