{"type": "FeatureCollection", "features": [{"type": "Feature", "geometry": {"type": "Point", "coordinates": [1256383, -777533]}, "properties": {"code": "TTO", "name": "Trinidad and Tobago", "capital": "Port-of-Spain"}}, {"type": "Feature", "geometry": {"type": "Point", "coordinates": [1244867, -261194]}, "properties": {"code": "DMA", "name": "Dominica", "capital": "Roseau"}}, {"type": "Feature", "geometry": {"type": "Point", "coordinates": [1448541, -493085]}, "properties": {"code": "BRB", "name": "Barbados", "capital": "Bridgetown"}}, {"type": "Feature", "geometry": {"type": "Point", "coordinates": [1275458, -498120]}, "properties": {"code": "VCT", "name": "Saint Vincent and the Grenadines", "capital": "Kingstown"}}, {"type": "Feature", "geometry": {"type": "Point", "coordinates": [1294948, -402108]}, "properties": {"code": "LCA", "name": "Saint Lucia", "capital": "Castries"}}, {"type": "Feature", "geometry": {"type": "Point", "coordinates": [1091366, -47371]}, "properties": {"code": "KNA", "name": "Saint Kitts and Nevis", "capital": "Basseterre"}}, {"type": "Feature", "geometry": {"type": "Point", "coordinates": [1225024, -623689]}, "properties": {"code": "GRD", "name": "Grenada", "capital": "Saint George's"}}, {"type": "Feature", "geometry": {"type": "Point", "coordinates": [1184210, -62530]}, "properties": {"code": "ATG", "name": "Antigua and Barbuda", "capital": "Saint John's"}}, {"type": "Feature", "geometry": {"type": "Point", "coordinates": [69894, 60222]}, "properties": {"code": "HTI", "name": "Haiti", "capital": "Port-au-Prince"}}, {"type": "Feature", "geometry": {"type": "Point", "coordinates": [-398949, 1492]}, "properties": {"code": "JAM", "name": "Jamaica", "capital": "Kingston"}}, {"type": "Feature", "geometry": {"type": "Point", "coordinates": [-439568, 789395]}, "properties": {"code": "BHS", "name": "The Bahamas", "capital": "Nassau"}}, {"type": "Feature", "geometry": {"type": "Point", "coordinates": [-958846, 593972]}, "properties": {"code": "CUB", "name": "Cuba", "capital": "Havana"}}, {"type": "Feature", "geometry": {"type": "Point", "coordinates": [324236, 54789]}, "properties": {"code": "DOM", "name": "Dominican Republic", "capital": "Santo Domingo"}}]}