{"type": "FeatureCollection", "features": [{"type": "Feature", "geometry": {"type": "Polygon", "coordinates": [[[-620901, -89118], [-624395, -88854], [-635377, -235937], [-644599, -359039], [-663740, -590266], [-811734, -578015], [-996506, -559220], [-990748, -584225], [-961589, -624025], [-941778, -636375], [-894619, -698414], [-859204, -721998], [-835478, -775628], [-825203, -836243], [-774316, -882961], [-709730, -923030], [-694705, -924173], [-667777, -897344], [-645075, -843777], [-607799, -830826], [-521898, -851635], [-455282, -926007], [-419884, -1021750], [-388191, -1054358], [-380408, -1075546], [-352613, -1094790], [-344080, -1159991], [-326975, -1180736], [-312701, -1227104], [-221805, -1270323], [-181253, -1271278], [-143986, -1295495], [-115772, -1281524], [-137594, -1161488], [-128795, -1121152], [-87472, -1055023], [-19077, -1003310], [60343, -962853], [136300, -895416], [209145, -869353], [200049, -857094], [221134, -828715], [217400, -774316], [235280, -731655], [234131, -702638], [220489, -690135], [207324, -645949], [184155, -613954], [181691, -499476], [180425, -440070], [139475, -431160], [106567, -420276], [70969, -395773], [-13933, -410578], [-33428, -425913], [-60573, -400912], [-83061, -397313], [-105766, -422237], [-110714, -400687], [-126177, -411073], [-153300, -391426], [-171399, -406957], [-178588, -390980], [-216307, -371559], [-291600, -362962], [-298780, -343445], [-337201, -342657], [-364065, -321483], [-354933, -104610], [-498834, -97336], [-620901, -89118]]]}, "properties": {"code": "TX", "name": "Texas", "fips": "48"}}, {"type": "Feature", "geometry": {"type": "MultiPolygon", "coordinates": [[[[-2168271, -111004], [-2166634, -120422], [-2119456, -124275], [-2168271, -111004]]], [[[-2207849, -98636], [-2191075, -123886], [-2181171, -110057], [-2207849, -98636]]], [[[-2286975, 845925], [-2296359, 824677], [-2293487, 782530], [-2312556, 735636], [-2353992, 683770], [-2356114, 663664], [-2328727, 605079], [-2341827, 553872], [-2346863, 503002], [-2315909, 442562], [-2304527, 385729], [-2283608, 357950], [-2271186, 386775], [-2257176, 331503], [-2262621, 313967], [-2283315, 350964], [-2291617, 285282], [-2251538, 230680], [-2273793, 209859], [-2275235, 177700], [-2261470, 157945], [-2241101, 94392], [-2214382, 59747], [-2220713, 40318], [-2201518, 20830], [-2217958, -37628], [-2204672, -56631], [-2131725, -78497], [-2095657, -125171], [-2044909, -145310], [-2041564, -179629], [-2017500, -183385], [-1968064, -250511], [-1959543, -281793], [-1964886, -319825], [-1957187, -337032], [-1733395, -363596], [-1707756, -354302], [-1721979, -329552], [-1718916, -288377], [-1697546, -275862], [-1690339, -234436], [-1647656, -205076], [-1678714, -129093], [-1675824, -114957], [-1805258, 78726], [-1885882, 199629], [-1969638, 325170], [-2037522, 426745], [-2010447, 530513], [-1953556, 751505], [-2151742, 807051], [-2286975, 845925]]]]}, "properties": {"code": "CA", "name": "California", "fips": "06"}}, {"type": "Feature", "geometry": {"type": "Polygon", "coordinates": [[[605025, -36172], [600014, -82887], [572967, -92795], [704698, -82551], [701261, -62821], [720865, -66203], [839332, -53018], [895523, -50441], [1088202, -32223], [1089283, -30022], [1134487, -7916], [1164671, 37973], [1194540, 59592], [1223687, 94740], [1192909, 107024], [1157317, 152719], [1155589, 184962], [1125127, 218519], [1093581, 196463], [1070965, 205081], [1011458, 209154], [985895, 241693], [955653, 236223], [960477, 200746], [907008, 186399], [911937, 168112], [880717, 134989], [874581, 105668], [838734, 115309], [816601, 79900], [798065, 94333], [774950, 66286], [745967, 83550], [706832, 77427], [694485, 62681], [694418, 27655], [659964, 15029], [662012, -22166], [620672, -7435], [605025, -36172]]]}, "properties": {"code": "KY", "name": "Kentucky", "fips": "21"}}, {"type": "Feature", "geometry": {"type": "Polygon", "coordinates": [[[939223, -230282], [1004025, -461773], [1038838, -524868], [1024929, -540782], [1020950, -574523], [1034081, -606029], [1032473, -646346], [1044769, -665725], [1061559, -696125], [1314582, -679255], [1334582, -698126], [1336355, -646493], [1385431, -652284], [1382328, -605997], [1390069, -595699], [1397467, -536343], [1414808, -498403], [1392292, -493118], [1378646, -455558], [1357561, -442988], [1340940, -399322], [1315433, -387805], [1294610, -355773], [1229410, -310817], [1192508, -256613], [1147404, -239011], [1163307, -200888], [1054572, -216405], [939223, -230282]]]}, "properties": {"code": "GA", "name": "Georgia", "fips": "13"}}, {"type": "Feature", "geometry": {"type": "Polygon", "coordinates": [[[305735, 1034818], [284687, 1029173], [287091, 963927], [254749, 941570], [243453, 906693], [262271, 892268], [253852, 874956], [252381, 817394], [273368, 796883], [320760, 774713], [327021, 760368], [364224, 736440], [381189, 711759], [384821, 681495], [399099, 654661], [394637, 615263], [437276, 573316], [668967, 588014], [668884, 620876], [653976, 678200], [665077, 720826], [660811, 742199], [675688, 781248], [676724, 823347], [706306, 904823], [687240, 889246], [673762, 856601], [638045, 813632], [629949, 817743], [644314, 861588], [660413, 878774], [636554, 905468], [639911, 941556], [615291, 961937], [534320, 984874], [453494, 1001477], [429071, 1025460], [403793, 1038018], [387639, 1026072], [401940, 1060316], [387639, 1071468], [369946, 1053129], [305735, 1034818]]]}, "properties": {"code": "WI", "name": "Wisconsin", "fips": "55"}}, {"type": "Feature", "geometry": {"type": "Polygon", "coordinates": [[[-2098955, 1285187], [-2133047, 1292690], [-2136862, 1263930], [-2166500, 1176325], [-2219788, 1048783], [-2237713, 1012995], [-2285910, 944108], [-2281103, 921260], [-2294351, 877684], [-2286975, 845925], [-2151742, 807051], [-1953556, 751505], [-1855994, 726785], [-1715671, 694689], [-1670749, 893444], [-1652731, 927174], [-1674395, 947373], [-1670375, 968288], [-1629117, 1010320], [-1584307, 1078643], [-1609574, 1127410], [-1765863, 1164673], [-1814216, 1167583], [-1865536, 1158572], [-1893611, 1168308], [-1942265, 1165236], [-1965013, 1185286], [-2025265, 1181103], [-2059495, 1206643], [-2053777, 1237422], [-2069268, 1267864], [-2098955, 1285187]]]}, "properties": {"code": "OR", "name": "Oregon", "fips": "41"}}, {"type": "Feature", "geometry": {"type": "Polygon", "coordinates": [[[19670, 345776], [29171, 316386], [58534, 280404], [96773, 252706], [75478, 230559], [119301, 181713], [121839, -55267], [122656, -111221], [323843, -106076], [518549, -96614], [527857, -117619], [502828, -153616], [559471, -149527], [571020, -133600], [572967, -92795], [600014, -82887], [605025, -36172], [584625, -30822], [568946, -5026], [575955, 9560], [565350, 41296], [501911, 81887], [487055, 106706], [505810, 166904], [458678, 172084], [450358, 209295], [393317, 259416], [378747, 308233], [385429, 331861], [358203, 356986], [240372, 349110], [123076, 345080], [19670, 345776]]]}, "properties": {"code": "MO", "name": "Missouri", "fips": "29"}}, {"type": "Feature", "geometry": {"type": "MultiPolygon", "coordinates": [[[[1756069, 239080], [1742058, 191690], [1749629, 140205], [1761397, 153389], [1770938, 219071], [1790551, 255421], [1756069, 239080]]], [[[1223687, 94740], [1194540, 59592], [1164671, 37973], [1134487, -7916], [1089283, -30022], [1264831, -6684], [1386652, 7716], [1542651, 34910], [1772269, 82072], [1752373, 120350], [1727934, 120033], [1703787, 162507], [1719303, 157770], [1706386, 196397], [1709236, 221988], [1671181, 243740], [1640095, 244862], [1629556, 259432], [1611720, 252764], [1603920, 266520], [1616516, 288232], [1620745, 306994], [1610777, 321300], [1578818, 331144], [1551960, 353865], [1546875, 331301], [1496311, 359728], [1497053, 324792], [1466664, 274109], [1454138, 280616], [1437154, 229332], [1403867, 243409], [1398150, 206222], [1355727, 102782], [1293247, 71023], [1279578, 80551], [1264586, 63383], [1238131, 68278], [1223687, 94740]]]]}, "properties": {"code": "VA", "name": "Virginia", "fips": "51"}}, {"type": "Feature", "geometry": {"type": "Polygon", "coordinates": [[[559471, -149527], [567912, -160827], [525807, -233116], [533734, -250150], [514827, -265048], [705276, -251515], [939223, -230282], [1054572, -216405], [1054767, -189528], [1077050, -178930], [1095743, -146482], [1120090, -143198], [1163027, -112586], [1189699, -77257], [1197637, -88369], [1224985, -61216], [1241652, -62691], [1266529, -34709], [1264831, -6684], [1089283, -30022], [1088202, -32223], [895523, -50441], [839332, -53018], [720865, -66203], [701261, -62821], [704698, -82551], [572967, -92795], [571020, -133600], [559471, -149527]]]}, "properties": {"code": "TN", "name": "Tennessee", "fips": "47"}}, {"type": "Feature", "geometry": {"type": "Polygon", "coordinates": [[[181691, -499476], [184155, -613954], [207324, -645949], [220489, -690135], [234131, -702638], [235280, -731655], [217400, -774316], [221134, -828715], [200049, -857094], [209145, -869353], [272812, -858822], [356276, -882482], [381107, -875477], [405162, -886847], [411964, -855975], [458998, -909411], [500058, -928541], [562565, -921732], [597939, -893566], [633613, -902705], [668394, -925057], [679480, -904787], [660003, -886486], [632212, -881571], [619089, -859791], [649927, -841423], [655265, -797325], [618965, -818283], [592683, -816169], [622277, -796140], [588421, -737561], [596716, -706352], [415280, -716850], [428449, -647061], [466148, -591564], [475362, -564175], [450786, -516996], [448705, -491620], [350650, -495510], [181691, -499476]]]}, "properties": {"code": "LA", "name": "Louisiana", "fips": "22"}}, {"type": "Feature", "geometry": {"type": "Polygon", "coordinates": [[[1324221, 647717], [1329427, 617852], [1485555, 646396], [1686348, 687337], [1708350, 674797], [1727333, 639575], [1754030, 629662], [1828096, 605475], [1810877, 544512], [1908107, 588236], [1986355, 645723], [1960774, 660807], [1934171, 631422], [1847619, 608741], [1848123, 644585], [1833457, 727866], [1832774, 807811], [1813685, 893856], [1796959, 903948], [1785132, 945199], [1785752, 990998], [1773617, 1008576], [1766937, 1051772], [1652521, 1025353], [1623976, 1001045], [1582329, 933998], [1559455, 912580], [1554657, 875013], [1573126, 869917], [1578944, 839796], [1528246, 799819], [1481567, 786512], [1462729, 794821], [1399752, 786079], [1360370, 766721], [1363705, 746374], [1387224, 718152], [1368720, 688989], [1324221, 647717]]]}, "properties": {"code": "NY", "name": "New York", "fips": "36"}}, {"type": "Feature", "geometry": {"type": "Polygon", "coordinates": [[[-1609574, 1127410], [-1584307, 1078643], [-1629117, 1010320], [-1670375, 968288], [-1674395, 947373], [-1652731, 927174], [-1670749, 893444], [-1715671, 694689], [-1622836, 674042], [-1475458, 643901], [-1318978, 615919], [-1232642, 602088], [-1209319, 747100], [-1189292, 874738], [-1206336, 905734], [-1248035, 888609], [-1284351, 901213], [-1294555, 889370], [-1318538, 899806], [-1334538, 888776], [-1346381, 934432], [-1367415, 947111], [-1365309, 971244], [-1381752, 1004426], [-1392075, 1048853], [-1420287, 1029401], [-1436022, 1041386], [-1435566, 1066290], [-1420071, 1074829], [-1418228, 1107447], [-1398670, 1157054], [-1415808, 1160141], [-1440736, 1190362], [-1460844, 1238272], [-1485730, 1261733], [-1480380, 1292085], [-1497435, 1329913], [-1474367, 1437639], [-1545552, 1453076], [-1576787, 1317450], [-1608527, 1174310], [-1609574, 1127410]]]}, "properties": {"code": "ID", "name": "Idaho", "fips": "16"}}, {"type": "Feature", "geometry": {"type": "MultiPolygon", "coordinates": [[[[1451445, -1327276], [1507359, -1307056], [1484738, -1295151], [1451445, -1327276]]], [[[1044769, -665725], [960530, -675925], [798881, -691272], [796752, -706147], [821147, -727249], [826569, -751362], [813628, -769949], [897031, -749170], [958899, -756856], [1021981, -789046], [1028298, -817486], [1058798, -822128], [1121538, -780025], [1118390, -767908], [1146089, -754086], [1185356, -769507], [1214289, -793437], [1243469, -832030], [1278473, -841963], [1295707, -867811], [1304525, -913621], [1290341, -950240], [1311307, -1009860], [1325230, -981646], [1338432, -988718], [1320781, -1018533], [1370871, -1096625], [1383665, -1125947], [1409863, -1126475], [1438102, -1181042], [1474612, -1189932], [1504635, -1226209], [1516302, -1256389], [1573742, -1238130], [1573465, -1249754], [1534835, -1298967], [1563939, -1276742], [1602569, -1205304], [1584891, -1206768], [1599508, -1182105], [1594525, -1082272], [1588463, -1050950], [1539292, -960763], [1517755, -929771], [1504431, -870479], [1457846, -816317], [1418997, -751007], [1385431, -652284], [1336355, -646493], [1334582, -698126], [1314582, -679255], [1061559, -696125], [1044769, -665725]]]]}, "properties": {"code": "FL", "name": "Florida", "fips": "12"}}, {"type": "Feature", "geometry": {"type": "Polygon", "coordinates": [[[385429, 331861], [378747, 308233], [393317, 259416], [450358, 209295], [458678, 172084], [505810, 166904], [487055, 106706], [501911, 81887], [565350, 41296], [575955, 9560], [568946, -5026], [584625, -30822], [605025, -36172], [620672, -7435], [662012, -22166], [659964, 15029], [694418, 27655], [694485, 62681], [695473, 112050], [706635, 120862], [730859, 173685], [714700, 218265], [722170, 239312], [699268, 502699], [668003, 566564], [668967, 588014], [437276, 573316], [479307, 530753], [479725, 497784], [468064, 473162], [412232, 450415], [406073, 430639], [421281, 398250], [408840, 366057], [390838, 358504], [385429, 331861]]]}, "properties": {"code": "IL", "name": "Illinois", "fips": "17"}}, {"type": "Feature", "geometry": {"type": "Polygon", "coordinates": [[[-1474367, 1437639], [-1497435, 1329913], [-1480380, 1292085], [-1485730, 1261733], [-1460844, 1238272], [-1440736, 1190362], [-1415808, 1160141], [-1398670, 1157054], [-1418228, 1107447], [-1420071, 1074829], [-1435566, 1066290], [-1436022, 1041386], [-1420287, 1029401], [-1392075, 1048853], [-1381752, 1004426], [-1365309, 971244], [-1367415, 947111], [-1346381, 934432], [-1334538, 888776], [-1318538, 899806], [-1294555, 889370], [-1284351, 901213], [-1248035, 888609], [-1206336, 905734], [-1189292, 874738], [-1179669, 932654], [-990942, 904800], [-806692, 881847], [-633753, 865532], [-623883, 970428], [-606262, 1175341], [-595594, 1306659], [-743235, 1320687], [-960192, 1347132], [-1143376, 1374557], [-1303307, 1402850], [-1474367, 1437639]]]}, "properties": {"code": "MT", "name": "Montana", "fips": "30"}}, {"type": "Feature", "geometry": {"type": "Polygon", "coordinates": [[[-91052, 1282100], [-81917, 1245411], [-86061, 1190477], [-64688, 1124433], [-60736, 1020951], [-46400, 985673], [-43768, 943016], [-64421, 911950], [-35882, 873239], [-36488, 671880], [163347, 673449], [384821, 681495], [381189, 711759], [364224, 736440], [327021, 760368], [320760, 774713], [273368, 796883], [252381, 817394], [253852, 874956], [262271, 892268], [243453, 906693], [254749, 941570], [287091, 963927], [284687, 1029173], [305735, 1034818], [301698, 1045464], [346254, 1084578], [388589, 1132968], [489410, 1189749], [461143, 1185144], [440180, 1197324], [397724, 1193047], [386345, 1208708], [335005, 1185107], [321331, 1200572], [264881, 1221955], [226863, 1244564], [163049, 1231252], [160641, 1242521], [97049, 1258956], [87261, 1317211], [62352, 1323895], [62699, 1281595], [-91052, 1282100]]]}, "properties": {"code": "MN", "name": "Minnesota", "fips": "27"}}, {"type": "Feature", "geometry": {"type": "Polygon", "coordinates": [[[1396621, 370658], [1405747, 313649], [1457284, 372131], [1485537, 364548], [1514185, 386512], [1537046, 381334], [1551960, 353865], [1578818, 331144], [1610777, 321300], [1629412, 320328], [1620745, 306994], [1616516, 288232], [1615269, 258903], [1630351, 269362], [1647195, 252584], [1698564, 236616], [1670465, 288300], [1662981, 363056], [1687729, 396511], [1676654, 359059], [1676385, 318065], [1698567, 302335], [1686856, 286353], [1737898, 231262], [1756069, 239080], [1790551, 255421], [1796564, 305460], [1741921, 294426], [1704048, 430955], [1564275, 401838], [1396621, 370658]]]}, "properties": {"code": "MD", "name": "Maryland", "fips": "24"}}, {"type": "Feature", "geometry": {"type": "Polygon", "coordinates": [[[-36488, 671880], [-48215, 671952], [-35567, 628723], [-50589, 591418], [-36393, 559078], [-22433, 509442], [-5325, 480970], [-9770, 460887], [6423, 443231], [19670, 345776], [123076, 345080], [240372, 349110], [358203, 356986], [385429, 331861], [390838, 358504], [408840, 366057], [421281, 398250], [406073, 430639], [412232, 450415], [468064, 473162], [479725, 497784], [479307, 530753], [437276, 573316], [394637, 615263], [399099, 654661], [384821, 681495], [163347, 673449], [-36488, 671880]]]}, "properties": {"code": "IA", "name": "Iowa", "fips": "19"}}, {"type": "Feature", "geometry": {"type": "Polygon", "coordinates": [[[2022794.0, 260556.0], [2102538.0, 146108.0], [2171874.0, 252780.0], [2022794.0, 260556.0]]]}, "properties": {"code": "DC", "name": "Washington D.C.", "fips": "11", "inset": true, "origin": [1617927.8, 317480.5], "callout": [2080000.0, 230000.0]}}, {"type": "Feature", "geometry": {"type": "Polygon", "coordinates": [[[922749, 524532], [940588, 375192], [955653, 236223], [985895, 241693], [1011458, 209154], [1070965, 205081], [1093581, 196463], [1125127, 218519], [1155589, 184962], [1178233, 191320], [1182319, 231943], [1195800, 259635], [1206669, 249924], [1219574, 290876], [1246280, 303145], [1281301, 344643], [1291451, 419060], [1281334, 449033], [1292651, 457275], [1268312, 605143], [1209696, 571133], [1177376, 535406], [1155986, 535131], [1119822, 515361], [1086020, 533331], [1078925, 524071], [1033068, 542506], [922749, 524532]]]}, "properties": {"code": "OH", "name": "Ohio", "fips": "39"}}, {"type": "Feature", "geometry": {"type": "Polygon", "coordinates": [[[-652241, 643634], [-671178, 420817], [-504612, 408543], [-511747, 296836], [-322607, 286822], [-175660, 282368], [58534, 280404], [29171, 316386], [19670, 345776], [6423, 443231], [-9770, 460887], [-5325, 480970], [-22433, 509442], [-36393, 559078], [-100589, 600163], [-150947, 602320], [-158654, 591804], [-202588, 618419], [-340348, 623209], [-492898, 631599], [-652241, 643634]]]}, "properties": {"code": "NE", "name": "Nebraska", "fips": "31"}}, {"type": "Feature", "geometry": {"type": "MultiPolygon", "coordinates": [[[[-2000238, 1535265], [-1998927, 1514446], [-1977050, 1499288], [-1965580, 1522688], [-1975573, 1540281], [-2000238, 1535265]]], [[[-1545552, 1453076], [-1675650, 1483775], [-1884645, 1538066], [-1956256, 1558935], [-1960634, 1512828], [-1982697, 1468181], [-2001894, 1467709], [-2074463, 1499370], [-2110711, 1535058], [-2126040, 1490630], [-2116199, 1456021], [-2123053, 1347536], [-2138127, 1297933], [-2098955, 1285187], [-2069268, 1267864], [-2053777, 1237422], [-2059495, 1206643], [-2025265, 1181103], [-1965013, 1185286], [-1942265, 1165236], [-1893611, 1168308], [-1865536, 1158572], [-1814216, 1167583], [-1765863, 1164673], [-1609574, 1127410], [-1608527, 1174310], [-1576787, 1317450], [-1545552, 1453076]]]]}, "properties": {"code": "WA", "name": "Washington", "fips": "53"}}, {"type": "Feature", "geometry": {"type": "Polygon", "coordinates": [[[-633753, 865532], [-652241, 643634], [-492898, 631599], [-340348, 623209], [-202588, 618419], [-158654, 591804], [-150947, 602320], [-100589, 600163], [-36393, 559078], [-50589, 591418], [-35567, 628723], [-48215, 671952], [-36488, 671880], [-35882, 873239], [-64421, 911950], [-43768, 943016], [-270934, 948430], [-472305, 959057], [-623883, 970428], [-633753, 865532]]]}, "properties": {"code": "SD", "name": "South Dakota", "fips": "46"}}, {"type": "Feature", "geometry": {"type": "Polygon", "coordinates": [[[122656, -111221], [141286, -237460], [139475, -431160], [180425, -440070], [181691, -499476], [350650, -495510], [448705, -491620], [456410, -465647], [441154, -433277], [467947, -376230], [466566, -354194], [494491, -331284], [492131, -308952], [514827, -265048], [533734, -250150], [525807, -233116], [567912, -160827], [559471, -149527], [502828, -153616], [527857, -117619], [518549, -96614], [323843, -106076], [122656, -111221]]]}, "properties": {"code": "AR", "name": "Arkansas", "fips": "05"}}, {"type": "Feature", "geometry": {"type": "Polygon", "coordinates": [[[448705, -491620], [450786, -516996], [475362, -564175], [466148, -591564], [428449, -647061], [415280, -716850], [596716, -706352], [588421, -737561], [622277, -796140], [681002, -768264], [728928, -767218], [708114, -594376], [711064, -454183], [715455, -262283], [705276, -251515], [514827, -265048], [492131, -308952], [494491, -331284], [466566, -354194], [467947, -376230], [441154, -433277], [456410, -465647], [448705, -491620]]]}, "properties": {"code": "MS", "name": "Mississippi", "fips": "28"}}, {"type": "Feature", "geometry": {"type": "Polygon", "coordinates": [[[-1085521, 466928], [-1102827, 342025], [-1128179, 164560], [-1146480, 22680], [-1055172, 10681], [-880588, -10144], [-768805, -21419], [-616759, -33286], [-532378, -39875], [-520539, 150789], [-511747, 296836], [-504612, 408543], [-671178, 420817], [-848738, 437502], [-1085521, 466928]]]}, "properties": {"code": "CO", "name": "Colorado", "fips": "08"}}, {"type": "Feature", "geometry": {"type": "Polygon", "coordinates": [[[1264831, -6684], [1266529, -34709], [1241652, -62691], [1224985, -61216], [1197637, -88369], [1189699, -77257], [1163027, -112586], [1120090, -143198], [1095743, -146482], [1077050, -178930], [1054767, -189528], [1054572, -216405], [1163307, -200888], [1222595, -169770], [1345677, -157169], [1373409, -189599], [1474143, -174904], [1594925, -261529], [1647318, -251378], [1665774, -190161], [1704347, -151342], [1739440, -136927], [1758899, -145253], [1785138, -94107], [1832871, -56586], [1830580, -14603], [1795532, 37010], [1772269, 82072], [1542651, 34910], [1386652, 7716], [1264831, -6684]]]}, "properties": {"code": "NC", "name": "North Carolina", "fips": "37"}}, {"type": "Feature", "geometry": {"type": "Polygon", "coordinates": [[[-1475458, 643901], [-1509531, 468573], [-1539237, 315351], [-1581791, 94690], [-1341139, 52061], [-1146480, 22680], [-1128179, 164560], [-1102827, 342025], [-1085521, 466928], [-1250355, 491169], [-1232642, 602088], [-1318978, 615919], [-1475458, 643901]]]}, "properties": {"code": "UT", "name": "Utah", "fips": "49"}}, {"type": "Feature", "geometry": {"type": "Polygon", "coordinates": [[[-616759, -33286], [-620901, -89118], [-498834, -97336], [-354933, -104610], [-364065, -321483], [-337201, -342657], [-298780, -343445], [-291600, -362962], [-216307, -371559], [-178588, -390980], [-171399, -406957], [-153300, -391426], [-126177, -411073], [-110714, -400687], [-105766, -422237], [-83061, -397313], [-60573, -400912], [-33428, -425913], [-13933, -410578], [70969, -395773], [106567, -420276], [139475, -431160], [141286, -237460], [122656, -111221], [121839, -55267], [18799, -56091], [-128918, -55170], [-275846, -51553], [-532378, -39875], [-616759, -33286]]]}, "properties": {"code": "OK", "name": "Oklahoma", "fips": "40"}}, {"type": "Feature", "geometry": {"type": "Polygon", "coordinates": [[[-633753, 865532], [-806692, 881847], [-990942, 904800], [-1179669, 932654], [-1189292, 874738], [-1209319, 747100], [-1232642, 602088], [-1250355, 491169], [-1085521, 466928], [-848738, 437502], [-671178, 420817], [-652241, 643634], [-633753, 865532]]]}, "properties": {"code": "WY", "name": "Wyoming", "fips": "56"}}, {"type": "Feature", "geometry": {"type": "Polygon", "coordinates": [[[1155589, 184962], [1157317, 152719], [1192909, 107024], [1223687, 94740], [1238131, 68278], [1264586, 63383], [1279578, 80551], [1293247, 71023], [1355727, 102782], [1398150, 206222], [1403867, 243409], [1437154, 229332], [1454138, 280616], [1466664, 274109], [1497053, 324792], [1496311, 359728], [1546875, 331301], [1551960, 353865], [1537046, 381334], [1514185, 386512], [1485537, 364548], [1457284, 372131], [1405747, 313649], [1396621, 370658], [1309291, 355850], [1292651, 457275], [1281334, 449033], [1291451, 419060], [1281301, 344643], [1246280, 303145], [1219574, 290876], [1206669, 249924], [1195800, 259635], [1182319, 231943], [1178233, 191320], [1155589, 184962]]]}, "properties": {"code": "WV", "name": "West Virginia", "fips": "54"}}, {"type": "Feature", "geometry": {"type": "Polygon", "coordinates": [[[699268, 502699], [722170, 239312], [714700, 218265], [730859, 173685], [706635, 120862], [695473, 112050], [694485, 62681], [706832, 77427], [745967, 83550], [774950, 66286], [798065, 94333], [816601, 79900], [838734, 115309], [874581, 105668], [880717, 134989], [911937, 168112], [907008, 186399], [960477, 200746], [955653, 236223], [940588, 375192], [922749, 524532], [921923, 531660], [756221, 513836], [721769, 494854], [699268, 502699]]]}, "properties": {"code": "IN", "name": "Indiana", "fips": "18"}}, {"type": "Feature", "geometry": {"type": "MultiPolygon", "coordinates": [[[[2065154, 706820], [2096024, 715289], [2079785, 725772], [2065154, 706820]]], [[[1832774, 807811], [1833457, 727866], [1969230, 757130], [2002165, 767022], [2037991, 716198], [2062165, 739431], [2054339, 710365], [2097890, 747952], [2129230, 755790], [2116801, 771443], [2099100, 758836], [2074908, 763117], [2048212, 801646], [2023846, 807822], [2034795, 851139], [2021985, 871128], [1989604, 842144], [1896996, 821566], [1832774, 807811]]]]}, "properties": {"code": "MA", "name": "Massachusetts", "fips": "25"}}, {"type": "Feature", "geometry": {"type": "Polygon", "coordinates": [[[-1953556, 751505], [-2010447, 530513], [-2037522, 426745], [-1969638, 325170], [-1885882, 199629], [-1805258, 78726], [-1675824, -114957], [-1667457, -101003], [-1660764, 7884], [-1628067, 5842], [-1611298, -10946], [-1598516, 5922], [-1581791, 94690], [-1539237, 315351], [-1509531, 468573], [-1475458, 643901], [-1622836, 674042], [-1715671, 694689], [-1855994, 726785], [-1953556, 751505]]]}, "properties": {"code": "NV", "name": "Nevada", "fips": "32"}}, {"type": "Feature", "geometry": {"type": "Polygon", "coordinates": [[[-595594, 1306659], [-606262, 1175341], [-623883, 970428], [-472305, 959057], [-270934, 948430], [-43768, 943016], [-46400, 985673], [-60736, 1020951], [-64688, 1124433], [-86061, 1190477], [-81917, 1245411], [-91052, 1282100], [-289882, 1287301], [-460280, 1296338], [-595594, 1306659]]]}, "properties": {"code": "ND", "name": "North Dakota", "fips": "38"}}, {"type": "Feature", "geometry": {"type": "Polygon", "coordinates": [[[1268312, 605143], [1292651, 457275], [1309291, 355850], [1396621, 370658], [1564275, 401838], [1704048, 430955], [1733132, 446438], [1781800, 497739], [1733367, 534557], [1727743, 580436], [1754030, 629662], [1727333, 639575], [1708350, 674797], [1686348, 687337], [1485555, 646396], [1329427, 617852], [1324221, 647717], [1268312, 605143]]]}, "properties": {"code": "PA", "name": "Pennsylvania", "fips": "42"}}, {"type": "Feature", "geometry": {"type": "Polygon", "coordinates": [[[1163307, -200888], [1147404, -239011], [1192508, -256613], [1229410, -310817], [1294610, -355773], [1315433, -387805], [1340940, -399322], [1357561, -442988], [1378646, -455558], [1392292, -493118], [1414808, -498403], [1457447, -441276], [1486189, -422063], [1547623, -349103], [1550029, -320510], [1575660, -274469], [1594925, -261529], [1474143, -174904], [1373409, -189599], [1345677, -157169], [1222595, -169770], [1163307, -200888]]]}, "properties": {"code": "SC", "name": "South Carolina", "fips": "45"}}, {"type": "Feature", "geometry": {"type": "Polygon", "coordinates": [[[1930764, 1127479], [1989507, 943086], [1994243, 921920], [2025370, 893761], [2048759, 971467], [2072072, 981437], [2123717, 1027449], [2118429, 1056104], [2137662, 1037532], [2176626, 1058649], [2183312, 1093199], [2239501, 1135159], [2258154, 1166466], [2236091, 1193929], [2203358, 1201889], [2194154, 1238194], [2165827, 1237988], [2121828, 1385440], [2082817, 1405264], [2037065, 1373075], [2005161, 1395863], [1971236, 1298542], [1966499, 1255341], [1975733, 1207170], [1952056, 1156837], [1947152, 1124261], [1930764, 1127479]]]}, "properties": {"code": "ME", "name": "Maine", "fips": "23"}}, {"type": "Feature", "geometry": {"type": "MultiPolygon", "coordinates": [[[[-951219, -1190492], [-934174, -1238321], [-936751, -1265885], [-911159, -1285880], [-893750, -1261377], [-857514, -1246662], [-821545, -1217334], [-850353, -1195699], [-869796, -1164127], [-934771, -1137843], [-927856, -1163216], [-951219, -1190492]]], [[[-1019163, -1064227], [-995638, -1078632], [-991292, -1099973], [-959846, -1096674], [-946745, -1078020], [-971634, -1062312], [-1019163, -1064227]]], [[[-1056502, -1064937], [-1047078, -1084729], [-1030470, -1075316], [-1056502, -1064937]]], [[[-1079035, -1037687], [-1037550, -1049934], [-1020086, -1037848], [-1077284, -1030243], [-1079035, -1037687]]], [[[-1177602, -989753], [-1164592, -1021580], [-1122824, -1025711], [-1150200, -975747], [-1177602, -989753]]], [[[-1336990, -933872], [-1302460, -956317], [-1286279, -928421], [-1315746, -916724], [-1336990, -933872]]]]}, "properties": {"code": "HI", "name": "Hawaii", "fips": "15"}}, {"type": "Feature", "geometry": {"type": "Polygon", "coordinates": [[[1983693, 681363], [2037991, 716198], [2002165, 767022], [1969230, 757130], [1983693, 681363]]]}, "properties": {"code": "RI", "name": "Rhode Island", "fips": "44"}}, {"type": "Feature", "geometry": {"type": "Polygon", "coordinates": [[[1833457, 727866], [1848123, 644585], [1847619, 608741], [1898787, 652700], [1983693, 681363], [1969230, 757130], [1833457, 727866]]]}, "properties": {"code": "CT", "name": "Connecticut", "fips": "09"}}, {"type": "Feature", "geometry": {"type": "MultiPolygon", "coordinates": [[[[800475, 964189], [817089, 950406], [825850, 976094], [800475, 964189]]], [[[756221, 513836], [921923, 531660], [922749, 524532], [1033068, 542506], [1066924, 617018], [1072597, 649126], [1095972, 653305], [1097695, 695123], [1067299, 783890], [1040232, 806922], [1004602, 785247], [987440, 745937], [964318, 759223], [967349, 784976], [988578, 798531], [1004047, 831640], [1003488, 871629], [985229, 909806], [999327, 908975], [977130, 942931], [928007, 952438], [918532, 965155], [875987, 977435], [853358, 972841], [847647, 950787], [862592, 930917], [831808, 915625], [823873, 881514], [812633, 902316], [769951, 844971], [772387, 805610], [756118, 771780], [758629, 725673], [787912, 665668], [795329, 630422], [789117, 572627], [756221, 513836]]], [[[510351, 1179446], [515798, 1170539], [557462, 1197646], [567517, 1217226], [510351, 1179446]]], [[[429071, 1025460], [453494, 1001477], [534320, 984874], [615291, 961937], [639911, 941556], [636554, 905468], [660413, 878774], [687301, 944463], [716657, 963951], [735746, 954308], [753513, 982218], [781905, 982664], [808747, 1003455], [839050, 1003644], [869219, 985699], [891727, 1001718], [966033, 1004532], [957993, 1022667], [936876, 1014554], [917157, 1026820], [912178, 1064583], [847641, 1052151], [844203, 1084828], [805915, 1070167], [755907, 1063949], [725904, 1040230], [663687, 1036507], [643467, 1065350], [599902, 1082026], [575450, 1067149], [583927, 1093357], [611330, 1129976], [589893, 1134691], [503925, 1061101], [472361, 1054549], [429071, 1025460]]]]}, "properties": {"code": "MI", "name": "Michigan", "fips": "26"}}, {"type": "Feature", "geometry": {"type": "MultiPolygon", "coordinates": [[[[-1486155, -1230149], [-1477849, -1236406], [-1475096, -1253731], [-1463636, -1255592], [-1450513, -1273608], [-1440595, -1267659], [-1431120, -1268854], [-1434719, -1249386], [-1451856, -1228087], [-1473361, -1209821], [-1483535, -1212394], [-1481406, -1222202], [-1486155, -1230149]]], [[[-1504574, -1194257], [-1493178, -1226839], [-1488236, -1223394], [-1487795, -1210605], [-1463696, -1198632], [-1463688, -1193629], [-1477605, -1182274], [-1495542, -1182433], [-1494157, -1194495], [-1499973, -1189355], [-1504574, -1194257]]], [[[-1529741, -1134416], [-1523332, -1146696], [-1512754, -1173028], [-1509725, -1188606], [-1497488, -1171422], [-1498379, -1161377], [-1510752, -1142228], [-1522214, -1143117], [-1529741, -1134416]]], [[[-1560955, -1155893], [-1560389, -1160342], [-1541799, -1178772], [-1536620, -1189750], [-1526993, -1192229], [-1529919, -1200366], [-1520318, -1205360], [-1508617, -1221234], [-1504859, -1219578], [-1508482, -1201610], [-1518067, -1180154], [-1526515, -1149261], [-1546213, -1142590], [-1558780, -1146359], [-1560955, -1155893]]], [[[-1958562, -1197533], [-1954530, -1213096], [-1944312, -1227062], [-1917783, -1210925], [-1909516, -1198388], [-1904358, -1203146], [-1900064, -1193022], [-1904988, -1176833], [-1912389, -1182186], [-1912087, -1174096], [-1892115, -1169677], [-1897289, -1159891], [-1905431, -1158066], [-1907143, -1150698], [-1926151, -1171758], [-1925849, -1176898], [-1938241, -1180950], [-1940129, -1187266], [-1952005, -1189411], [-1958562, -1197533]]], [[[-1964000, -1236279], [-1941658, -1232424], [-1955848, -1229488], [-1964000, -1236279]]], [[[-2097550, -1279342], [-2084756, -1275321], [-2073034, -1283737], [-2078010, -1268699], [-2092883, -1269396], [-2097550, -1279342]]], [[[-2108343, -1260226], [-2109149, -1268496], [-2102196, -1269361], [-2091701, -1260982], [-2093490, -1257028], [-2108343, -1260226]]], [[[-2161473, -1282798], [-2160785, -1288795], [-2150770, -1289840], [-2161473, -1282798]]], [[[-2239851, -1276389], [-2241084, -1282062], [-2223930, -1280334], [-2228445, -1274730], [-2239851, -1276389]]], [[[-2198577, -1029417], [-2198263, -1035175], [-2181851, -1049935], [-2165619, -1051526], [-2163277, -1035624], [-2170818, -1027272], [-2186948, -1032351], [-2198577, -1029417]]], [[[-2290376, -1297710], [-2287429, -1302291], [-2274696, -1299224], [-2264505, -1301070], [-2246774, -1293819], [-2242598, -1284820], [-2255381, -1279196], [-2265207, -1279245], [-2266855, -1286891], [-2276565, -1295834], [-2290376, -1297710]]], [[[-2143141, -808943], [-2135560, -821910], [-2119750, -830711], [-2129803, -836120], [-2124694, -848154], [-2124875, -861074], [-2105561, -872888], [-2092368, -870851], [-2081700, -873211], [-2068194, -886487], [-2055109, -874992], [-2040360, -873878], [-2035147, -869637], [-2031623, -882182], [-2045541, -887666], [-2037805, -897860], [-2038477, -917567], [-2047915, -926814], [-2068991, -923823], [-2085276, -936974], [-2090209, -936683], [-2101465, -924301], [-2112676, -927844], [-2123901, -944442], [-2145010, -964642], [-2145211, -973604], [-2154050, -972549], [-2158592, -980135], [-2151225, -996462], [-2153107, -1001993], [-2142836, -1008168], [-2145435, -1022993], [-2155361, -1026683], [-2143996, -1040666], [-2133828, -1064367], [-2118238, -1066401], [-2103842, -1064152], [-2099246, -1057068], [-2091760, -1087430], [-2100906, -1095498], [-2098181, -1107227], [-2100841, -1117559], [-2108848, -1119465], [-2100926, -1125286], [-2066770, -1110278], [-2060473, -1123720], [-2055256, -1118373], [-2045268, -1141446], [-2037244, -1140294], [-2035992, -1124474], [-2024446, -1136807], [-2001339, -1129666], [-2000922, -1135055], [-2011323, -1144425], [-2021135, -1181350], [-2036954, -1190722], [-2046811, -1201391], [-2047506, -1208759], [-2054314, -1206272], [-2090006, -1223415], [-2096930, -1234545], [-2109513, -1230798], [-2125233, -1232569], [-2136148, -1237831], [-2155468, -1255112], [-2166547, -1255549], [-2170841, -1261785], [-2177778, -1255808], [-2197825, -1257543], [-2209720, -1267842], [-2204543, -1277237], [-2188164, -1271513], [-2164705, -1276272], [-2170467, -1267999], [-2135429, -1263257], [-2126447, -1267138], [-2131930, -1257488], [-2122565, -1244606], [-2122474, -1255612], [-2099393, -1255440], [-2085618, -1244721], [-2076447, -1245945], [-2080597, -1254971], [-2063876, -1246834], [-2047875, -1242826], [-2039226, -1234325], [-2046897, -1228455], [-2041376, -1223520], [-2032191, -1225975], [-2032134, -1218189], [-2021693, -1219749], [-2008552, -1210059], [-1999630, -1208573], [-1993239, -1192064], [-1978671, -1187650], [-1974868, -1178600], [-1969599, -1181809], [-1957816, -1170088], [-1943242, -1167195], [-1938778, -1154825], [-1920147, -1138679], [-1928456, -1129375], [-1938451, -1126411], [-1933633, -1115970], [-1923276, -1106664], [-1912932, -1104954], [-1905008, -1096028], [-1895906, -1073636], [-1877553, -1052376], [-1866448, -1044628], [-1851900, -1043155], [-1842568, -1053756], [-1848059, -1059097], [-1856119, -1052291], [-1876816, -1064891], [-1874693, -1073941], [-1878131, -1085535], [-1888330, -1103413], [-1877577, -1112158], [-1889542, -1117811], [-1891936, -1123581], [-1885644, -1131801], [-1881270, -1125691], [-1870212, -1126629], [-1862292, -1118160], [-1859301, -1122504], [-1848197, -1108409], [-1840078, -1108001], [-1831523, -1097311], [-1807584, -1097890], [-1805920, -1106002], [-1786458, -1083942], [-1780141, -1085889], [-1767733, -1079491], [-1746679, -1082799], [-1724366, -1094139], [-1701156, -1087967], [-1677212, -1091329], [-1659753, -1099235], [-1648256, -1099608], [-1639450, -1092420], [-1634523, -1099782], [-1639692, -1104461], [-1602788, -1120895], [-1586162, -1136933], [-1562889, -1148546], [-1562601, -1144339], [-1545895, -1137876], [-1530766, -1143230], [-1533147, -1133180], [-1525213, -1134006], [-1521480, -1139329], [-1510811, -1139114], [-1496015, -1156437], [-1489375, -1174923], [-1474363, -1179705], [-1459039, -1196614], [-1470518, -1209248], [-1461615, -1211950], [-1443459, -1234268], [-1434464, -1237600], [-1424198, -1256678], [-1414125, -1255195], [-1416253, -1243924], [-1406896, -1258080], [-1400265, -1260128], [-1390685, -1234055], [-1402504, -1200872], [-1427354, -1195267], [-1440408, -1189855], [-1445866, -1191736], [-1454978, -1182398], [-1455112, -1174914], [-1489855, -1136503], [-1496715, -1126274], [-1509058, -1116301], [-1518728, -1112888], [-1531391, -1099038], [-1536996, -1098809], [-1540666, -1087560], [-1551709, -1079768], [-1567936, -1091270], [-1569512, -1109859], [-1585759, -1123366], [-1591239, -1110244], [-1629106, -1080308], [-1628315, -1069013], [-1640518, -1071356], [-1645580, -1078487], [-1655959, -1074489], [-1666625, -1075871], [-1673747, -1009858], [-1691302, -847124], [-1703137, -737378], [-1708227, -690181], [-1729212, -680975], [-1742318, -672304], [-1761405, -681099], [-1778442, -673590], [-1796708, -674436], [-1828643, -659331], [-1852561, -664366], [-1869338, -653421], [-1865557, -646309], [-1879352, -640061], [-1897747, -642378], [-1902933, -628617], [-1910775, -640082], [-1915705, -634616], [-1909822, -626717], [-1925418, -620007], [-1935316, -631489], [-1951919, -636494], [-1959390, -631890], [-1992441, -649862], [-2000219, -646847], [-2020034, -663704], [-2028551, -683738], [-2046649, -695262], [-2075478, -689927], [-2081920, -706644], [-2090568, -708646], [-2072222, -727296], [-2057545, -750847], [-2056760, -770588], [-2038767, -780324], [-2042363, -784663], [-2029471, -812886], [-2037279, -821416], [-2051489, -815369], [-2067063, -812970], [-2069318, -806806], [-2060671, -793206], [-2073044, -789118], [-2090667, -791347], [-2143141, -808943]]], [[[-2332787, -1307640], [-2318583, -1307082], [-2303646, -1298156], [-2290961, -1295334], [-2293120, -1287062], [-2301593, -1288091], [-2306676, -1295534], [-2332787, -1307640]]], [[[-2353733, -1300376], [-2342790, -1304545], [-2338769, -1294744], [-2353733, -1300376]]], [[[-2233356, -869419], [-2230247, -882048], [-2219407, -881185], [-2212841, -888144], [-2204207, -907793], [-2193882, -900971], [-2182718, -899277], [-2203294, -884419], [-2206041, -873791], [-2218160, -874890], [-2227027, -867316], [-2233356, -869419]]]]}, "properties": {"code": "AK", "name": "Alaska", "fips": "02"}}, {"type": "Feature", "geometry": {"type": "Polygon", "coordinates": [[[1733132, 446438], [1704048, 430955], [1741921, 294426], [1796564, 305460], [1784681, 342534], [1763849, 351215], [1731041, 411124], [1733132, 446438]]]}, "properties": {"code": "DE", "name": "Delaware", "fips": "10"}}, {"type": "Feature", "geometry": {"type": "Polygon", "coordinates": [[[-1146480, 22680], [-1177785, -203524], [-1211264, -445009], [-1233579, -604499], [-1154478, -614973], [-1148040, -565268], [-990748, -584225], [-996506, -559220], [-811734, -578015], [-663740, -590266], [-644599, -359039], [-635377, -235937], [-624395, -88854], [-620901, -89118], [-616759, -33286], [-768805, -21419], [-880588, -10144], [-1055172, 10681], [-1146480, 22680]]]}, "properties": {"code": "NM", "name": "New Mexico", "fips": "35"}}, {"type": "Feature", "geometry": {"type": "Polygon", "coordinates": [[[705276, -251515], [715455, -262283], [711064, -454183], [708114, -594376], [728928, -767218], [754130, -770588], [758222, -734111], [786571, -767452], [813628, -769949], [826569, -751362], [821147, -727249], [796752, -706147], [798881, -691272], [960530, -675925], [1044769, -665725], [1032473, -646346], [1034081, -606029], [1020950, -574523], [1024929, -540782], [1038838, -524868], [1004025, -461773], [939223, -230282], [705276, -251515]]]}, "properties": {"code": "AL", "name": "Alabama", "fips": "01"}}, {"type": "Feature", "geometry": {"type": "Polygon", "coordinates": [[[-511747, 296836], [-520539, 150789], [-532378, -39875], [-275846, -51553], [-128918, -55170], [18799, -56091], [121839, -55267], [119301, 181713], [75478, 230559], [96773, 252706], [58534, 280404], [-175660, 282368], [-322607, 286822], [-511747, 296836]]]}, "properties": {"code": "KS", "name": "Kansas", "fips": "20"}}, {"type": "Feature", "geometry": {"type": "Polygon", "coordinates": [[[1766937, 1051772], [1773617, 1008576], [1785752, 990998], [1785132, 945199], [1796959, 903948], [1813685, 893856], [1832774, 807811], [1896996, 821566], [1879960, 914859], [1891924, 978833], [1885946, 999033], [1915917, 1030985], [1905381, 1056482], [1907446, 1087657], [1766937, 1051772]]]}, "properties": {"code": "VT", "name": "Vermont", "fips": "50"}}, {"type": "Feature", "geometry": {"type": "Polygon", "coordinates": [[[1733132, 446438], [1731041, 411124], [1771329, 383730], [1793213, 384250], [1800030, 362439], [1827236, 416994], [1842998, 466156], [1838514, 533223], [1810877, 544512], [1828096, 605475], [1754030, 629662], [1727743, 580436], [1733367, 534557], [1781800, 497739], [1733132, 446438]]]}, "properties": {"code": "NJ", "name": "New Jersey", "fips": "34"}}, {"type": "Feature", "geometry": {"type": "Polygon", "coordinates": [[[1907446, 1087657], [1905381, 1056482], [1915917, 1030985], [1885946, 999033], [1891924, 978833], [1879960, 914859], [1896996, 821566], [1989604, 842144], [2021985, 871128], [2025370, 893761], [1994243, 921920], [1989507, 943086], [1930764, 1127479], [1915736, 1123063], [1907446, 1087657]]]}, "properties": {"code": "NH", "name": "New Hampshire", "fips": "33"}}, {"type": "Feature", "geometry": {"type": "Polygon", "coordinates": [[[-1733395, -363596], [-1746908, -386426], [-1536355, -511230], [-1423481, -576222], [-1233579, -604499], [-1211264, -445009], [-1177785, -203524], [-1146480, 22680], [-1341139, 52061], [-1581791, 94690], [-1598516, 5922], [-1611298, -10946], [-1628067, 5842], [-1660764, 7884], [-1667457, -101003], [-1675824, -114957], [-1678714, -129093], [-1647656, -205076], [-1690339, -234436], [-1697546, -275862], [-1718916, -288377], [-1721979, -329552], [-1707756, -354302], [-1733395, -363596]]]}, "properties": {"code": "AZ", "name": "Arizona", "fips": "04"}}]}