{"type":"FeatureCollection", "features": [
{"type":"Feature","geometry":{"type":"MultiPolygon","coordinates":[[[[13662302,-291548],[13617218,-1022721],[13991673,-855747],[14268443,-1136395],[14360860,-1021236],[14004276,-432987],[13662302,-291548]]],[[[15810860,-4508685],[16117342,-4242692],[15861213,-4188018],[15574930,-4446263],[15810860,-4508685]]],[[[14921478,-4898008],[14459842,-5192894],[14657072,-5239286],[15455631,-4699195],[15416291,-4556594],[14921478,-4898008]]],[[[13157612,-4591752],[12901245,-4580089],[12844613,-4897388],[13157612,-4591752]]],[[[11621929,-3625210],[12127614,-3543903],[12679176,-4067523],[12680716,-4279097],[13136917,-4393210],[13557231,-4212326],[14112465,-3560235],[14370014,-2840534],[14146612,-2290490],[13950574,-2129046],[13943435,-1681872],[13812530,-1632770],[13740565,-1196777],[13462448,-1950105],[12994392,-1651561],[13180190,-1385908],[12755192,-1248475],[12313474,-1668849],[12206732,-1550661],[11773669,-1841631],[11501950,-2210767],[10818624,-2444328],[10683309,-2740895],[10669054,-3623979],[10524922,-3848690],[10765136,-3946574],[11327199,-3814139],[11621929,-3625210]]]]},"properties":{"code":"OC","name":"Oceania"}},
{"type":"Feature","geometry":{"type":"MultiPolygon","coordinates":[[[[3795870,-524430],[4030148,-188735],[4511631,320158],[4782984,763126],[4920772,1349134],[4715707,1280159],[4254539,1171775],[4156422,1285935],[4144430,1424973],[3760989,1787348],[3666673,2020942],[3492207,2471856],[3168991,3109412],[3233364,3347997],[3167138,3512688],[2675440,3473242],[2323346,3552185],[1918132,3680614],[1769450,3405068],[1055147,3729164],[961914,4098105],[762569,4158472],[133016,4120126],[-197843,3958257],[-539471,4024911],[-794832,3740814],[-887634,3367479],[-1354084,2951958],[-1614253,2406717],[-1619739,2359080],[-1576360,1811234],[-1606087,1525593],[-1619271,1475740],[-1604972,1389603],[-1458233,1238580],[-1279223,998605],[-1106353,761023],[-746850,489415],[-276513,560064],[102586,664871],[180475,688801],[260423,701888],[571206,477962],[823031,535109],[935028,256082],[920063,113259],[852705,-124604],[1074487,-446154],[1153514,-564944],[1178954,-649289],[1192308,-684082],[1312577,-1350707],[1121477,-1942543],[1350260,-2484397],[1522968,-3214224],[1790845,-3918895],[2594988,-3687967],[3074629,-3007037],[3300599,-2751458],[3310007,-2222068],[3774169,-1877154],[3912539,-1648900],[3888450,-1157353],[3795870,-524430]]],[[[4767401,-1399152],[4255272,-1820368],[4096811,-2478330],[4143078,-2809022],[4431089,-2803748],[4839722,-1709036],[4767401,-1399152]]]]},"properties":{"code":"AF","name":"Africa"}},
{"type":"Feature","geometry":{"type":"MultiPolygon","coordinates":[[[[-10493694,5497653],[-10678985,5429946],[-11112609,4383775],[-11003678,3876949],[-10779290,3661261],[-10708478,3052197],[-10332632,2625786],[-10634509,3393355],[-10445555,3256885],[-10026761,2559123],[-9875281,2054044],[-9252202,1757064],[-8851422,1631704],[-8656064,1541373],[-8438636,1501936],[-8397004,1457005],[-8260414,1243974],[-8016358,922506],[-7530521,810150],[-7471455,972504],[-7966958,1073039],[-8063425,1227164],[-7974839,1683093],[-8452851,1765412],[-8518414,1783360],[-8421836,2077432],[-8254093,2420386],[-8569660,2359092],[-8645285,2165750],[-9011715,2037388],[-9262183,2521953],[-9155558,2905167],[-8799483,3316250],[-7768353,3367816],[-7632307,2833056],[-7494741,3022600],[-7543842,3457425],[-6894630,4001339],[-6829803,4269852],[-5857564,5073403],[-5748743,4896887],[-5196370,5159872],[-5592650,5194940],[-5631395,5631261],[-5091070,5632757],[-4667387,5838202],[-5037805,6283255],[-5113120,6696698],[-5441526,6478380],[-5478794,6770575],[-6088722,6897718],[-6231121,6303661],[-6822538,5839409],[-6979889,6174212],[-7574949,6554489],[-7278972,6868020],[-6095308,7370725],[-6247269,7635773],[-6536906,7379236],[-6822067,7826266],[-7031802,7462618],[-8433329,7494744],[-9308029,7692422],[-10061695,7542420],[-10315037,7619698],[-11280470,7774082],[-12352152,7490911],[-12282971,7143716],[-13033927,6815030],[-12745844,6411746],[-12946492,6247018],[-11598064,6752620],[-10791800,6469162],[-10753998,6121398],[-10768901,5696395],[-10493694,5497653]]],[[[-4684528,5748922],[-5103020,5344960],[-4534897,5337525],[-4828872,5586046],[-4684528,5748922]]],[[[-5620564,7866070],[-6234448,7974358],[-6446301,7685558],[-5752502,7662624],[-5432801,7387539],[-5925128,7194982],[-5173792,6858562],[-5028473,7300537],[-4642372,7346625],[-5620564,7866070]]],[[[-8491391,8056431],[-8906391,7731554],[-8150834,7968672],[-8491391,8056431]]],[[[-7546683,7932365],[-8585491,7792741],[-8379732,7507817],[-7560080,7528572],[-7546683,7932365]]],[[[-5848757,8672078],[-5625071,8475505],[-6118711,8234670],[-5526034,8209132],[-3925040,8705797],[-5848757,8672078]]],[[[-6844808,2026199],[-6514693,2090069],[-6824505,2214231],[-6844808,2026199]]],[[[-2953453,8724631],[-4890567,8400846],[-4704993,8198965],[-4047418,8151286],[-4039157,7378294],[-3805680,6749954],[-3440532,6672405],[-3024425,7209644],[-1628825,7659100],[-1355647,8042692],[-1312177,8427122],[-786431,8627420],[-1687220,8785506],[-2953453,8724631]]],[[[-7772553,2605923],[-7325879,2292986],[-7051386,2278479],[-7413329,2529617],[-7772553,2605923]]]]},"properties":{"code":"NA","name":"North America"}},
{"type":"Feature","geometry":{"type":"MultiPolygon","coordinates":[[[[4656616,4700680],[4878027,4186873],[4402103,4312898],[4308595,4703531],[4114327,4709312],[3515927,4884637],[3689796,4673034],[3115403,4729341],[2600129,4637776],[2345404,4441192],[2505910,4126111],[3287893,4031843],[3288507,3899251],[3226541,3723962],[3167138,3512688],[3233364,3347997],[3245128,3318659],[3249641,3302307],[3695954,2537230],[4094822,1835183],[4183390,1417912],[4675291,1571484],[5081115,1869295],[5506103,2141357],[5661427,2506875],[5306419,2801841],[5283160,2891009],[5260682,2929494],[5091533,2711214],[4861158,2725178],[4838805,2768279],[4782754,2782653],[4511565,3211435],[4451561,3372250],[4507302,3366712],[4810244,3133919],[5389507,2893865],[5784134,2819169],[6237281,2858330],[6433761,2662714],[6691042,2345281],[6889379,2399242],[7042533,1794990],[7493560,893385],[7701837,1161865],[7693958,1784700],[8432674,2478138],[8645159,2558138],[8773869,2322011],[9020021,1800310],[9292002,1900544],[9508736,1114222],[9682157,724962],[9823917,309564],[10033042,137502],[9882408,697717],[9566380,1117602],[9621085,1504451],[9874629,1367329],[10061170,1176380],[10157670,964563],[10517510,1308942],[10438448,1714680],[10067642,2140298],[10244921,2421382],[10507673,2403880],[10959155,2560152],[11174806,2759250],[11333887,3356066],[10874076,3929118],[10979450,4125267],[10565788,4359758],[10830166,4607197],[10875058,4377695],[11114126,4493286],[11389122,4248797],[11565351,3870514],[11773736,3948575],[11544274,4345683],[11575629,4749389],[11553680,4768896],[11569258,5440711],[11266769,5365430],[10856959,5580393],[10513661,5907477],[10071249,5956499],[10122217,5621926],[9915740,5594324],[9446269,5511834],[8800241,5616187],[8291750,5827537],[8273380,5576675],[7795607,5693320],[7483311,5530030],[7453504,5521077],[6761974,5700085],[6330799,6055061],[6101866,5981935],[5667641,6182929],[5088288,6036917],[5048750,5665546],[4267357,5789401],[3983217,5431524],[4255629,5212658],[4586017,5262578],[4400902,5014997],[4656616,4700680]]],[[[13662302,-291548],[13405936,-190914],[13024417,-310503],[12986302,-87480],[12650209,-105141],[12947898,-396813],[13350805,-604805],[13294729,-943455],[13617218,-1022721],[13662302,-291548]]],[[[11416784,463955],[11536198,606428],[11288595,776602],[11174813,610903],[11058849,507506],[10627232,224977],[10679296,-328988],[11249381,-449956],[11418694,87932],[11416784,463955]]],[[[11914441,98130],[11634394,63516],[11507496,-314182],[11921882,-598887],[11648821,26601],[11914441,98130]]],[[[10495133,-720193],[10190474,-768372],[11064899,-981630],[10890936,-778988],[10495133,-720193]]],[[[10115604,-121637],[9851317,233637],[9436789,588312],[9234320,557406],[9555555,204462],[9934888,-473230],[10240232,-656291],[10280216,-343313],[10115604,-121637]]],[[[2315937,4705544],[2321243,4593526],[2480528,4725676],[2315937,4705544]]],[[[7906617,843732],[7733672,1101998],[7775012,669306],[7906617,843732]]],[[[12209046,943794],[11947016,878571],[12136670,625853],[12209046,943794]]],[[[11673843,2046454],[11513471,2078022],[11516636,1680286],[11686098,1608041],[11673843,2046454]]],[[[12731010,4409487],[12477931,4634984],[12561244,4301186],[12353897,3998680],[12079540,3988118],[11878525,3747112],[12341878,3893798],[12457246,3766152],[12802645,4034247],[12731010,4409487]]],[[[12692584,4943043],[12359724,5119152],[12507084,4800507],[12692584,4943043]]]]},"properties":{"code":"AS","name":"Asia"}},
{"type":"Feature","geometry":{"type":"MultiPolygon","coordinates":[[[[-5735105,-5890728],[-5839776,-6147946],[-5512886,-6131348],[-5735105,-5890728]]],[[[-5351541,-3816313],[-5012812,-3933941],[-4891124,-3800400],[-4553974,-3225227],[-4381436,-2707513],[-3968940,-2581269],[-3784664,-2201236],[-3742212,-1547896],[-3392076,-1009083],[-3410507,-612833],[-3873490,-322150],[-4207301,-267210],[-4712579,-26404],[-5002982,466050],[-5283555,259220],[-5221920,645544],[-5529930,669842],[-5773360,938444],[-5965949,1202105],[-6575656,1184028],[-6869409,1321234],[-7277778,1191253],[-7471455,972504],[-7530521,810150],[-7470551,431665],[-7642442,154836],[-7762641,86159],[-7779228,-381786],[-7861517,-688204],[-7712358,-806848],[-7293759,-1644124],[-6713762,-2060314],[-6648000,-2403449],[-6577071,-3648118],[-6621022,-4178422],[-6547403,-5239991],[-6277454,-5850668],[-5887572,-6018517],[-5742143,-5854605],[-5846004,-5685787],[-5663395,-5304672],[-5860306,-5201912],[-5539846,-4577060],[-5601664,-4369867],[-5143431,-4153425],[-5351541,-3816313]]]]},"properties":{"code":"SA","name":"South America"}},
{"type":"Feature","geometry":{"type":"MultiPolygon","coordinates":[[[[7453504,5521077],[7483311,5530030],[7795607,5693320],[8273380,5576675],[8291750,5827537],[8800241,5616187],[9446269,5511834],[9915740,5594324],[10122217,5621926],[10071249,5956499],[10513661,5907477],[10856959,5580393],[11266769,5365430],[11569258,5440711],[11553680,4768896],[11575629,4749389],[11575631,4749388],[11575631,4749389],[11870260,4880548],[12002868,5437267],[11776663,5939214],[11137622,6113654],[11368400,6563880],[12116604,6537175],[12302663,6808390],[12877617,6778642],[12755045,6182484],[13234922,5715893],[13351066,6126940],[12993579,6648976],[13531847,6650313],[13908414,6964233],[13729475,7162560],[13259926,7548670],[11804761,7593682],[9973996,7911674],[9509735,7720832],[9113538,7928963],[7664562,8032312],[7883798,8134579],[7106654,8290991],[6650553,8186223],[5261884,7782394],[4819907,7743446],[5086777,7465354],[4424413,7632741],[3484677,7327744],[2677961,7106731],[2548081,7336675],[3088653,7339779],[2278689,7605132],[2032451,7758042],[1402207,7629666],[806321,7113823],[390230,6862606],[454487,6517279],[882817,6544937],[1062248,6180450],[1296637,6258586],[1490316,6670789],[1386524,6940873],[1807404,7263355],[1637873,6926628],[1817358,6646689],[2219464,6713826],[2229766,6608648],[1961602,6434966],[1720149,6250897],[1747577,6162379],[1623801,6081495],[1171336,6010404],[816406,6140472],[701662,6138320],[573864,5981119],[279253,5752017],[211997,5730735],[-138374,5458861],[-393017,5463199],[-103679,5170296],[-167324,4883282],[-700977,4919448],[-800965,4711532],[-856407,4359735],[-674574,4175499],[-488830,4045957],[-61713,4236732],[263981,4777586],[653443,4913396],[778592,4988015],[1377846,4506711],[1451947,4275341],[1640492,4541113],[1104227,4957522],[1074277,5100404],[1213162,5123518],[1194354,5113502],[1408810,4892663],[1631045,4778364],[1717393,4711195],[1804569,4459281],[1963137,4147059],[2164433,4301638],[2035521,4554585],[2321243,4593526],[2315937,4705544],[2480528,4725676],[2509666,4914908],[2580730,5090627],[2904518,5165554],[3045236,5139715],[3300282,5289962],[3198067,5085252],[3515927,4884637],[4114327,4709312],[4308595,4703531],[4083908,5014927],[4255629,5212658],[3983217,5431524],[4267357,5789401],[5048750,5665546],[5088288,6036917],[5667641,6182929],[6101866,5981935],[6330799,6055061],[6761974,5700085],[7453504,5521077]]],[[[3765270,7993541],[3953628,7867826],[4635851,8274927],[3765270,7993541]]],[[[11859935,6004819],[11788567,5961896],[12343588,5164985],[12358867,5495079],[11859935,6004819]]],[[[-13090044,7379929],[-13259926,7548670],[-13729475,7162560],[-13616952,7250414],[-13340954,7093683],[-12849868,7260454],[-13090044,7379929]]],[[[-5002982,466050],[-5221920,645544],[-5283555,259220],[-5002982,466050]]],[[[-257248,5972842],[-490121,5623748],[46524,5689381],[39198,5922156],[-401755,6521603],[-458644,6175113],[-257248,5972842]]],[[[-1092813,7307145],[-1845598,7224623],[-1440588,7015548],[-1092813,7307145]]]]},"properties":{"code":"EU","name":"Europe"}},
{"type":"Feature","geometry":{"type":"MultiPolygon","coordinates":[[[[-5329573,-7765854],[-4916698,-7849363],[-5179282,-7540581],[-5329573,-7765854]]],[[[10973783,-8861023],[10342765,-8601220],[11104339,-8285707],[12294161,-7805531],[11406999,-7510279],[10914887,-7351788],[10171647,-7283178],[8599551,-7250634],[6194053,-7380257],[4872031,-7820048],[5122040,-7450174],[3976730,-7267874],[1636172,-7712425],[694966,-7647967],[-742387,-7765488],[-2394304,-8393095],[-1863217,-8554340],[-3185439,-8659971],[-3642833,-8765336],[-4923259,-8548211],[-5267040,-8255435],[-4329552,-8055618],[-4442897,-7749052],[-5063754,-7391624],[-4887060,-7926288],[-6268622,-7926288],[-7378797,-7890441],[-6969166,-8132303],[-8020875,-7990378],[-9461194,-8043328],[-9968517,-8153040],[-10303868,-8452714],[-8899545,-8912435],[-10973783,-8861023],[-9602645,-9072202],[9602645,-9072202],[10973783,-8861023]]]]},"properties":{"code":"AN","name":"Antarctica"}}
]}