{"type":"FeatureCollection", "features": [
{"type":"Feature","geometry":{"type":"MultiPolygon","coordinates":[[[[-3068341,4622001],[-3098034,4623123],[-3078873,4568763],[-3094705,4521225],[-3067099,4488324],[-3042287,4583581],[-3068341,4622001]]],[[[-3294272,4195437],[-3345919,4239757],[-3355509,4152827],[-3327640,4139980],[-3294272,4195437]]],[[[-3098323,3458218],[-3185142,3500508],[-3211238,3488808],[-3214899,3410966],[-3164167,3422695],[-3091962,3411047],[-3098323,3458218]]],[[[-2131795,2537992],[-2124148,2562176],[-2178317,2649333],[-2173350,2916659],[-2192978,3003235],[-2186924,3066216],[-2239007,3070990],[-2280294,3034697],[-2291642,3041028],[-2337529,3035084],[-2323705,3070287],[-2339656,3196731],[-2317046,3218033],[-2368145,3228857],[-2405407,3269984],[-2300498,3403966],[-2107911,3641801],[-1954840,3823717],[-1708620,4103923],[-1737432,4192649],[-1802709,4229038],[-1853547,4305287],[-1869234,4365339],[-1925790,4407511],[-1925511,4496055],[-1960073,4511156],[-1950155,4612041],[-2038052,4614395],[-2061294,4652253],[-2153512,4662306],[-2189150,4684358],[-2291277,4668718],[-2360793,4676302],[-2401216,4733598],[-2468377,4721768],[-2497936,4588814],[-2532679,4549539],[-2509116,4465921],[-2547529,4430030],[-2518566,4393763],[-2547935,4393032],[-2558569,4447672],[-2607998,4410813],[-2647921,4477591],[-2593260,4512928],[-2651374,4559448],[-2784674,4608664],[-2796413,4569275],[-2783831,4517690],[-2814938,4535493],[-2858895,4470371],[-2843696,4416009],[-2802755,4380486],[-2802685,4332998],[-2706760,4312262],[-2752404,4292952],[-2806280,4220646],[-2840746,4214036],[-2874812,4255956],[-2951346,4263578],[-2948286,4306961],[-3164981,4281696],[-3209701,4194455],[-3182900,4107372],[-3208257,4108348],[-3207324,4173997],[-3257549,4172934],[-3291308,4060477],[-3234331,4017418],[-3201042,4032465],[-3251150,3957291],[-3286676,3943056],[-3325124,3869465],[-3256581,3856239],[-3247128,3816881],[-3261299,3744168],[-3217991,3779434],[-3216432,3728240],[-3163973,3711381],[-3219012,3690713],[-3306094,3630221],[-3414112,3628762],[-3511368,3643194],[-3551760,3625937],[-3570883,3661298],[-3632053,3680898],[-3756044,3668527],[-3683690,3632285],[-3638485,3624917],[-3590309,3591099],[-3534586,3581347],[-3486389,3550640],[-3445412,3567503],[-3313490,3540787],[-3279518,3560340],[-3163260,3556857],[-3121870,3538668],[-3023955,3563078],[-3032220,3617796],[-2789777,3672363],[-2715302,3665825],[-2691218,3642528],[-2703139,3605243],[-2732489,3636765],[-2789015,3643957],[-2890948,3582926],[-2896209,3544201],[-2937026,3529041],[-2900638,3504779],[-2861555,3519597],[-2804804,3501434],[-2769197,3523008],[-2740655,3479762],[-2681980,3506763],[-2679303,3554030],[-2575816,3517125],[-2596346,3498831],[-2599561,3438099],[-2569529,3393340],[-2562069,3340799],[-2504660,3310374],[-2410919,3193557],[-2359293,3200160],[-2404504,3164371],[-2368678,3078867],[-2363594,3007363],[-2338476,2947627],[-2299736,2952961],[-2312122,3017158],[-2307509,3034898],[-2282661,2987758],[-2294164,2942061],[-2258780,2910826],[-2225366,3009950],[-2234758,2907899],[-2221165,2880807],[-2219909,2810451],[-2246032,2756516],[-2224301,2729334],[-2217211,2612496],[-2262393,2578706],[-2187653,2577699],[-2206613,2502689],[-2227923,2490690],[-2221843,2439004],[-2187790,2455527],[-2131795,2537992]]],[[[-3747433,3686021],[-3792610,3728875],[-3846851,3708365],[-3766646,3661696],[-3747433,3686021]]],[[[-2234647,2614561],[-2227226,2660560],[-2266122,2626170],[-2234647,2614561]]],[[[-2206238,2522312],[-2197036,2576832],[-2223378,2573788],[-2267550,2510592],[-2206238,2522312]]],[[[-2250656,2737156],[-2282406,2754467],[-2294561,2690248],[-2273755,2679613],[-2236077,2713849],[-2250656,2737156]]],[[[-2313132,2815439],[-2321237,2843712],[-2356941,2835153],[-2344648,2790204],[-2364282,2696256],[-2333232,2743605],[-2313132,2815439]]],[[[-2249181,2886599],[-2309317,2779487],[-2260229,2785203],[-2228098,2872944],[-2249181,2886599]]],[[[-2296479,2923555],[-2355133,2920901],[-2345758,2842436],[-2320963,2860543],[-2303291,2827056],[-2272092,2884625],[-2296479,2923555]]],[[[-2299871,2676870],[-2338125,2625103],[-2314163,2587696],[-2330894,2526704],[-2313299,2475141],[-2277140,2520667],[-2281579,2664982],[-2299871,2676870]]],[[[-2292659,2738524],[-2313135,2748539],[-2348485,2668285],[-2332686,2666580],[-2292659,2738524]]],[[[-3033759,3484831],[-3045537,3505673],[-3094764,3498961],[-3038462,3456382],[-3033759,3484831]]],[[[-4053963,3786591],[-4055199,3815123],[-4139071,3807029],[-4053963,3786591]]],[[[-3956212,3758578],[-3975175,3781904],[-4002692,3734948],[-3940591,3741604],[-3956212,3758578]]],[[[-5935758,-138586],[-5847769,-131312],[-5855737,-57159],[-5891480,11622],[-5935668,-30934],[-5956839,-113816],[-5935758,-138586]]],[[[-5908340,121893],[-5921188,85522],[-5878870,72493],[-5908340,121893]]],[[[-5980739,259778],[-5979585,295913],[-6009424,303521],[-6011882,265040],[-5980739,259778]]],[[[-6071844,410910],[-6053904,439629],[-6096201,449541],[-6071844,410910]]],[[[1584684,1065956],[1551537,1046430],[1473503,933188],[1455929,880604],[1306290,851474],[1273841,827733],[1305739,770155],[1209208,692272],[1128446,661969],[1042308,589457],[979957,614999],[980695,651525],[1018578,693019],[1035943,801842],[973926,992897],[852280,1059758],[829038,1108952],[802178,1095459],[772100,1141488],[493105,1271669],[415392,1232324],[310598,1249303],[260702,1231419],[148531,1289262],[95955,1278738],[28035,1302127],[10656,1364214],[-11928,1329628],[-311557,1337155],[-468061,1346461],[-779763,1376289],[-934700,1396803],[-1180920,1437369],[-1485045,1501459],[-1784129,1580342],[-1996915,1646647],[-2008976,1587833],[-1996485,1529756],[-2028212,1464142],[-2046992,1460926],[-2029100,1555492],[-2110834,1586865],[-2152734,1627074],[-2166034,1574521],[-2165230,1469903],[-2184320,1374291],[-2296728,1114495],[-2359238,1030568],[-2375845,865190],[-2431873,777240],[-2415755,696600],[-2434208,589043],[-2402605,524497],[-2400197,477054],[-2373840,441770],[-2361577,471388],[-2347609,392681],[-2375015,435695],[-2383262,371530],[-2348707,329446],[-2367301,263403],[-2298278,96362],[-2302316,26806],[-2227272,216],[-2194902,-43859],[-2141093,-68609],[-2066787,-170273],[-2054601,-260946],[-1832278,-289133],[-1846810,-309757],[-1684552,-409183],[-1518864,-505356],[-1253656,-544644],[-1247156,-495037],[-1082431,-516904],[-955545,-656330],[-919695,-767768],[-884463,-803527],[-805138,-853257],[-767889,-832352],[-749249,-786312],[-709815,-764745],[-635500,-776136],[-551823,-863419],[-520403,-947220],[-446211,-1037086],[-442285,-1093844],[-411191,-1160331],[-237390,-1229475],[-215880,-1219913],[-254527,-1107983],[-200478,-984735],[-139545,-945601],[-160634,-917476],[-83650,-926000],[-26719,-890547],[21533,-825969],[102041,-795899],[176723,-798810],[265933,-821354],[300735,-789426],[364973,-829151],[361121,-847936],[466770,-863829],[497632,-823177],[550630,-863302],[582721,-846727],[511940,-804555],[546275,-780393],[507380,-743516],[465915,-761460],[459386,-722953],[521756,-743410],[585963,-712043],[660152,-712582],[669702,-675523],[693817,-718502],[821007,-696448],[890057,-716080],[936726,-765839],[1024384,-731533],[1054669,-706303],[1090191,-722158],[1202956,-824732],[1196854,-941848],[1262881,-1042538],[1284620,-1037444],[1330640,-1132905],[1367387,-1144991],[1401574,-1217752],[1473285,-1186043],[1488441,-1045231],[1461241,-977686],[1393783,-855860],[1369760,-784270],[1325816,-707012],[1284975,-591399],[1308808,-475295],[1360001,-406573],[1398729,-378442],[1462205,-304507],[1509455,-218732],[1567058,-201072],[1576489,-160201],[1623543,-103429],[1677199,-85211],[1667311,-30954],[1695551,-15799],[1719112,51301],[1634159,40869],[1703369,79581],[1677038,158396],[1615275,192769],[1644465,202538],[1632580,261405],[1555749,299006],[1610175,288859],[1589640,404786],[1605938,404284],[1682864,278669],[1669442,196968],[1695608,244406],[1722926,350158],[1658546,449425],[1731229,409193],[1764704,500033],[1767280,569924],[1738073,595379],[1825565,694335],[1935227,733152],[1933503,781161],[1960204,752648],[2051147,799648],[2002532,800805],[1944552,846565],[1969479,887494],[1946392,904744],[1953938,968004],[1980301,1034745],[2040322,1080809],[2036980,1119422],[2075203,1110348],[2160505,1186624],[2147321,1241078],[2079588,1282478],[2027521,1429650],[1981741,1447296],[1950313,1419663],[1911607,1438471],[1882652,1341256],[1888375,1248798],[1864641,1166826],[1831684,1160999],[1826222,1126600],[1584684,1065956]]],[[[1867276,670063],[1783048,641809],[1753167,602395],[1820958,620253],[1913993,690613],[1867276,670063]]]]},"properties":{"code":"USA","name":"United States of America"}},
{"type":"Feature","geometry":{"type":"Polygon","coordinates":[[[3742510,-2374784],[3737831,-2294753],[3665550,-2334283],[3688572,-2376605],[3649694,-2411820],[3742510,-2374784]]]},"properties":{"code":"TTO","name":"Trinidad and Tobago"}},
{"type":"Feature","geometry":{"type":"Polygon","coordinates":[[[3660718,-2051147],[3659839,-2028092],[3648109,-2040219],[3660718,-2051147]]]},"properties":{"code":"VCT","name":"St. Vin. and Gren."}},
{"type":"Feature","geometry":{"type":"Polygon","coordinates":[[[3674233,-1969329],[3666577,-1940212],[3654798,-1964884],[3674233,-1969329]]]},"properties":{"code":"LCA","name":"Saint Lucia"}},
{"type":"Feature","geometry":{"type":"Polygon","coordinates":[[[3416215,-1654950],[3395725,-1642550],[3392809,-1650879],[3416215,-1654950]]]},"properties":{"code":"KNA","name":"St. Kitts and Nevis"}},
{"type":"Feature","geometry":{"type":"Polygon","coordinates":[[[1987960,-2954470],[1903473,-2904324],[1854947,-2892979],[1733742,-2889306],[1675743,-2939353],[1598751,-2984315],[1541709,-3002885],[1440081,-2987508],[1400411,-2932813],[1359154,-2951105],[1384845,-3002240],[1366501,-3027085],[1374641,-3057245],[1357315,-3073942],[1375151,-3098574],[1396025,-3069176],[1504518,-3076957],[1532674,-3118707],[1570753,-3099739],[1610628,-3163495],[1702613,-3121477],[1647811,-3066023],[1656190,-3041983],[1723023,-2999868],[1754075,-2950980],[1793810,-2946399],[1908038,-2997097],[1876489,-3036455],[1942263,-3117169],[1956907,-3062564],[1974748,-3078116],[2014463,-3025162],[1977874,-2973496],[1987960,-2954470]]]},"properties":{"code":"PAN","name":"Panama"}},
{"type":"Feature","geometry":{"type":"Polygon","coordinates":[[[1293319,-2353879],[1145905,-2408323],[1109470,-2392480],[1074887,-2450023],[1014516,-2506225],[985441,-2486205],[955118,-2519149],[910994,-2523257],[915979,-2571862],[848579,-2613037],[812443,-2623699],[917151,-2697452],[951186,-2740283],[1035540,-2806899],[1048555,-2792553],[1129337,-2811480],[1191620,-2801971],[1253011,-2821681],[1270681,-2801012],[1242952,-2762203],[1264579,-2722838],[1247145,-2630979],[1265376,-2611107],[1261716,-2540219],[1273532,-2465100],[1295334,-2425178],[1293319,-2353879]]]},"properties":{"code":"NIC","name":"Nicaragua"}},
{"type":"Feature","geometry":{"type":"Polygon","coordinates":[[[-2054601,-260946],[-2034663,-376852],[-1996326,-472623],[-1982538,-595409],[-1926125,-649678],[-1854945,-772881],[-1889536,-828902],[-1960825,-818152],[-1915782,-898045],[-1842607,-968414],[-1795542,-951703],[-1788620,-993974],[-1731737,-1045750],[-1711685,-1130915],[-1723507,-1201809],[-1569907,-1364847],[-1534884,-1450352],[-1483329,-1421051],[-1476185,-1392453],[-1549744,-1285157],[-1563610,-1310372],[-1589594,-1279429],[-1585050,-1230051],[-1631404,-1110352],[-1644585,-1004981],[-1739399,-862464],[-1742128,-794328],[-1793211,-727946],[-1809296,-674874],[-1858685,-612605],[-1876592,-562563],[-1879440,-457301],[-1868626,-374593],[-1804443,-432535],[-1708499,-488362],[-1721705,-529686],[-1701624,-624976],[-1663869,-741058],[-1581074,-873673],[-1525303,-894142],[-1528368,-954521],[-1479721,-989257],[-1466480,-1033431],[-1439620,-1036521],[-1417186,-1085088],[-1443209,-1111898],[-1426319,-1163524],[-1317339,-1240393],[-1313819,-1287708],[-1233050,-1364254],[-1172090,-1462349],[-1115000,-1531459],[-1106158,-1603156],[-1064903,-1662270],[-1100572,-1737637],[-1077988,-1761681],[-1122463,-1778604],[-1106320,-1825417],[-1054478,-1903902],[-949368,-1966135],[-902652,-2025186],[-825060,-2059839],[-734633,-2081376],[-709555,-2112582],[-630753,-2166469],[-507734,-2224979],[-407807,-2249039],[-382187,-2274964],[-299774,-2314160],[-237838,-2321831],[-164765,-2351078],[-50541,-2316983],[10804,-2268874],[36781,-2292299],[117902,-2307920],[239724,-2405640],[303613,-2468660],[320151,-2410761],[307375,-2384268],[354861,-2301386],[494959,-2296080],[497186,-2261281],[387288,-2171062],[432213,-2169855],[430929,-2108300],[627068,-2099488],[664442,-2080905],[692408,-2026643],[716529,-2022251],[742700,-1980393],[764832,-2041418],[802805,-1894565],[774691,-1890633],[795189,-1838091],[853422,-1747612],[854032,-1688443],[716639,-1676922],[542219,-1724477],[487471,-1756170],[475349,-1877142],[452702,-1939410],[379939,-1992714],[397909,-2021135],[341938,-2039772],[323104,-2013495],[226266,-2042851],[154906,-2048210],[48650,-2077080],[-19420,-2019700],[-87658,-2013487],[-137071,-1948561],[-154159,-1890753],[-223315,-1807922],[-275470,-1698258],[-295986,-1585544],[-272154,-1391856],[-215880,-1219913],[-237390,-1229475],[-411191,-1160331],[-442285,-1093844],[-446211,-1037086],[-520403,-947220],[-551823,-863419],[-635500,-776136],[-709815,-764745],[-749249,-786312],[-767889,-832352],[-805138,-853257],[-884463,-803527],[-919695,-767768],[-955545,-656330],[-1082431,-516904],[-1247156,-495037],[-1253656,-544644],[-1518864,-505356],[-1684552,-409183],[-1846810,-309757],[-1832278,-289133],[-2054601,-260946]]]},"properties":{"code":"MEX","name":"Mexico"}},
{"type":"Feature","geometry":{"type":"Polygon","coordinates":[[[1885186,-1889249],[1785044,-1906739],[1839692,-1961417],[1901217,-1969286],[1934712,-1934729],[2003058,-1929441],[1985055,-1906033],[1885186,-1889249]]]},"properties":{"code":"JAM","name":"Jamaica"}},
{"type":"Feature","geometry":{"type":"Polygon","coordinates":[[[1293319,-2353879],[1237240,-2318727],[1226041,-2336114],[1167092,-2276094],[1088811,-2265269],[1001056,-2271643],[940405,-2300653],[880786,-2307521],[802816,-2296958],[737460,-2320949],[632854,-2420999],[619250,-2470674],[645990,-2474256],[718220,-2526300],[754090,-2509652],[802813,-2525528],[793905,-2571073],[829971,-2573704],[848579,-2613037],[915979,-2571862],[910994,-2523257],[955118,-2519149],[985441,-2486205],[1014516,-2506225],[1074887,-2450023],[1109470,-2392480],[1145905,-2408323],[1293319,-2353879]]]},"properties":{"code":"HND","name":"Honduras"}},
{"type":"Feature","geometry":{"type":"Polygon","coordinates":[[[2432853,-1639382],[2292371,-1649256],[2268045,-1682084],[2343136,-1690656],[2338544,-1733401],[2393360,-1766311],[2351841,-1802428],[2198778,-1808460],[2183949,-1846964],[2244496,-1869038],[2293102,-1835524],[2347623,-1835250],[2431022,-1808462],[2464590,-1822392],[2430601,-1766794],[2456281,-1700676],[2432853,-1639382]]]},"properties":{"code":"HTI","name":"Haiti"}},
{"type":"Feature","geometry":{"type":"Polygon","coordinates":[[[303613,-2468660],[424762,-2532329],[484127,-2529742],[541098,-2548245],[619250,-2470674],[632854,-2420999],[737460,-2320949],[664375,-2307639],[627041,-2309259],[627068,-2099488],[430929,-2108300],[432213,-2169855],[387288,-2171062],[497186,-2261281],[494959,-2296080],[354861,-2301386],[307375,-2384268],[320151,-2410761],[303613,-2468660]]]},"properties":{"code":"GTM","name":"Guatemala"}},
{"type":"Feature","geometry":{"type":"Polygon","coordinates":[[[3629774,-2194052],[3636548,-2167500],[3626140,-2175257],[3629774,-2194052]]]},"properties":{"code":"GRD","name":"Grenada"}},
{"type":"Feature","geometry":{"type":"Polygon","coordinates":[[[619250,-2470674],[541098,-2548245],[678240,-2590619],[782053,-2595577],[793905,-2571073],[802813,-2525528],[754090,-2509652],[718220,-2526300],[645990,-2474256],[619250,-2470674]]]},"properties":{"code":"SLV","name":"El Salvador"}},
{"type":"Feature","geometry":{"type":"Polygon","coordinates":[[[2464590,-1822392],[2510258,-1856531],[2536924,-1779375],[2624401,-1761093],[2663084,-1729843],[2749467,-1712268],[2775223,-1727340],[2806177,-1674348],[2764851,-1651522],[2664758,-1652556],[2602820,-1608693],[2513356,-1598517],[2452158,-1614867],[2432853,-1639382],[2456281,-1700676],[2430601,-1766794],[2464590,-1822392]]]},"properties":{"code":"DOM","name":"Dominican Rep."}},
{"type":"Feature","geometry":{"type":"Polygon","coordinates":[[[3601035,-1827058],[3589029,-1791754],[3574124,-1803717],[3601035,-1827058]]]},"properties":{"code":"DMA","name":"Dominica"}},
{"type":"Feature","geometry":{"type":"MultiPolygon","coordinates":[[[[719874,5397269],[673045,5317600],[718579,5283241],[667652,5284778],[650740,5256438],[676001,5195676],[722519,5182698],[760238,5133551],[668121,5141843],[638753,5127239],[701517,5098211],[686514,5083744],[628459,5100957],[601824,5087163],[556291,4984782],[592549,4928417],[563941,4924674],[541569,4820150],[552263,4795911],[601295,4813081],[631463,4707885],[526495,4598236],[558846,4544844],[644253,4520392],[695119,4564350],[723649,4528999],[668417,4514871],[621690,4479428],[649105,4446881],[710747,4453962],[692625,4415366],[743366,4395566],[809050,4428849],[847385,4470483],[907370,4479350],[1008569,4470363],[1026588,4441737],[1144297,4397843],[1153850,4363582],[1196784,4346479],[1257742,4280265],[1301159,4274645],[1306149,4222597],[1368584,4141557],[1408821,4140938],[1456775,4188712],[1472607,4155431],[1525313,4181596],[1571707,4119198],[1526706,4123428],[1463284,4101466],[1496132,4068552],[1577282,4070861],[1641205,4107529],[1649852,4073241],[1706317,3975050],[1702809,3946437],[1656096,3925116],[1666537,3889486],[1738232,3939187],[1744919,3906407],[1680806,3886294],[1706423,3813802],[1734991,3870297],[1784442,3898374],[1789641,3878372],[1730030,3855345],[1713210,3800457],[1729592,3772678],[1781766,3763190],[1788398,3711876],[1861228,3646393],[1902973,3654324],[2006407,3550675],[2064914,3509175],[2166741,3462301],[2194434,3432215],[2243373,3431324],[2338626,3361936],[2399680,3344486],[2458913,3381008],[2473866,3445159],[2508650,3388502],[2567917,3372588],[2649233,3380467],[2672239,3433580],[2634859,3461464],[2632284,3508599],[2573703,3600306],[2507539,3681455],[2467692,3828837],[2417470,3862613],[2415404,3902236],[2332298,3925718],[2363910,3946401],[2360122,3990378],[2324781,3986617],[2364431,4041496],[2333765,4118172],[2341586,4136917],[2376182,4067561],[2413321,4126971],[2392867,4264893],[2330443,4359047],[2323123,4406784],[2271127,4441087],[2323060,4447065],[2342810,4471092],[2373217,4641761],[2335701,4711666],[2314448,4810515],[2290863,4850763],[2277970,4822983],[2212523,4766056],[2200005,4692668],[2190583,4739960],[2136584,4671318],[2133263,4708727],[2093476,4726066],[2127907,4767138],[2119638,4808520],[2083722,4831018],[2145961,4845297],[2219818,4829091],[2258101,4895556],[2116153,4946906],[2000532,4909313],[1951766,4930315],[1939840,4872487],[1935260,4943245],[2002580,4928738],[2069734,4957113],[1983890,5005372],[1905682,4981529],[1894690,4893357],[1861664,4994387],[1942571,5019307],[1937845,5074242],[1899021,5094891],[1866186,5059569],[1824827,5067705],[1860463,5088043],[1859950,5140532],[1774158,5156696],[1795908,5130155],[1730150,5160244],[1750398,5181495],[1629778,5209563],[1612042,5182622],[1572145,5186925],[1545078,5220986],[1578721,5268150],[1528937,5289463],[1495747,5256702],[1433968,5244856],[1352368,5293149],[1293837,5353939],[1212922,5358625],[1164090,5387760],[1185556,5426990],[1141287,5441265],[1128622,5482498],[1058390,5544826],[1028950,5540570],[995166,5498454],[1039435,5458132],[1006860,5427922],[1062785,5359037],[985331,5417384],[940548,5429266],[965720,5375463],[925876,5377589],[897913,5317139],[877077,5330506],[901014,5406126],[877902,5447160],[829583,5423866],[778315,5425792],[719874,5397269]]],[[[1570614,4051090],[1492220,4052306],[1516477,3987042],[1564330,3992865],[1592412,3972227],[1623380,4023187],[1570614,4051090]]],[[[741881,5156243],[670119,5185541],[696983,5157064],[741881,5156243]]],[[[2153078,4802111],[2133403,4798182],[2132702,4754561],[2115899,4735924],[2159048,4703294],[2182525,4787344],[2153078,4802111]]],[[[1743051,5223034],[1784048,5189656],[1795093,5215712],[1743051,5223034]]]]},"properties":{"code":"GRL","name":"Greenland"}},
{"type":"Feature","geometry":{"type":"MultiPolygon","coordinates":[[[[1352100,-1444478],[1209156,-1483489],[1131417,-1525467],[1101538,-1560377],[1092359,-1627999],[1150948,-1578317],[1204143,-1566632],[1265285,-1507851],[1350885,-1498468],[1336280,-1532685],[1365231,-1549862],[1502098,-1546724],[1566586,-1573241],[1700452,-1578180],[1721775,-1626371],[1777345,-1655167],[1857556,-1649699],[1873981,-1673308],[1818549,-1744414],[1977864,-1701673],[2069006,-1695537],[2172813,-1654192],[2182154,-1635142],[2098676,-1604609],[2019383,-1610510],[2020014,-1581029],[1907787,-1569092],[1812024,-1519972],[1798864,-1530528],[1683531,-1485704],[1622860,-1490616],[1577484,-1460014],[1473733,-1434854],[1352100,-1444478]]],[[[1295190,-1628285],[1276087,-1595228],[1239106,-1610500],[1266347,-1645859],[1295190,-1628285]]]]},"properties":{"code":"CUB","name":"Cuba"}},
{"type":"Feature","geometry":{"type":"Polygon","coordinates":[[[1400411,-2932813],[1375708,-2925436],[1295353,-2847502],[1270681,-2801012],[1253011,-2821681],[1191620,-2801971],[1129337,-2811480],[1048555,-2792553],[1035540,-2806899],[1029549,-2879300],[1055285,-2930812],[1114340,-2960462],[1138566,-2932457],[1093845,-2889230],[1157329,-2922274],[1165112,-2948914],[1253059,-2980656],[1283601,-3003714],[1275337,-3050041],[1326516,-3067412],[1339890,-3046338],[1345809,-3071138],[1375151,-3098574],[1357315,-3073942],[1374641,-3057245],[1366501,-3027085],[1384845,-3002240],[1359154,-2951105],[1400411,-2932813]]]},"properties":{"code":"CRI","name":"Costa Rica"}},
{"type":"Feature","geometry":{"type":"MultiPolygon","coordinates":[[[[-2375107,2430823],[-2395675,2445079],[-2420237,2373872],[-2385058,2325781],[-2317885,2404794],[-2375107,2430823]]],[[[-2373713,2311516],[-2423255,2328042],[-2397054,2190729],[-2396903,2244309],[-2373713,2311516]]],[[[-2220048,1926653],[-2256007,1968191],[-2288725,1967373],[-2286602,1890595],[-2246308,1875632],[-2208518,1802647],[-2180354,1704753],[-2135519,1698905],[-2164980,1677338],[-2077996,1595311],[-2061483,1619380],[-2069825,1699094],[-2105004,1736132],[-2123084,1849906],[-2220048,1926653]]],[[[-2131795,2537992],[-2157374,2483378],[-2128003,2483106],[-2231881,2399831],[-2224452,2360436],[-2262703,2326461],[-2241268,2257816],[-2200494,2288467],[-2156890,2303945],[-2173186,2265870],[-2194969,2285998],[-2206658,2257077],[-2187118,2233369],[-2190193,2183000],[-2170529,2184753],[-2221972,2114038],[-2209943,2061775],[-2229098,1992916],[-2172460,1918190],[-2175907,1898245],[-2086944,1860348],[-2089636,1801801],[-2015813,1708588],[-2016264,1651294],[-1996915,1646647],[-1784129,1580342],[-1485045,1501459],[-1180920,1437369],[-934700,1396803],[-779763,1376289],[-468061,1346461],[-311557,1337155],[-11928,1329628],[10656,1364214],[28035,1302127],[95955,1278738],[148531,1289262],[260702,1231419],[310598,1249303],[415392,1232324],[493105,1271669],[772100,1141488],[802178,1095459],[829038,1108952],[852280,1059758],[973926,992897],[1035943,801842],[1018578,693019],[980695,651525],[979957,614999],[1042308,589457],[1128446,661969],[1209208,692272],[1305739,770155],[1273841,827733],[1306290,851474],[1455929,880604],[1473503,933188],[1551537,1046430],[1584684,1065956],[1631116,1116139],[1680550,1228186],[1747111,1300844],[1788282,1324717],[1817791,1373102],[1851674,1463998],[1884881,1591289],[1929098,1655806],[1972219,1680750],[1976036,1758872],[1997030,1792085],[2241120,1893598],[2337694,1920873],[2412466,1959509],[2443901,2039305],[2458035,2110722],[2542896,2172051],[2574361,2248423],[2576105,2289699],[2514926,2383744],[2475714,2412118],[2405667,2403018],[2369083,2432356],[2321224,2417405],[2286939,2327480],[2246891,2262127],[2247712,2333506],[2305514,2387297],[2347146,2473618],[2298880,2488894],[2254796,2463042],[2225833,2488674],[2174408,2484969],[2138649,2437716],[2140982,2491224],[2116789,2518259],[2043790,2512294],[2026606,2550010],[1974130,2569270],[2013231,2583828],[1998389,2618192],[1914343,2637831],[1924177,2691157],[1877900,2707465],[1854441,2690224],[1854176,2739483],[1654355,2882101],[1644010,2812953],[1665351,2738822],[1636958,2661147],[1598895,2607824],[1554378,2614629],[1528431,2651188],[1463731,2640226],[1452004,2691388],[1405726,2747682],[1379831,2864080],[1273158,2848241],[1206502,2906481],[1112846,2951943],[1069732,2912974],[919405,2918342],[889968,2887680],[912827,2825863],[941398,2808832],[926438,2722814],[995480,2649937],[989045,2573878],[964893,2490383],[1061366,2435540],[1119402,2353315],[1145214,2237081],[1092111,2127139],[993239,2047353],[1059829,1963019],[1051791,1947623],[1127923,1796458],[1107372,1733933],[1124872,1676854],[1085222,1717927],[1070863,1657709],[1014103,1669334],[992343,1716470],[921999,1758914],[860209,1830711],[851789,1925295],[823501,1981264],[827539,2032999],[798277,2066112],[710545,2072512],[627978,2060527],[594019,2090393],[469264,2128512],[374524,2208646],[238479,2243567],[140638,2206283],[153101,2265306],[101520,2405032],[42084,2399762],[19199,2416471],[12219,2534767],[51490,2683785],[91280,2733338],[76285,2752073],[132022,2778000],[138063,2848965],[219748,2868898],[218666,2910151],[160567,2945117],[242073,2942984],[243247,2979654],[310921,2985652],[344387,3009112],[384224,3123198],[289158,3131351],[246701,3170521],[187383,3191944],[246717,3192101],[337165,3135265],[369491,3138832],[418711,3216538],[383891,3268138],[438081,3274808],[488431,3242031],[516309,3257881],[456530,3330580],[528595,3268227],[605585,3357133],[604947,3399898],[527532,3495252],[575539,3526248],[542310,3545414],[562359,3574663],[496240,3604701],[508146,3622644],[383209,3627628],[394976,3562232],[419217,3548134],[397441,3512483],[373750,3373956],[346181,3335164],[297771,3393760],[285042,3449102],[306384,3448630],[291619,3506115],[244371,3551225],[221753,3522588],[205877,3440141],[169011,3546614],[180981,3572704],[85428,3586323],[118618,3653433],[77315,3712660],[77035,3756368],[16053,3831725],[-52763,3757067],[-59454,3707616],[-34142,3679505],[-60678,3656230],[-42171,3602900],[29776,3562528],[18289,3504233],[57363,3474800],[-28550,3378270],[-16012,3296789],[-60631,3358934],[-41709,3433366],[-74724,3413740],[-102531,3461202],[-156101,3448934],[-149276,3388803],[-320664,3392508],[-365275,3437950],[-397452,3432414],[-442553,3484312],[-464340,3537452],[-559882,3518483],[-583412,3485946],[-456078,3493539],[-489600,3462723],[-549992,3453509],[-565817,3423196],[-548731,3327352],[-576561,3316141],[-603453,3359235],[-577671,3358756],[-595882,3412730],[-650303,3466757],[-757950,3454911],[-818923,3471512],[-876678,3508069],[-798925,3544201],[-846074,3620674],[-868064,3611319],[-940236,3655494],[-1008551,3720701],[-1022868,3753390],[-1091843,3795872],[-1134812,3761221],[-1164892,3773282],[-1127764,3845468],[-1169580,3828856],[-1201739,3784675],[-1225339,3840666],[-1215392,3898077],[-1233023,3908587],[-1309570,3876884],[-1304306,3895351],[-1397865,3885074],[-1419532,3911623],[-1315923,3915354],[-1335926,3943462],[-1372206,3932236],[-1446197,3938903],[-1517588,3927313],[-1489902,3947408],[-1564443,3962455],[-1598024,3930365],[-1628204,3945136],[-1655767,3998266],[-1662523,4052762],[-1708620,4103923],[-1954840,3823717],[-2107911,3641801],[-2300498,3403966],[-2405407,3269984],[-2368145,3228857],[-2317046,3218033],[-2339656,3196731],[-2323705,3070287],[-2337529,3035084],[-2291642,3041028],[-2280294,3034697],[-2239007,3070990],[-2186924,3066216],[-2192978,3003235],[-2173350,2916659],[-2178317,2649333],[-2124148,2562176],[-2131795,2537992]]],[[[-345351,4568176],[-355670,4581686],[-429537,4560690],[-344418,4534327],[-345351,4568176]]],[[[-376458,4515619],[-448823,4510330],[-460667,4472453],[-436790,4446539],[-387286,4455431],[-376458,4515619]]],[[[-525671,4471100],[-614607,4491746],[-718514,4429582],[-763875,4389072],[-702441,4357016],[-669852,4400793],[-605317,4430047],[-609801,4376867],[-572535,4400863],[-525671,4471100]]],[[[-376974,4295489],[-364320,4366384],[-421540,4342705],[-413863,4242791],[-469172,4258336],[-494124,4335195],[-562700,4378785],[-635318,4306451],[-578459,4301928],[-665154,4278403],[-623987,4232389],[-478372,4225257],[-503466,4208062],[-584729,4199516],[-578020,4160722],[-493306,4164329],[-418048,4195860],[-371174,4173060],[-326730,4194743],[-304320,4250827],[-323790,4287191],[-375642,4268126],[-376974,4295489]]],[[[-674781,3981413],[-651559,4005312],[-650532,4061911],[-765619,4033465],[-857847,3931958],[-820262,3917170],[-830628,3889799],[-749564,3884192],[-843345,3867257],[-870536,3844811],[-856744,3811178],[-800067,3790049],[-713966,3779416],[-646441,3721622],[-687217,3721380],[-758091,3748192],[-861234,3752404],[-863776,3676591],[-761579,3624156],[-761572,3545938],[-685544,3534533],[-582402,3538701],[-514959,3553953],[-473892,3595356],[-420672,3531665],[-330516,3511014],[-284785,3528401],[-284906,3569668],[-327975,3582125],[-289779,3616945],[-239253,3599123],[-259496,3645790],[-360877,3760336],[-347010,3794203],[-369461,3966748],[-436056,4013467],[-448924,3989352],[-445198,3857515],[-480939,3847797],[-480276,3934626],[-511297,3987502],[-526913,3955381],[-593643,3935857],[-561460,3968193],[-617672,4010294],[-674781,3981413]]],[[[-778057,4183150],[-804657,4240395],[-910619,4260266],[-915612,4193731],[-983693,4139538],[-1014725,4094299],[-1063791,4061140],[-1031439,3992957],[-1025304,3921042],[-967265,3941266],[-925848,3933710],[-878679,3999113],[-817693,4032988],[-673909,4075500],[-706360,4173766],[-778057,4183150]]],[[[365448,5049952],[317361,5040804],[220177,4997497],[198987,4942453],[263955,4894282],[160161,4938829],[77003,4871353],[63619,4839710],[115350,4841799],[93440,4799431],[116833,4763041],[214616,4748083],[271224,4768004],[305697,4829978],[341642,4807339],[242917,4723071],[297812,4670571],[228809,4715699],[175231,4718049],[181044,4669026],[213474,4648524],[271621,4567909],[229101,4576798],[190245,4557597],[181785,4493863],[240358,4514907],[248270,4436198],[199172,4465686],[174753,4445078],[214641,4391573],[148819,4349061],[150427,4313905],[275874,4306591],[379921,4345025],[402084,4312909],[455612,4366685],[442487,4408005],[361181,4422953],[416477,4440779],[417968,4507648],[466832,4526512],[470530,4562412],[435782,4573498],[472164,4606533],[421381,4623944],[456918,4638488],[389478,4671009],[463661,4692261],[450138,4714240],[491390,4727758],[498389,4833917],[518638,4912051],[481720,4935141],[523042,5004114],[505434,5046644],[432819,5063873],[365448,5049952]]],[[[-12215,4444845],[-25482,4412768],[38245,4411956],[35792,4442917],[-12215,4444845]]],[[[44505,4154992],[16874,4214207],[-19846,4207419],[-47743,4151094],[9467,4113896],[45293,4119459],[44505,4154992]]],[[[-162812,4045514],[-216051,3994694],[-175252,3941895],[-220795,3922122],[-236609,3956600],[-267452,3930221],[-239095,3877596],[-200724,3857235],[-155609,3770659],[-119046,3776818],[-58902,3816845],[-53834,3908681],[-118012,3942726],[-76412,3982227],[-84386,4035523],[-137057,4021270],[-162812,4045514]]],[[[484038,3141152],[443077,3207989],[427445,3182840],[424846,3058429],[437195,3012913],[396726,2958101],[466099,2969038],[490721,2909709],[531971,2933364],[574571,3025837],[628943,3014908],[638032,2992032],[710175,2976714],[740064,3015338],[706114,3045623],[654617,3030467],[633907,3094773],[495353,3162939],[484038,3141152]]],[[[-75028,4307249],[-101427,4332238],[-163344,4313121],[-144424,4255257],[-190559,4311530],[-222799,4216602],[-134602,4224662],[-171314,4194484],[-159871,4157829],[-81142,4166447],[-69582,4196921],[-75028,4307249]]],[[[-186663,4614080],[-229581,4620278],[-207829,4532743],[-148163,4492687],[-139588,4460336],[-104459,4454439],[-108995,4530703],[-151811,4585771],[-174452,4566987],[-186663,4614080]]],[[[57887,4793376],[-5088,4778528],[21169,4732958],[-22068,4746668],[-36511,4689344],[-2298,4601035],[80879,4610366],[19137,4570358],[75466,4492817],[151459,4492804],[147858,4533582],[216942,4606438],[201563,4646921],[166743,4639700],[147032,4720561],[85662,4738858],[57887,4793376]]],[[[18983,4352809],[-16998,4368653],[-50353,4333815],[-7717,4284725],[53430,4294783],[85966,4222566],[76994,4189414],[94108,4131654],[161953,4109356],[206094,4137764],[207133,4106994],[310166,4129992],[413610,4131548],[457891,4150987],[474756,4190855],[427523,4258631],[370041,4269998],[319649,4260809],[263798,4219777],[227191,4228078],[180564,4206556],[168629,4238209],[105516,4276274],[158199,4282537],[106168,4329116],[55099,4322806],[18983,4352809]]],[[[-28629,4522236],[-74591,4552069],[-77985,4513027],[-50111,4446923],[-2160,4465778],[2723,4502597],[-28629,4522236]]],[[[58852,4063735],[-1292,4048550],[10013,4010447],[-20920,4013888],[-6977,3836845],[34794,3837189],[51182,3879148],[27449,3914469],[100294,3915837],[151903,4036645],[58852,4063735]]],[[[-98770,3583969],[-131643,3597110],[-141805,3552556],[-185474,3509958],[-139175,3499670],[-104946,3466339],[-59693,3457415],[-24558,3496066],[-53338,3550970],[-98770,3583969]]],[[[2547007,1481961],[2573404,1521077],[2546524,1612829],[2524516,1577934],[2519878,1470460],[2551119,1437903],[2610405,1472499],[2623179,1540694],[2576927,1526488],[2583125,1475757],[2547007,1481961]]],[[[2147321,1241078],[2169631,1236227],[2236045,1277133],[2325015,1382391],[2300610,1317953],[2412159,1357695],[2350481,1307365],[2345260,1326143],[2270484,1233534],[2252798,1180451],[2271622,1120601],[2310134,1103376],[2363660,1158864],[2396169,1264397],[2419996,1253987],[2581502,1415556],[2490832,1449751],[2464303,1409087],[2401289,1400668],[2292360,1419388],[2240277,1478702],[2202644,1490944],[2220070,1572362],[2154489,1545449],[2086862,1566466],[2116746,1591367],[2169516,1589850],[2215160,1654983],[2199878,1709681],[2149835,1723822],[2058500,1693846],[1978218,1624179],[1900822,1530869],[1834794,1365382],[1790036,1320570],[1747264,1294502],[1673164,1203223],[1660216,1132405],[1584684,1065956],[1826222,1126600],[1831684,1160999],[1864641,1166826],[1888375,1248798],[1882652,1341256],[1911607,1438471],[1950313,1419663],[1981741,1447296],[2027521,1429650],[2079588,1282478],[2147321,1241078]]],[[[2629545,2225954],[2593952,2211809],[2566462,2160273],[2563962,2085375],[2579526,1945834],[2597876,1914814],[2578108,1887240],[2582295,1827863],[2611250,1831563],[2575515,1749152],[2606533,1709728],[2653388,1744281],[2749559,1776459],[2808057,1836462],[2823123,1806772],[2885221,1843503],[2862907,1741303],[2891952,1760823],[2896129,1824998],[2915668,1833825],[2912819,1895496],[2959637,1858471],[2967862,1796615],[2992389,1842694],[3015050,1795413],[3050381,1814554],[3027893,1916864],[2988973,1909180],[2982305,1966248],[2961254,1895417],[2937198,1900505],[2939083,2014613],[2889575,1956264],[2898053,1995012],[2863065,1990428],[2879562,2045658],[2802313,2055215],[2772487,1996750],[2759292,2026548],[2706002,1995590],[2710907,2068428],[2661543,2055447],[2651244,1989225],[2635458,2038600],[2639831,2149817],[2606918,2187430],[2629545,2225954]]],[[[318866,3745504],[371574,3788525],[327259,3828138],[288742,3941811],[323484,4046227],[239740,4027872],[196074,3954601],[180404,3834154],[191218,3786116],[298081,3743450],[210010,3741354],[238982,3685776],[279146,3660039],[326814,3680759],[342552,3654885],[512903,3645159],[529159,3677347],[610308,3668561],[636153,3682891],[611382,3746763],[668273,3719545],[690324,3679978],[737290,3672875],[777891,3641966],[757679,3602512],[774247,3571048],[823469,3625204],[844517,3590391],[911103,3570120],[999071,3468631],[944889,3326641],[1008006,3269324],[915191,3226108],[836176,3223120],[815395,3161163],[846427,3103815],[895277,3100098],[990495,3159207],[969497,3180458],[1051577,3160227],[1208724,3046862],[1304162,3042189],[1341142,3014647],[1504013,3008499],[1501527,3048249],[1293722,3150846],[1447391,3135124],[1525164,3109770],[1529418,3144673],[1463656,3219993],[1519737,3182056],[1473904,3255783],[1451631,3246952],[1435651,3289696],[1375109,3319849],[1338607,3316527],[1296673,3356304],[1224107,3388962],[1265861,3415227],[1257766,3473884],[1325525,3433297],[1356177,3455057],[1355148,3417047],[1424288,3366943],[1475241,3365193],[1450417,3438361],[1477751,3453002],[1459132,3493078],[1483770,3504146],[1477289,3576807],[1429767,3600685],[1371202,3551031],[1375425,3602966],[1342277,3592276],[1256489,3650562],[1207225,3614552],[1196447,3655021],[1112421,3655542],[1083288,3726712],[1122730,3751767],[1046260,3751910],[1086687,3784597],[1025849,3830641],[966460,3781778],[1009235,3844104],[936032,3860904],[903437,3810743],[909835,3855247],[870006,3869375],[867491,3897894],[797228,3912413],[745181,3897153],[734842,3936741],[690327,3967756],[622995,3982780],[577756,3959226],[587269,3934870],[525865,3926011],[511696,3872602],[486880,3909777],[508298,3960962],[447451,4046379],[404551,4049436],[374705,4011203],[335277,3997072],[324153,3935511],[342275,3877619],[328177,3851404],[380595,3814808],[372568,3766948],[318866,3745504]]],[[[2356211,1791849],[2346409,1811183],[2258786,1827672],[2164681,1820068],[2149237,1800473],[2225723,1777437],[2329241,1779069],[2356211,1791849]]],[[[2334535,1462588],[2302304,1487770],[2286798,1465764],[2420050,1438246],[2461688,1506031],[2334535,1462588]]],[[[673262,2914444],[603697,2898532],[584702,2848707],[601080,2816100],[636062,2826532],[673943,2881158],[673262,2914444]]],[[[812294,2878484],[789378,2866538],[789490,2808117],[825291,2795325],[833700,2839534],[812294,2878484]]],[[[816240,3539881],[775417,3519827],[768276,3459598],[794799,3416610],[846850,3430818],[865982,3464146],[840702,3536107],[816240,3539881]]],[[[507246,4059868],[465013,4062923],[472985,4023448],[534210,3967184],[585810,3993623],[636062,3996995],[586936,4060256],[507246,4059868]]],[[[966655,1823413],[930239,1868954],[873282,1842598],[966655,1823413]]],[[[1001332,2225477],[972581,2257671],[943673,2177278],[1001332,2225477]]],[[[-353455,3954821],[-321659,3997332],[-344508,4044452],[-396536,4021245],[-353455,3954821]]],[[[-206643,4268160],[-212917,4296994],[-263956,4292098],[-241547,4245118],[-206643,4268160]]],[[[-672152,4315328],[-633515,4363281],[-699625,4328543],[-672152,4315328]]],[[[-2196006,2199539],[-2208162,2246887],[-2229864,2223769],[-2196006,2199539]]],[[[1598124,2984272],[1585816,3015133],[1554892,3001568],[1598124,2984272]]],[[[920176,3506394],[920912,3527722],[864978,3523583],[920176,3506394]]],[[[868096,3008061],[837313,2999464],[874970,2969612],[868096,3008061]]],[[[620497,3658812],[570514,3637137],[606556,3625490],[620497,3658812]]]]},"properties":{"code":"CAN","name":"Canada"}},
{"type":"Feature","geometry":{"type":"Polygon","coordinates":[[[627068,-2099488],[627041,-2309259],[664375,-2307639],[723861,-2223113],[723498,-2116282],[739552,-2059224],[716529,-2022251],[692408,-2026643],[664442,-2080905],[627068,-2099488]]]},"properties":{"code":"BLZ","name":"Belize"}},
{"type":"Feature","geometry":{"type":"Polygon","coordinates":[[[3835225,-2000952],[3840266,-1990895],[3814287,-1982315],[3835225,-2000952]]]},"properties":{"code":"BRB","name":"Barbados"}},
{"type":"Feature","geometry":{"type":"MultiPolygon","coordinates":[[[[1759631,-1262039],[1725827,-1271109],[1775977,-1316580],[1759631,-1262039]]],[[[1775892,-1072893],[1781008,-1001344],[1768036,-1008325],[1775892,-1072893]]],[[[2278459,-1506423],[2228097,-1517341],[2218573,-1547998],[2268359,-1532745],[2278459,-1506423]]],[[[1743871,-1213252],[1714933,-1175740],[1676095,-1233580],[1720287,-1264444],[1743871,-1213252]]],[[[1638121,-1003641],[1624120,-1030975],[1691613,-992919],[1638121,-1003641]]]]},"properties":{"code":"BHS","name":"Bahamas"}},
{"type":"Feature","geometry":{"type":"Polygon","coordinates":[[[3513270,-1646921],[3499799,-1635928],[3499422,-1654289],[3513270,-1646921]]]},"properties":{"code":"ATG","name":"Antigua and Barb."}}
]}