{"type": "FeatureCollection", "features": [{"type": "Feature", "geometry": {"type": "Point", "coordinates": [855813, -2490203]}, "properties": {"code": "HND", "name": "Honduras", "capital": "Tegucigalpa"}}, {"type": "Feature", "geometry": {"type": "Point", "coordinates": [970978, -2693536]}, "properties": {"code": "NIC", "name": "Nicaragua", "capital": "Managua"}}, {"type": "Feature", "geometry": {"type": "Point", "coordinates": [1743943, -2956296]}, "properties": {"code": "PAN", "name": "Panama", "capital": "Panama City"}}, {"type": "Feature", "geometry": {"type": "Point", "coordinates": [1228397, -2912254]}, "properties": {"code": "CRI", "name": "Costa Rica", "capital": "San Jos\u00e9"}}, {"type": "Feature", "geometry": {"type": "Point", "coordinates": [638148, -2547164]}, "properties": {"code": "SLV", "name": "El Salvador", "capital": "San Salvador"}}, {"type": "Feature", "geometry": {"type": "Point", "coordinates": [490620, -2454070]}, "properties": {"code": "GTM", "name": "Guatemala", "capital": "Guatemala City"}}, {"type": "Feature", "geometry": {"type": "Point", "coordinates": [1498271, 1094203]}, "properties": {"code": "CAN", "name": "Canada", "capital": "Ottawa"}}, {"type": "Feature", "geometry": {"type": "Point", "coordinates": [671990, -2158525]}, "properties": {"code": "BLZ", "name": "Belize", "capital": "Belmopan"}}, {"type": "Feature", "geometry": {"type": "Point", "coordinates": [1547044, 359407]}, "properties": {"code": "USA", "name": "United States of America", "capital": "Washington,  D.C."}}, {"type": "Feature", "geometry": {"type": "Point", "coordinates": [-438832, -1929863]}, "properties": {"code": "MEX", "name": "Mexico", "capital": "Mexico City"}}]}